name,categoryName,website,phone,address,Suburb,state,countryCode,postalCode,location/lat,location/lng,totalScore,reviewsCount,reviewsDistribution/fiveStar,reviewsDistribution/fourStar,reviewsDistribution/oneStar,reviewsDistribution/threeStar,reviewsDistribution/twoStar
Crown Towers Melbourne,Hotel,https://www.crownhotels.com.au/crown-towers-melbourne,+61 3 9292 8888,"8 Whiteman St, Southbank VIC 3006, Australia",Southbank,Victoria,AU,3006,-37.8223795,144.9600171,4.4,6805,4258,1809,182,458,98
Grand Hyatt Melbourne,Hotel,https://www.hyatt.com/en-US/hotel/australia/grand-hyatt-melbourne/melbo?src=corp_lclb_gmb_seo_melbo,+61 3 9657 1234,"123 Collins St, Melbourne VIC 3000, Australia",Melbourne,Victoria,AU,3000,-37.8152075,144.9698275,4.5,3813,2482,915,120,229,67
Sofitel Melbourne on Collins,Hotel,https://all.accor.com/hotel/1902/index.en.shtml?utm_campaign=seo+maps&utm_medium=seo+maps&utm_source=google+Maps&y_source=1_MTUzNTkxNjgtNzE1LWxvY2F0aW9uLndlYnNpdGU%3D,+61 3 9653 0000,"25 Collins St, Melbourne VIC 3000, Australia",Melbourne,Victoria,AU,3000,-37.8139965,144.9728921,4.5,3196,2099,814,51,180,52
Crown Metropol Melbourne,Hotel,https://www.crownhotels.com.au/crown-metropol-melbourne,+61 3 9292 6211,"8 Whiteman St, Southbank VIC 3006, Australia",Southbank,Victoria,AU,3006,-37.825839,144.9576637,4.3,2297,1400,579,110,145,63
The Victoria Hotel,Hotel,https://www.independentcollection.com.au/accommodation/melbourne-vic/the-victoria-hotel/?utm_source=google&utm_medium=organic&utm_campaign=gmb,+61 3 9669 0000,"215 Little Collins St, Melbourne VIC 3000, Australia",Melbourne,Victoria,AU,3000,-37.8142903,144.9671311,4.1,2109,866,795,67,309,72
Pullman Melbourne On the Park,Hotel,https://all.accor.com/hotel/9875/index.en.shtml?utm_campaign=seo+maps&utm_medium=seo+maps&utm_source=google+Maps&y_source=1_MTUzNTkyMjYtNzE1LWxvY2F0aW9uLndlYnNpdGU%3D,+61 3 9419 2000,"192 Wellington Parade, East Melbourne VIC 3002, Australia",East Melbourne,Victoria,AU,3002,-37.8157469,144.9832559,4.1,2056,944,692,71,236,113
Park Hyatt Melbourne,Hotel,https://www.hyatt.com/en-US/hotel/australia/park-hyatt-melbourne/melph?src=corp_lclb_gmb_seo_melph,+61 3 9224 1234,"1 Parliament Square, Melbourne VIC 3002, Australia",Melbourne,Victoria,AU,3002,-37.811422,144.9763604,4.6,1982,1423,400,32,102,25
"The Langham, Melbourne",Hotel,http://www.langhamhotels.com/en/the-langham/melbourne/?htl=tlmel&src=organic&eng=google&size=na&cid=yext_profile&y_source=1_MTAwNjI1OTEtNzE1LWxvY2F0aW9uLndlYnNpdGU%3D,+61 3 8696 8888,"1 Southgate Ave, Southbank VIC 3006, Australia",Southbank,Victoria,AU,3006,-37.8206734,144.9656738,4.4,1979,1304,435,70,125,45
The Hotel Windsor,Hotel,http://www.thehotelwindsor.com.au/,+61 3 9633 6000,"111 Spring St, Melbourne VIC 3000, Australia",Melbourne,Victoria,AU,3000,-37.812125,144.9729651,4.3,1839,1092,448,82,173,44
Crown Promenade Melbourne,Hotel,https://www.crownhotels.com.au/crown-promenade-melbourne,+61 3 9292 8888,"8 Whiteman St, Southbank VIC 3006, Australia",Southbank,Victoria,AU,3006,-37.8238395,144.9599367,4.4,1829,1082,557,55,100,35
Novotel Melbourne on Collins,Hotel,https://all.accor.com/hotel/1587/index.en.shtml?utm_campaign=seo+maps&utm_medium=seo+maps&utm_source=google+Maps&y_source=1_MTUzNTgzNDktNzE1LWxvY2F0aW9uLndlYnNpdGU%3D,+61 3 9667 5800,"270 Collins St, Melbourne VIC 3000, Australia",Melbourne,Victoria,AU,3000,-37.8157663,144.9648408,4.2,1806,866,618,66,182,74
Atlantis Hotel,Hotel,http://www.atlantishotel.com.au/,+61 3 9600 2900,"300 Spencer St, Melbourne VIC 3000, Australia",Melbourne,Victoria,AU,3000,-37.8136041,144.9518625,4,1774,673,669,109,235,88
"Crowne Plaza Melbourne, an IHG Hotel",Hotel,https://www.ihg.com/crowneplaza/hotels/us/en/melbourne/melfs/hoteldetail?cm_mmc=GoogleMaps-_-CP-_-AU-_-MELFS,+61 3 9648 2777,"1/5 Spencer St, Melbourne VIC 3008, Australia",Melbourne,Victoria,AU,3008,-37.8228021,144.954803,4.2,1706,835,528,88,201,54
Travelodge Hotel Melbourne Docklands,Hotel,https://www.travelodge.com.au/book-accommodation/melbourne/hotel-melbourne-docklands/?&utm_source=googleplaces&utm_medium=organic&utm_campaign=&utm_content=travelodge-melbourne-docklands,+61 3 8615 1000,"66 Aurora Ln, Docklands VIC 3008, Australia",Docklands,Victoria,AU,3008,-37.8189969,144.9503634,4,1680,625,647,75,259,74
Rendezvous Hotel Melbourne,Hotel,https://rendezvousmelbourne.com.au/?utm_source=googleplaces&utm_medium=organic&utm_campaign=googleplaces&utm_content=rendezvous-melbourne,+61 3 9250 1888,"328 Flinders St, Melbourne VIC 3000, Australia",Melbourne,Victoria,AU,3000,-37.8183324,144.9635426,4,1677,683,596,70,262,66
ibis Melbourne Hotel & Apartments,Hotel,https://all.accor.com/hotel/1564/index.en.shtml?utm_campaign=seo+maps&utm_medium=seo+maps&utm_source=google+Maps&y_source=1_MTUzNTg0NTUtNzE1LWxvY2F0aW9uLndlYnNpdGU%3D,+61 3 9666 0000,"15-21 Therry St, Melbourne VIC 3000, Australia",Melbourne,Victoria,AU,3000,-37.8069565,144.9613627,4.1,1400,559,529,55,219,38
"InterContinental Melbourne, an IHG Hotel",Hotel,https://www.ihg.com/intercontinental/hotels/us/en//melbourne/melha/hoteldetail,+61 3 8627 1400,"495 Collins St, Melbourne VIC 3000, Australia",Melbourne,Victoria,AU,3000,-37.8181299,144.9579617,4.4,1356,818,399,36,78,25
Oaks Melbourne on Market Hotel,Hotel,https://www.oakshotels.com/en/oaks-on-market?utm_description=GoogleMyBusiness&utm_campaign=GMBMarket&utm_source=GoogleMyBusiness&utm_medium=GMBMarket,+61 1300 790 687,"60 Market St, Melbourne VIC 3000, Australia",Melbourne,Victoria,AU,3000,-37.8177472,144.9607539,4.1,1329,588,482,59,160,40
QT Melbourne,Hotel,https://www.qthotels.com/melbourne/?utm_source=google&utm_medium=organic&utm_campaign=gmb,+61 3 8636 8800,"133 Russell St, Melbourne VIC 3000, Australia",Melbourne,Victoria,AU,3000,-37.8133583,144.9680749,4.5,1300,935,228,57,54,26
The Westin Melbourne,Hotel,https://www.marriott.com/en-us/hotels/melwi-the-westin-melbourne/overview/?scid=f2ae0541-1279-4f24-b197-a979c79310b0,+61 3 9635 2222,"205 Collins St, Melbourne VIC 3000, Australia",Melbourne,Victoria,AU,3000,-37.8155068,144.967508,4.5,1299,850,322,36,78,13
Stamford Plaza Melbourne,Hotel,https://www.stamford.com.au/spm,+61 3 9659 1000,"111 Little Collins St, Melbourne VIC 3000, Australia",Melbourne,Victoria,AU,3000,-37.8135163,144.9699388,4,1285,558,414,88,151,74
Brady Hotels Central Melbourne,Hotel,https://www.bradyhotels.com.au/central-melbourne/,+61 3 9650 9888,"30 Little La Trobe St, Melbourne VIC 3000, Australia",Melbourne,Victoria,AU,3000,-37.8091589,144.9626744,4.3,1237,677,384,36,105,35
Pegasus Apart'Hotel,Hotel,http://www.pegasussuites.com.au/,+61 3 9284 2400,"206 A'Beckett St, Melbourne VIC 3000, Australia",Melbourne,Victoria,AU,3000,-37.8101492,144.9571351,4.2,1233,576,465,51,111,30
Melbourne Marriott Hotel,Hotel,https://www.marriott.com/hotels/travel/melmc-melbourne-marriott-hotel/?scid=bb1a189a-fec3-4d19-a255-54ba596febe2&y_source=1_MjkyMTQyMC03MTUtbG9jYXRpb24ud2Vic2l0ZQ%3D%3D,+61 3 9662 3900,"Corner Exhibition &, Lonsdale St, Melbourne VIC 3000, Australia",Melbourne,Victoria,AU,3000,-37.809947,144.9694324,4.3,1198,642,386,32,103,35
Travelodge Hotel Melbourne Southbank,Hotel,https://www.travelodge.com.au/book-accommodation/melbourne/hotel-melbourne-southbank/?&utm_source=googleplaces&utm_medium=organic&utm_campaign=&utm_content=travelodge-melbourne-southbank,,"9 Riverside Quay, Southbank VIC 3006, Australia",Southbank,Victoria,AU,3006,-37.8212752,144.9653276,4.1,1136,429,459,36,164,48
DoubleTree by Hilton Hotel Melbourne - Flinders Street,Hotel,https://www.hilton.com/en/hotels/melfsdi-doubletree-melbourne-flinders-street/?SEO_id=GMB-APAC-DI-MELFSDI,+61 3 9654 6888,"270 Flinders St, Melbourne VIC 3000, Australia",Melbourne,Victoria,AU,3000,-37.8178819,144.9654538,4.3,1112,579,357,47,98,31
Four Points by Sheraton Melbourne Docklands,Hotel,https://www.marriott.com/en-us/hotels/melfp-four-points-by-sheraton-melbourne-docklands/overview/?scid=f2ae0541-1279-4f24-b197-a979c79310b0,+61 3 8578 0000,"443 Docklands Dr, Docklands VIC 3008, Australia",Docklands,Victoria,AU,3008,-37.815317,144.9385419,4.3,1108,611,344,49,71,33
Oaks Melbourne on William Suites,Hotel,https://www.oakshotels.com/en/oaks-on-william?utm_description=GoogleMyBusiness&utm_campaign=GMBWilliam&utm_source=GoogleMyBusiness&utm_medium=GMBWilliam,+61 1300 554 275,"350 William St, Melbourne VIC 3000, Australia",Melbourne,Victoria,AU,3000,-37.8113063,144.9565716,4.2,1092,519,389,49,110,25
Citadines on Bourke Melbourne,Serviced accommodation,https://www.discoverasr.com/en/citadines/australia/citadines-on-bourke-melbourne?utm_source=google&utm_medium=gmb&utm_campaign=HQ-google-gmb-alwayson-20210927-all-en-au-au-citadinesonbourkemelbourne-eme,+61 3 9039 8888,"131-135 Bourke St, Melbourne VIC 3000, Australia",Melbourne,Victoria,AU,3000,-37.8126724,144.9692461,4.3,1072,514,412,31,87,28
The Sebel Melbourne Docklands,Hotel,https://www.sebeldocklands.com.au/,+61 3 9641 7500,"18 Aquitania Way, Docklands VIC 3008, Australia",Docklands,Victoria,AU,3008,-37.8138051,144.9425242,4.2,1070,570,287,75,94,44
Exford Hotel,Bar,http://www.exfordhotel.com.au/,+61 3 9663 2697,"199 Russell St, Melbourne VIC 3000, Australia",Melbourne,Victoria,AU,3000,-37.811781,144.967444,4.1,1058,449,379,29,164,37
Space Hotel,Hostel,https://www.spacehotel.com.au/,+61 3 9662 3888,"380 Russell St, Melbourne VIC 3000, Australia",Melbourne,Victoria,AU,3000,-37.807537,144.9660728,4.2,1016,520,311,40,107,38
Sheraton Melbourne Hotel,Hotel,https://www.marriott.com/en-us/hotels/melsi-sheraton-melbourne-hotel/overview/?scid=f2ae0541-1279-4f24-b197-a979c79310b0,+61 3 9290 1000,"27 Little Collins St, Melbourne VIC 3000, Australia",Melbourne,Victoria,AU,3000,-37.8128985,144.9727786,4.2,974,558,249,65,77,25
The Savoy Hotel on Little Collins Melbourne,Hotel,https://savoyhotelmelbourne.com/?utm_source=googleplaces&utm_medium=organic&utm_campaign=googleplaces&utm_content=savoy-melbourne,+61 3 9622 8888,"630 Little Collins St, Melbourne VIC 3000, Australia",Melbourne,Victoria,AU,3000,-37.817728,144.9539335,4.2,960,483,307,24,117,29
Pullman Melbourne on Swanston,Hotel,https://all.accor.com/hotel/3028/index.en.shtml?utm_campaign=seo+maps&utm_medium=seo+maps&utm_source=google+Maps&y_source=1_MTUzNjA4MjgtNzE1LWxvY2F0aW9uLndlYnNpdGU%3D,+61 3 9663 4711,"195 Swanston St, Melbourne VIC 3000, Australia",Melbourne,Victoria,AU,3000,-37.8131012,144.9650043,4,959,395,329,50,143,42
Radisson on Flagstaff Gardens Melbourne,Hotel,https://www.radissonhotels.com/en-us/hotels/radisson-melbourne-flagstaff-gardens,+61 3 9322 8000,"380 William St, Melbourne VIC 3000, Australia",Melbourne,Victoria,AU,3000,-37.8103603,144.9560809,4.3,942,511,295,25,91,20
Wyndham Hotel Melbourne,Hotel,https://www.wyndhammelbourne.com.au/?CID=LC:HR::GGL:RIO:National:47584&iata=00093796,+61 3 8692 8900,"199 William St, Melbourne VIC 3000, Australia",Melbourne,Victoria,AU,3000,-37.8145689,144.9573572,4.3,933,524,272,43,72,22
View Melbourne,Hotel,https://viewhotels.com.au/melbourne,+61 3 9529 8888,"562 St Kilda Rd, Melbourne VIC 3004, Australia",Melbourne,Victoria,AU,3004,-37.8463433,144.9784634,4.2,927,431,324,34,110,28
The Olsen Melbourne - Art Series,Hotel,https://all.accor.com/hotel/B3V5/index.en.shtml?utm_campaign=seo+maps&utm_medium=seo+maps&utm_source=google+Maps&y_source=1_MTUzNjExNjQtNzE1LWxvY2F0aW9uLndlYnNpdGU%3D,+61 3 9040 1222,"637/641 Chapel St, South Yarra VIC 3141, Australia",South Yarra,Victoria,AU,3141,-37.8380001,144.9954769,4.3,876,498,242,45,61,30
Jasper Hotel,Hotel,https://www.jasperhotel.com.au/?utm_source=local-directories&utm_medium=organic&utm_campaign=travelclick-localconnect,+61 3 8327 2777,"489 Elizabeth St, Melbourne VIC 3000, Australia",Melbourne,Victoria,AU,3000,-37.8074918,144.9597157,4.1,801,339,288,30,108,36
Adina Apartment Hotel Melbourne,Hotel,https://www.adinahotels.com/en/apartments/melbourne/?utm_source=googleplaces&utm_medium=organic&utm_campaign=googleplaces&utm_content=adina-melbourne,+61 3 9934 0000,"189 Queen St, Melbourne VIC 3000, Australia",Melbourne,Victoria,AU,3000,-37.8142469,144.9599771,4.2,711,335,257,25,69,25
The Jazz Corner Hotel,Hotel,https://www.jazzcornerhotel.com/,+61 3 9454 9000,"352 William St, Melbourne VIC 3000, Australia",Melbourne,Victoria,AU,3000,-37.8111926,144.9564417,4.3,660,365,194,27,58,16
Miami Hotel Melbourne,Hotel,https://www.themiami.com.au/,+61 3 9321 2444,"13 Hawke St, West Melbourne VIC 3003, Australia",West Melbourne,Victoria,AU,3003,-37.8060026,144.9484743,4.2,645,303,225,20,71,26
Mantra on Little Bourke Melbourne,Hotel,https://all.accor.com/hotel/B3N9/index.en.shtml?utm_campaign=seo+maps&utm_medium=seo+maps&utm_source=google+Maps&y_source=1_MTUzNjA4ODAtNzE1LWxvY2F0aW9uLndlYnNpdGU%3D,+61 3 9607 3000,"471 Little Bourke St, Melbourne VIC 3000, Australia",Melbourne,Victoria,AU,3000,-37.814443,144.958996,4.3,641,306,247,20,51,17
Mantra Southbank Melbourne,Hotel,https://all.accor.com/hotel/B3Q9/index.en.shtml?utm_campaign=seo+maps&utm_medium=seo+maps&utm_source=google+Maps&y_source=1_MTUzNjA3ODMtNzE1LWxvY2F0aW9uLndlYnNpdGU%3D,+61 3 8696 7222,"31 City Rd, Southbank VIC 3006, Australia",Southbank,Victoria,AU,3006,-37.8216792,144.9669244,4.1,610,237,262,20,75,16
Melbourne Metro YHA,Hostel,https://www.yha.com.au/hostels/vic/melbourne-hostels/melbourne-metro-hostel/?utm_source=google-business&utm_medium=righthandside&utm_campaign=listing,+61 3 9329 8599,"78 Howard St, North Melbourne VIC 3051, Australia",North Melbourne,Victoria,AU,3051,-37.803079,144.9544576,4,586,236,194,39,90,27
Melbourne Central YHA,Hostel,https://www.yha.com.au/hostels/vic/melbourne-hostels/melbourne-central-hostel/?utm_source=google-business&utm_medium=righthandside&utm_campaign=listing,+61 3 9621 2523,"562 Flinders St, Melbourne VIC 3000, Australia",Melbourne,Victoria,AU,3000,-37.8206438,144.9556166,4.1,580,268,196,26,70,20
The Como Melbourne - MGallery,Hotel,https://all.accor.com/hotel/8801/index.en.shtml?utm_campaign=seo+maps&utm_medium=seo+maps&utm_source=google+Maps&y_source=1_MTUzNjI2NTktNzE1LWxvY2F0aW9uLndlYnNpdGU%3D,+61 3 9825 2222,"630 Chapel St, South Yarra VIC 3141, Australia",South Yarra,Victoria,AU,3141,-37.8390099,144.9962073,4.4,579,348,155,20,40,16
Naughtons Hotel,Hotel,http://naughtonshotel.com.au/,+61 3 9347 2255,"43 Royal Parade, Parkville VIC 3052, Australia",Parkville,Victoria,AU,3052,-37.7955778,144.9576444,4.4,561,320,191,9,36,5
Clarion Suites Gateway,Hotel,https://www.choicehotels.com/victoria/melbourne/clarion-hotels/au603?mc=llgoxxap,+61 3 9296 8888,"1 William St, Melbourne VIC 3000, Australia",Melbourne,Victoria,AU,3000,-37.8194702,144.9595028,4.3,529,270,169,14,66,10
Quay West Suites,Hotel,,+61 3 9693 6000,"26 Southgate Ave, Southbank VIC 3006, Australia",Southbank,Victoria,AU,3006,-37.8204221,144.9670934,4.5,523,346,134,11,21,11
Adina Apartment Hotel Melbourne Northbank,Hotel,https://www.adinahotels.com/en/apartments/melbourne-northbank/?utm_source=googleplaces&utm_medium=organic&utm_campaign=googleplaces&utm_content=adina-melbourne-northbank,+61 3 9246 0000,"550 Flinders St, Melbourne VIC 3000, Australia",Melbourne,Victoria,AU,3000,-37.8204643,144.9559926,4.2,495,245,167,12,54,17
Oaks Melbourne Southbank Suites,Hotel,https://www.oakshotels.com/en/oaks-southbank?utm_description=GoogleMyBusiness&utm_campaign=GMBSouhtbank&utm_source=GoogleMyBusiness&utm_medium=GMBSouhtbank,+61 1300 696 186,"57-61 City Rd, Southbank VIC 3006, Australia",Southbank,Victoria,AU,3006,-37.8221269,144.9659824,4.1,485,233,150,19,61,22
Adelphi Hotel,Hotel,https://adelphi.com.au/,+61 3 8080 8888,"187 Flinders Ln, Melbourne VIC 3000, Australia",Melbourne,Victoria,AU,3000,-37.816265,144.9683427,4.4,428,271,110,13,23,11
Seasons Botanic Gardens,Hotel,https://www.seasonsbotanicgardensmelbourne.com.au/,+61 3 9685 3000,"348 St Kilda Rd, Melbourne VIC 3004, Australia",Melbourne,Victoria,AU,3004,-37.8309509,144.9708639,4.1,422,194,137,24,53,14
ibis Melbourne Central,Hotel,https://all.accor.com/hotel/A0E4/index.en.shtml?utm_campaign=seo+maps&utm_medium=seo+maps&utm_source=google+Maps&y_source=1_MTUzNjAzODQtNzE1LWxvY2F0aW9uLndlYnNpdGU%3D,+61 3 9929 8888,"399 Little Lonsdale St, Melbourne VIC 3000, Australia",Melbourne,Victoria,AU,3000,-37.812047,144.9602102,4.3,400,218,125,11,36,10
Novotel Melbourne Central,Hotel,https://all.accor.com/hotel/A0B1/index.en.shtml?utm_campaign=seo+maps&utm_medium=seo+maps&utm_source=google+Maps&y_source=1_MTUzNjA2NzMtNzE1LWxvY2F0aW9uLndlYnNpdGU%3D,+61 3 9929 8888,"399 Little Lonsdale St, Melbourne VIC 3000, Australia",Melbourne,Victoria,AU,3000,-37.8119138,144.960071,4.3,400,236,93,24,30,17
The Best Western Plus Travel Inn Hotel,Hotel,http://www.thetravelinn.com.au/,+61 3 9347 7922,"225 Drummond St, Carlton VIC 3053, Australia",Carlton,Victoria,AU,3053,-37.8004361,144.9682137,4.1,399,160,155,12,60,12
Ovolo Laneways,Hotel,https://ovolohotels.com/ovolo/laneways/?utm_source=local&utm_medium=organic&utm_campaign=gmb,+61 3 8692 0777,"19 Little Bourke St, Melbourne VIC 3000, Australia",Melbourne,Victoria,AU,3000,-37.8106278,144.9719278,4.6,381,288,64,6,15,8
Peppers Docklands Melbourne,Hotel,https://all.accor.com/hotel/B3T4/index.en.shtml?utm_campaign=seo+maps&utm_medium=seo+maps&utm_source=google+Maps&y_source=1_MTUzNjA3MDEtNzE1LWxvY2F0aW9uLndlYnNpdGU%3D,+61 3 9190 0000,"679 La Trobe St, Docklands VIC 3008, Australia",Docklands,Victoria,AU,3008,-37.8147446,144.947122,4.4,381,231,92,12,31,15
The Larwill Studio Melbourne - Art Series,Hotel,https://all.accor.com/hotel/B3V4/index.en.shtml?utm_campaign=seo+maps&utm_medium=seo+maps&utm_source=google+Maps&y_source=1_MTUzNjExNjMtNzE1LWxvY2F0aW9uLndlYnNpdGU%3D,+61 3 9032 9111,"48 Flemington Rd, Parkville VIC 3052, Australia",Parkville,Victoria,AU,3052,-37.7949609,144.9497837,4.5,378,244,103,7,17,7
Hotel Claremont Guesthouse,Hotel,http://www.hotelclaremont.com/,+61 3 9826 8000,"189 Toorak Rd, South Yarra VIC 3141, Australia",South Yarra,Victoria,AU,3141,-37.8390202,144.9933788,4,340,140,112,22,48,18
Mantra 100 Exhibition Melbourne,Hotel,https://all.accor.com/hotel/B3K0/index.en.shtml?utm_campaign=seo+maps&utm_medium=seo+maps&utm_source=google+Maps&y_source=1_MTUzNjA0MzEtNzE1LWxvY2F0aW9uLndlYnNpdGU%3D,+61 3 9631 4444,"100 Exhibition St, Melbourne VIC 3000, Australia",Melbourne,Victoria,AU,3000,-37.8133342,144.9715543,4,339,125,125,17,58,14
WRAP on Southbank,Serviced accommodation,https://www.oakshotels.com/en/wrap-on-southbank?utm_description=GoogleMyBusiness&utm_campaign=GMBWrapSouthbank&utm_source=GoogleMyBusiness&utm_medium=GMBWrapSouthbank,+61 1300 726 615,"133-139 City Rd, Southbank VIC 3006, Australia",Southbank,Victoria,AU,3006,-37.8234839,144.9636118,4.1,315,171,68,27,33,16
Adina Apartment Hotel Melbourne on Flinders,Serviced accommodation,https://www.adinahotels.com/en/apartments/melbourne-on-flinders/?utm_source=googleplaces&utm_medium=organic&utm_campaign=googleplaces&utm_content=adina-melbourne-on-flinders,+61 3 8663 0000,"88 Flinders St, Melbourne VIC 3000, Australia",Melbourne,Victoria,AU,3000,-37.8159431,144.9716812,4.2,301,153,91,21,30,6
HOTEL NO,Hotel,https://hotelno.melbourne/,+61 1300 146 567,"388 Flinders Ln, Melbourne VIC 3000, Australia",Melbourne,Victoria,AU,3000,-37.8179861,144.9610528,4.5,276,209,32,12,17,6
Alto Hotel on Bourke,Hotel,https://www.altohotel.com.au/,+61 3 8608 5500,"636 Bourke St, Melbourne VIC 3000, Australia",Melbourne,Victoria,AU,3000,-37.8164338,144.9547794,4.4,271,152,89,4,22,4
Quest Southbank,Hotel,https://www.questapartments.com.au/properties/vic/southbank/quest-southbank/overview?utm_source=GoogleMyBusiness&utm_medium=organic&utm_campaign=southbank,+61 3 9694 5600,"14 Kavanagh St, Southbank VIC 3006, Australia",Southbank,Victoria,AU,3006,-37.8226813,144.966357,4.1,253,102,107,10,27,7
Park Regis Griffin Suites,Hotel,https://www.parkregisgriffinsuites.com.au/?utm_source=google&utm_medium=organic&utm_campaign=local-listing,+61 3 8530 1800,"604 St Kilda Rd, Melbourne VIC 3004, Australia",Melbourne,Victoria,AU,3004,-37.8511518,144.9803894,4.1,244,104,84,9,38,9
"Quest NewQuay, Docklands",Hotel,https://www.questapartments.com.au/properties/vic/docklands/quest-newquay/overview?utm_source=GoogleMyBusiness&utm_medium=organic&utm_campaign=questnewquay,+61 3 9070 8000,"26 Caravel Ln, Docklands VIC 3008, Australia",Docklands,Victoria,AU,3008,-37.8140377,144.9407744,4.4,236,160,43,14,14,5
YEHS Melbourne Hotel CBD,Hotel,https://www.melbournehotelcbd.com.au/,+61 3 9672 0000,"600 Little Bourke St, Melbourne VIC 3000, Australia",Melbourne,Victoria,AU,3000,-37.8154724,144.9547888,4.1,226,145,24,32,17,8
Hilton Melbourne Little Queen Street,Hotel,https://www.hilton.com/en/hotels/melamhi-hilton-melbourne-little-queen-street/?SEO_id=GMB-APAC-HI-MELAMHI,+61 3 9116 8888,"18 Little Queen St, Melbourne VIC 3000, Australia",Melbourne,Victoria,AU,3000,-37.8147638,144.9595096,4.3,222,149,29,15,18,11
Quest Flemington Central,Hotel,https://www.questapartments.com.au/properties/vic/flemington/quest-flemington-central/overview/,+61 3 8595 8880,"1 Ascot Vale Rd, Flemington VIC 3031, Australia",Flemington,Victoria,AU,3031,-37.786812,144.921337,4.2,216,127,51,17,16,5
Ink Hotel Melbourne Southbank,Hotel,https://inkhotels.com/melbourne-southbank/,+61 3 9115 7000,"167 City Rd, Southbank VIC 3006, Australia",Southbank,Victoria,AU,3006,-37.8243459,144.9624645,4.4,193,135,29,11,12,6
Melbourne Marriott Hotel Docklands,Hotel,https://www.marriott.com/en-us/hotels/meldl-melbourne-marriott-hotel-docklands/overview/?scid=f2ae0541-1279-4f24-b197-a979c79310b0,+61 3 8638 6000,"15 Waterfront Way, Docklands VIC 3008, Australia",Docklands,Victoria,AU,3008,-37.8136885,144.9392881,4.2,190,128,23,19,6,14
Quest on Dorcas,Hotel,https://www.questapartments.com.au/properties/vic/south-melbourne/quest-on-dorcas/overview?utm_source=GoogleMyBusiness&utm_medium=organic&utm_campaign=questondorcas,+61 3 9698 1500,"8 Dorcas St, Southbank VIC 3006, Australia",Southbank,Victoria,AU,3006,-37.830053,144.970198,4.4,181,101,58,5,15,2
Winston Apartments,Serviced accommodation,http://www.winstonapartments.com.au/,+61 433 377 770,"568 Collins St, Melbourne VIC 3000, Australia",Melbourne,Victoria,AU,3000,-37.8183726,144.9555337,4,181,81,59,15,17,9
Brady Hotels Jones Lane,Hotel,https://www.bradyhotels.com.au/jones-lane/,+61 3 8637 7000,"111 Little Lonsdale St, Melbourne VIC 3000, Australia",Melbourne,Victoria,AU,3000,-37.8094509,144.9685923,4.4,177,115,40,6,12,4
Vibe Hotel Melbourne,Hotel,https://vibehotels.com/book-accommodation/melbourne/hotel-melbourne/?utm_source=googleplaces&utm_medium=organic&utm_campaign=googleplaces&utm_content=vibe-melbourne,+61 3 9958 9100,"1 Queen St, Melbourne VIC 3000, Australia",Melbourne,Victoria,AU,3000,-37.8188225,144.9620017,4.4,170,114,32,10,11,3
Docklands Private Collection - City Harbour,Serviced accommodation,https://www.docklandsprivatecollection.com.au/,+61 3 9642 4220,"7/198 Harbour Esplanade, Docklands VIC 3008, Australia",Docklands,Victoria,AU,3008,-37.8138556,144.9447022,4.4,165,111,35,12,6,1
Amity Apartment Hotels,Hotel,http://www.amityhotels.com.au/,+61 3 8825 3700,"27-29 Claremont St, South Yarra VIC 3141, Australia",South Yarra,Victoria,AU,3141,-37.837103,144.9936774,4.4,164,100,42,3,15,4
Avani Melbourne Central Residences,Hotel,https://www.avanihotels.com/central-melbourne-residences?utm_source=GoogleMyBusiness&utm_medium=GMB&utm_term=CentralMelbourne&utm_content=Home&utm_campaign=Google_GMB,+61 3 8803 3670,"60 A'Beckett St, Melbourne VIC 3000, Australia",Melbourne,Victoria,AU,3000,-37.8088802,144.9614851,4.1,158,85,43,19,7,4
"Holiday Inn Express Melbourne Southbank, an IHG Hotel",Hotel,https://www.ihg.com/holidayinnexpress/hotels/us/en/melbourne/melms/hoteldetail?cm_mmc=GoogleMaps-_-EX-_-AU-_-MELMS,+61 3 7505 5444,"35/47 City Rd, Southbank VIC 3006, Australia",Southbank,Victoria,AU,3006,-37.8219612,144.9664341,4.1,152,86,35,13,11,7
Carlton Lygon Lodge,Hotel,http://www.lygonlodge.com.au/,+61 468 890 055,"1/220 Lygon St, Carlton VIC 3053, Australia",Carlton,Victoria,AU,3053,-37.801868,144.967,4.1,150,79,39,10,17,5
RNR Serviced Apartments,Serviced accommodation,http://www.rnrmelbourne.com.au/,+61 3 8354 9029,"139 Chetwynd St, North Melbourne VIC 3051, Australia",North Melbourne,Victoria,AU,3051,-37.8023931,144.952279,4.1,142,75,35,13,14,5
Flinders Landing Apartments,Serviced accommodation,http://www.flinderslandingapartments.com.au/,+61 3 9652 3333,"161 Flinders Ln, Melbourne VIC 3000, Australia",Melbourne,Victoria,AU,3000,-37.8160038,144.969107,4.1,135,73,33,14,9,6
Quincy Hotel Melbourne,Hotel,https://quincymelbourne.com/?utm_source=googleplaces&utm_medium=organic&utm_campaign=googleplaces&utm_content=quincy-melbourne,+61 3 9492 7400,"509 Flinders Ln, Melbourne VIC 3000, Australia",Melbourne,Victoria,AU,3000,-37.8195657,144.9569817,4.4,134,94,17,5,12,6
SoYa Apartment Hotel,Hotel,http://www.soyahotel.com.au/,+61 3 9820 0377,"4 Darling St, South Yarra VIC 3141, Australia",South Yarra,Victoria,AU,3141,-37.8383296,144.9917737,4.5,128,95,20,5,5,3
Zagame's House,Hotel,https://www.zagameshouse.com.au/,+61 3 9084 7777,"66 Lygon St, Carlton VIC 3053, Australia",Carlton,Victoria,AU,3053,-37.8050872,144.9664756,4.5,128,100,12,5,7,4
Quest Prahran,Serviced accommodation,https://www.questapartments.com.au/properties/vic/south-yarra/quest-prahran/overview?utm_source=GoogleMyBusiness&utm_medium=organic&utm_campaign=questprahran,+61 3 9823 8888,"9 Balmoral St, South Yarra VIC 3141, Australia",South Yarra,Victoria,AU,3141,-37.8458191,144.9909759,4.2,128,63,44,8,9,4
Shadow Play Melbourne by Peppers,Hotel,https://all.accor.com/hotel/B456/index.en.shtml?utm_campaign=seo+maps&utm_medium=seo+maps&utm_source=google+Maps&y_source=1_MTUzNjA3MTQtNzE1LWxvY2F0aW9uLndlYnNpdGU%3D,+61 3 7004 0400,"308 320 City Rd, Southbank VIC 3000, Australia",Southbank,Victoria,AU,3000,-37.827077,144.9580856,4.3,126,89,16,10,6,5
Birches Serviced Apartments,Serviced accommodation,https://www.birches.com.au/,+61 3 9417 2344,"160 Simpson St, East Melbourne VIC 3002, Australia",East Melbourne,Victoria,AU,3002,-37.8105772,144.9890597,4,122,57,35,10,15,5
Next Hotel Melbourne,Hotel,https://nexthotelmelbourne.com/,+61 3 9118 3333,"103 Little Collins St, Melbourne VIC 3000, Australia",Melbourne,Victoria,AU,3000,-37.8134213,144.9703466,4.6,119,94,12,6,5,2
Turnkey Accommodation,Serviced accommodation,http://www.turnkeyaccommodation.com.au/,+61 3 8615 7400,"33 Blackwood St, North Melbourne VIC 3051, Australia",North Melbourne,Victoria,AU,3051,-37.8006602,144.9555829,4.8,115,101,12,1,0,1
ACD Apartments,Hotel,http://acdapartments.com.au/,+61 3 9670 6611,"7 Caravel Ln, Docklands VIC 3008, Australia",Docklands,Victoria,AU,3008,-37.8140176,144.9419352,4,102,52,24,14,9,3
Mövenpick Hotel Melbourne On Spencer,Hotel,https://all.accor.com/hotel/B6L9/index.en.shtml?utm_campaign=seo+maps&utm_medium=seo+maps&utm_source=google+Maps&y_source=1_MjI3MDQ1ODMtNzE1LWxvY2F0aW9uLndlYnNpdGU%3D,+61 3 9600 5400,"160 Spencer St, Melbourne VIC 3000, Australia",Melbourne,Victoria,AU,3000,-37.8174381,144.9536554,4.4,101,67,21,5,6,2
Adina Apartment Hotel Melbourne Southbank,Hotel,https://www.adinahotels.com/en/apartments/melbourne-southbank/?utm_source=googleplaces&utm_medium=organic&utm_campaign=googleplaces&utm_content=adina-melbourne-southbank,+61 3 9491 6100,"99 City Rd, Southbank VIC 3006, Australia",Southbank,Victoria,AU,3006,-37.8225593,144.9647827,4.5,100,73,12,5,8,2
Clay Oven Pizza,Restaurant & Bar,https://www.clayovenpizza.com.au/,+61 435 570 130,"501 Macaulay Rd, Kensington VIC 3031, Australia",Kensington,Victoria,AU,3031,-37.794493,144.9293896,4.8,265,239,16,7,3,0
Rick's Place - Italian/Modern Australian Seafood Cafe/Restaurant,Restaurant & Bar,http://www.ricksplace.com.au/,+61 3 9376 2112,"507 Macaulay Rd, Kensington VIC 3031, Australia",Kensington,Victoria,AU,3031,-37.7944459,144.9292519,4.8,260,238,10,7,5,0
Shadowboxer Bar & Kitchen,Restaurant & Bar,http://shadowboxer.bar/,+61 3 9041 7707,"302 Toorak Rd, South Yarra VIC 3141, Australia",South Yarra,Victoria,AU,3141,-37.8398818,144.9974743,4.8,210,181,26,0,2,1
Hemingway's Wine Room,Restaurant & Bar,http://www.hemingwayswineroom.com.au/,+61 3 9416 5064,"150 Wellington Parade, East Melbourne VIC 3002, Australia",East Melbourne,Victoria,AU,3002,-37.816106,144.984947,4.8,104,91,9,1,0,3
Palermo Restaurant,Restaurant & Bar,https://www.palermo.melbourne/?utm_source=google&utm_medium=gmb,+61 3 9002 1600,"401 Little Bourke St, Melbourne VIC 3000, Australia",Melbourne,Victoria,AU,3000,-37.813901,144.960994,4.7,1186,928,177,18,45,18
Eureka 89 Dining & Events - Fine Dining Restaurant Melbourne,Restaurant & Bar,http://www.eureka89.com.au/,+61 3 9693 8889,"Level 89, Eureka Tower, 7 Riverside Quay, Southbank VIC 3006, Australia",Southbank,Victoria,AU,3006,-37.821413,144.964471,4.7,803,666,86,18,17,16
Farmer's Daughters,Restaurant & Bar,http://farmersdaughters.com.au/,+61 3 9116 8682,"95 Exhibition Street, 80 Collins Precinct, Melbourne VIC 3000, Australia",Melbourne,Victoria,AU,3000,-37.8135661,144.9710402,4.7,712,591,72,14,22,13
IKKAI - Melbourne CBD,Restaurant & Bar,https://ikkai.com.au/,+61 3 9639 6021,"Shop 19/235 -251 Bourke St, Melbourne VIC 3000, Australia",Melbourne,Victoria,AU,3000,-37.8141364,144.9665395,4.7,658,565,48,16,18,11
Cosi Bar Ristorante since 1996,Restaurant & Bar,http://cosirestaurant.com.au/,+61 3 9867 3999,"68 Toorak Rd, South Yarra VIC 3141, Australia",South Yarra,Victoria,AU,3141,-37.8387992,144.9888325,4.7,458,380,46,10,19,3
The Tippler & Co.,Restaurant & Bar,http://www.thetipplerandco.com/,+61 3 7008 4286,"58 Wellington Parade, East Melbourne VIC 3002, Australia",East Melbourne,Victoria,AU,3002,-37.8165593,144.9882401,4.7,352,260,75,5,8,4
Railway Club Hotel,Restaurant & Bar,http://www.railwayclubhotel.com.au/,+61 3 9645 1661,"107 Raglan St, Port Melbourne VIC 3207, Australia",Port Melbourne,Victoria,AU,3207,-37.8337664,144.9443284,4.6,1641,1170,331,30,84,26
Milk the Cow Licensed Fromagerie,Bar,http://milkthecow.com.au/,+61 3 9348 4771,"323 Lygon St, Carlton VIC 3053, Australia",Carlton,Victoria,AU,3053,-37.7977766,144.967154,4.6,955,718,147,34,33,23
The Drunken Poet,Bar,http://www.thedrunkenpoet.com.au/,+61 3 9348 9797,"65 Peel St, West Melbourne VIC 3003, Australia",West Melbourne,Victoria,AU,3003,-37.8066667,144.9555556,4.6,721,510,163,3,39,6
Lamaro's Hotel,Bar,http://www.lamaroshotel.com.au/,+61 3 9690 3737,"273-279 Cecil St, South Melbourne VIC 3205, Australia",South Melbourne,Victoria,AU,3205,-37.838469,144.9605841,4.6,600,462,88,15,25,10
Steer Dining Room Restaurant,Restaurant & Bar,http://www.steerdiningroom.com.au/,+61 3 9827 1891,"15 Claremont St, South Yarra VIC 3141, Australia",South Yarra,Victoria,AU,3141,-37.8376944,144.993575,4.6,413,302,80,5,19,7
Middle South East Cafe,Restaurant & Bar,http://middlesoutheast.com.au/,+61 3 9824 0093,"670 Chapel St, South Yarra VIC 3141, Australia",South Yarra,Victoria,AU,3141,-37.8371755,144.9963714,4.6,326,252,48,10,10,6
Omnia Bistro & Bar,Restaurant & Bar,http://www.omniabistro.com.au/,+61 3 8080 8080,"625 Chapel St, South Yarra VIC 3141, Australia",South Yarra,Victoria,AU,3141,-37.8391244,144.9954401,4.6,294,218,46,8,15,7
Hotel Spencer Bar & Grill,Restaurant & Bar,http://www.hotelspencer.com.au/,+61 414 950 090,"475 Spencer St, West Melbourne VIC 3003, Australia",West Melbourne,Victoria,AU,3003,-37.8095201,144.9492945,4.6,206,145,44,3,9,5
"Treviso Bar, Dining & Wine Store",Restaurant & Bar,http://www.treviso.com.au/,+61 3 9670 8833,"4-10 Bank Pl, Melbourne VIC 3000, Australia",Melbourne,Victoria,AU,3000,-37.8167,144.960526,4.6,148,103,30,0,14,1
Maha Restaurant,Restaurant & Bar,http://maharestaurant.com.au/,+61 3 9629 5900,"21 Bond St, Melbourne VIC 3000, Australia",Melbourne,Victoria,AU,3000,-37.8181528,144.962662,4.5,1720,1282,250,58,72,58
B'Churrasco Brazilian BBQ Restaurant Melbourne,Restaurant & Bar,http://bchurrasco.com.au/,+61 3 8060 4770,"61 A'Beckett St, Melbourne VIC 3000, Australia",Melbourne,Victoria,AU,3000,-37.8091463,144.9616548,4.5,1466,1034,274,35,88,35
Green Man's Arms,Restaurant & Bar,https://greenmansarms.com.au/,+61 3 9347 7419,"418 Lygon St, Carlton VIC 3053, Australia",Carlton,Victoria,AU,3053,-37.7969415,144.9678097,4.5,742,499,161,18,47,17
Trattoria Emilia,Restaurant & Bar,https://www.emiliamelbourne.com.au/,+61 3 9670 7214,"360 Little Collins St, Melbourne VIC 3000, Australia",Melbourne,Victoria,AU,3000,-37.815333,144.9626731,4.5,703,465,163,16,45,14
Prince Alfred Hotel,Restaurant & Bar,http://www.princealfred.com.au/,+61 3 9676 9643,"level 1/355 Bay St, Port Melbourne VIC 3207, Australia",Port Melbourne,Victoria,AU,3207,-37.8354083,144.9449692,4.5,671,454,138,30,38,11
Capitano Carlton,Restaurant & Bar,http://www.capitano.com.au/,+61 3 9134 8555,"421 Rathdowne St, Carlton VIC 3053, Australia",Carlton,Victoria,AU,3053,-37.796498,144.970434,4.5,621,430,116,20,37,18
Town Hall Hotel,Restaurant & Bar,http://townhallhotelnorthmelbourne.com.au/,+61 3 9328 1983,"33 Errol St, North Melbourne VIC 3051, Australia",North Melbourne,Victoria,AU,3051,-37.8042312,144.9491903,4.5,620,406,143,16,43,12
Caffe e Cucina,Restaurant & Bar,http://caffeecucina.com.au/,+61 3 9827 4139,"581 Chapel St, South Yarra VIC 3141, Australia",South Yarra,Victoria,AU,3141,-37.8401884,144.9952627,4.5,607,442,96,21,30,18
Meatworksco,Restaurant & Bar,https://meatworks.co/,+61 3 9041 5727,"28/30 Ross St, South Melbourne VIC 3205, Australia",South Melbourne,Victoria,AU,3205,-37.8299329,144.9597066,4.5,546,368,115,14,36,13
Half Acre,Restaurant & Bar,https://www.halfacre.com.au/,+61 3 9999 1191,"112 Munro St, South Melbourne VIC 3205, Australia",South Melbourne,Victoria,AU,3205,-37.8297843,144.9451904,4.5,545,397,75,25,30,18
Saporito Taquito,Restaurant & Bar,http://www.saporitotaquito.com/,+61 478 730 761,"16 Kavanagh St, Southbank VIC 3006, Australia",Southbank,Victoria,AU,3006,-37.8227143,144.9663706,4.5,413,317,46,23,15,12
Hello José,Restaurant & Bar,http://www.hellojose.com.au/,+61 3 9326 3934,"85 Peel St, West Melbourne VIC 3003, Australia",West Melbourne,Victoria,AU,3003,-37.8061901,144.9556069,4.5,410,293,66,19,23,9
The Clare Castle,Restaurant & Bar,http://www.theclarecastle.com/,+61 3 9646 4588,"354 Graham St, Port Melbourne VIC 3207, Australia",Port Melbourne,Victoria,AU,3207,-37.8366326,144.9360196,4.5,346,239,69,6,24,8
The Espressonist,Cafe & Bar,/url?q=http://the-espressonist.com/&sa=U&ved=0ahUKEwjryf7JlM76AhXSrokEHS5YCeAQ61gIGigQ&usg=AOvVaw166X1t0Dc5z2bYW_ToDz_B,+61 426 422 774,"108 River Esplanade, Docklands VIC 3008, Australia",Docklands,Victoria,AU,3008,-37.8241558,144.9431793,4.5,293,205,46,12,24,6
Paris Go Bistro,Restaurant & Bar,http://www.parisgo.com.au/,+61 3 9347 7507,"116 Rathdowne St, Carlton VIC 3053, Australia",Carlton,Victoria,AU,3053,-37.7969462,144.9708724,4.5,267,190,51,5,12,9
The Moat,Restaurant & Bar,https://www.themoat.com.au/,+61 3 9094 7820,"176 Little Lonsdale St, Melbourne VIC 3000, Australia",Melbourne,Victoria,AU,3000,-37.810162,144.9653789,4.5,246,154,61,3,22,6
North Port Hotel,Restaurant & Bar,https://www.northporthotel.com.au/,+61 3 9119 5696,"146 Evans St, Port Melbourne VIC 3207, Australia",Port Melbourne,Victoria,AU,3207,-37.8325357,144.9433894,4.5,217,151,44,7,12,3
Three Crowns Hotel,Restaurant & Bar,http://www.threecrownshotel.com.au/,+61 3 9326 5033,"365 Victoria St, West Melbourne VIC 3003, Australia",West Melbourne,Victoria,AU,3003,-37.8052968,144.9494732,4.5,150,100,36,8,4,2
Rice Paper Scissors,Restaurant & Bar,http://ricepaperscissors.com.au/,+61 3 9663 9890,"15 Hardware Ln, Melbourne VIC 3000, Australia",Melbourne,Victoria,AU,3000,-37.8142795,144.9614222,4.4,2101,1409,420,82,131,59
Cumulus Inc.,Restaurant & Bar,http://cumulusinc.com.au/,+61 3 9650 1445,"45 Flinders Ln, Melbourne VIC 3000, Australia",Melbourne,Victoria,AU,3000,-37.8149132,144.9731229,4.4,1737,1122,396,44,118,57
Hochi Mama,Restaurant & Bar,https://hochimama.melbourne/cbd/,+61 3 9078 2285,"35 Little Bourke St, Melbourne VIC 3000, Australia",Melbourne,Victoria,AU,3000,-37.81076,144.9717076,4.4,1710,1108,346,91,121,44
PJ O'Brien's Irish Pub,Bar,http://www.pjobriens.com.au/southbank/,+61 3 9686 5011,"G14 / 15, 16/3 Southgate Ave, Southbank VIC 3006, Australia",Southbank,Victoria,AU,3006,-37.8203722,144.9659504,4.4,1503,864,422,44,141,32
Bombabar,Restaurant & Bar,https://bombabar.com.au/,+61 3 9650 5778,"103 Lonsdale St, Melbourne VIC 3000, Australia",Melbourne,Victoria,AU,3000,-37.8104041,144.9691967,4.4,1469,862,422,26,129,30
Meatmaiden,Restaurant & Bar,http://www.meatmaiden.com.au/,+61 3 9078 7747,"195 Little Collins St, Melbourne VIC 3000, Australia",Melbourne,Victoria,AU,3000,-37.8140895,144.9677883,4.4,1453,960,294,53,101,45
Ponyfish Island,Restaurant & Bar,http://www.ponyfishisland.com.au/,,"Evan Walker Bridge, Southbank VIC 3006, Australia",Southbank,Victoria,AU,3006,-37.8198834,144.9650018,4.4,1378,815,420,25,86,32
Florentino,Restaurant & Bar,http://www.florentino.com.au/,+61 3 9662 1811,"80 Bourke St, Melbourne VIC 3000, Australia",Melbourne,Victoria,AU,3000,-37.8117469,144.9707872,4.4,1127,710,245,45,81,46
Coda Melbourne,Restaurant & Bar,http://www.codarestaurant.com.au/,+61 3 9650 3155,"Basement/141 Flinders Ln, Melbourne VIC 3000, Australia",Melbourne,Victoria,AU,3000,-37.8157661,144.9698897,4.4,910,583,187,37,77,26
The Quiet Man Irish Pub,Restaurant & Bar,http://www.thequietman.com.au/,+61 3 9376 6232,"271 Racecourse Rd, Kensington VIC 3031, Australia",Kensington,Victoria,AU,3031,-37.7884863,144.9322378,4.4,854,544,206,25,63,16
The European,Restaurant & Bar,http://www.theeuropean.com.au/,+61 3 9654 0811,"161 Spring St, Melbourne VIC 3000, Australia",Melbourne,Victoria,AU,3000,-37.8109247,144.9725716,4.4,851,502,236,31,64,18
Trinket Bar Melbourne,Restaurant & Bar,https://www.trinketbar.com.au/?utm_source=google&utm_medium=organic&utm_campaign=gmb&utm_term=plcid_5339624321541752151,+61 3 9810 0044,"87 Flinders Ln, Melbourne VIC 3000, Australia",Melbourne,Victoria,AU,3000,-37.8152624,144.9713399,4.4,843,548,183,33,60,19
Tazio,Restaurant & Bar,https://www.tazio.com.au/,+61 3 9654 9119,"91 Flinders Ln, Melbourne VIC 3000, Australia",Melbourne,Victoria,AU,3000,-37.815375,144.9711894,4.4,726,428,186,18,70,24
48h Pizza e Gnocchi Bar South Yarra,Restaurant & Bar,http://48h.com.au/,+61 3 9824 2573,"373 Malvern Rd, South Yarra VIC 3141, Australia",South Yarra,Victoria,AU,3141,-37.8474313,144.9991188,4.4,676,452,117,37,44,26
Naughtons Hotel,Bar,http://naughtonshotel.com.au/,+61 3 9347 2255,"43 Royal Parade, Parkville VIC 3052, Australia",Parkville,Victoria,AU,3052,-37.7955778,144.9576444,4.4,561,320,191,9,36,5
Shoya Japanese Restaurant,Restaurant & Bar,http://www.shoya.com.au/,+61 3 9650 0848,"25 Market Ln, Melbourne VIC 3000, Australia",Melbourne,Victoria,AU,3000,-37.8117556,144.969175,4.4,471,289,118,18,34,12
Uncle Collins Street,Restaurant & Bar,http://www.unclerestaurants.com.au/,+61 3 9654 0829,"Level 1/15 Collins St, Melbourne VIC 3000, Australia",Melbourne,Victoria,AU,3000,-37.8136473,144.9733303,4.4,312,200,74,6,21,11
Saporito Cafe,Cafe,https://saporitocafe.com.au/,+61 3 9696 6284,"12-16 Kavanagh St, Southbank VIC 3006, Australia",Southbank,Victoria,AU,3006,-37.8227778,144.9663889,4.4,311,211,59,18,17,6
Becco,Restaurant & Bar,http://www.becco.com.au/,+61 3 9663 3000,"25 Crossley St, Melbourne VIC 3000, Australia",Melbourne,Victoria,AU,3000,-37.8113359,144.9710055,4.4,283,187,58,13,17,8
Botswana Butchery Melbourne,Restaurant & Bar,http://www.botswanabutchery.com.au/,+61 3 8375 7300,"66 Flinders Ln, Melbourne VIC 3000, Australia",Melbourne,Victoria,AU,3000,-37.8147693,144.9723072,4.4,152,113,12,6,8,13
Brunetti Classico Carlton,Restaurant & Bar,https://brunetticlassico.com.au/,+61 3 7034 7066,"380 Lygon St, Carlton VIC 3053, Australia",Carlton,Victoria,AU,3053,-37.7980417,144.9678255,4.3,3497,2056,888,177,265,111
Dodee Paidang,Restaurant & Bar,http://www.dodeepaidang.com/,+61 3 9602 4968,"Basement/353 Little Collins St, Melbourne VIC 3000, Australia",Melbourne,Victoria,AU,3000,-37.8158889,144.963113,4.3,2828,1703,718,133,204,70
The Irish Times Pub,Bar,http://www.theirishtimespub.com.au/,+61 3 9642 1699,"427 Little Collins St, Melbourne VIC 3000, Australia",Melbourne,Victoria,AU,3000,-37.8162205,144.9604985,4.3,1481,807,455,51,130,38
Belgian Beer Cafe,Restaurant & Bar,http://www.belgianbeercafemelbourne.com.au/,+61 3 9690 5777,"5 Riverside Quay, Southbank VIC 3006, Australia",Southbank,Victoria,AU,3006,-37.8214975,144.9643633,4.3,1397,685,483,36,159,34
Byblos Bar & Restaurant,Restaurant & Bar,http://byblosbar.com.au/melbourne,+61 3 9614 6400,"18-38 Siddeley St, Docklands VIC 3008, Australia",Docklands,Victoria,AU,3008,-37.8232203,144.9534164,4.3,1103,668,262,65,77,31
Berth,Restaurant & Bar,https://www.berth.com.au/,+61 3 9670 0199,"45 Newquay Promenade, Docklands VIC 3008, Australia",Docklands,Victoria,AU,3008,-37.8151172,144.9418176,4.3,1079,605,321,34,95,24
Captain Melville,Restaurant & Bar,https://www.captainmelville.com.au/,+61 3 9663 6855,"34 Franklin St, Melbourne VIC 3000, Australia",Melbourne,Victoria,AU,3000,-37.807527,144.9617416,4.3,943,488,326,27,84,18
Il Gambero,Restaurant & Bar,https://ilgambero.com.au/,+61 3 9663 2246,"166 Lygon St, Carlton VIC 3053, Australia",Carlton,Victoria,AU,3053,-37.8032928,144.9667944,4.3,882,497,230,41,81,33
The Meatball & Wine Bar - Flinders Lane,Restaurant & Bar,http://www.meatballandwinebar.com.au/,+61 3 9654 7545,"135 Flinders Ln, Melbourne VIC 3000, Australia",Melbourne,Victoria,AU,3000,-37.8156417,144.9700889,4.3,839,480,229,35,65,30
Loop Roof & Loop Top,Restaurant & Bar,http://www.looprooftopbar.com.au/,+61 481 785 190,"3/23 Meyers Pl, Melbourne VIC 3000, Australia",Melbourne,Victoria,AU,3000,-37.8121761,144.9721901,4.3,760,402,252,25,60,21
The Leveson,Restaurant & Bar,http://www.theleveson.com.au/,+61 3 9328 1109,"46 Leveson St, North Melbourne VIC 3051, Australia",North Melbourne,Victoria,AU,3051,-37.8036893,144.9512784,4.3,662,327,232,16,72,15
Witches In Britches,Restaurant & Bar,https://www.witchesinbritches.com.au/,+61 3 9329 9850,"84 Dudley St, West Melbourne VIC 3003, Australia",West Melbourne,Victoria,AU,3003,-37.808871,144.952557,4.3,655,424,128,37,47,19
Pier Port Melbourne,Restaurant & Bar,http://www.pierportmelbourne.com.au/,+61 3 9646 3990,"1 Bay St, Port Melbourne VIC 3207, Australia",Port Melbourne,Victoria,AU,3207,-37.8428111,144.9380789,4.3,633,345,200,20,46,22
University Cafe,Restaurant & Bar,http://www.universitycafe.com.au/,+61 3 9347 2142,"257 Lygon St, Carlton VIC 3053, Australia",Carlton,Victoria,AU,3053,-37.7994919,144.9669952,4.3,630,339,184,27,65,15
Speakeasy Kitchen Bar,Restaurant & Bar,http://speakeasybar.com.au/,+61 3 9824 0770,"359 Chapel St, South Yarra VIC 3141, Australia",South Yarra,Victoria,AU,3141,-37.8463542,144.99406,4.3,487,288,121,26,39,13
The Cornerstone,Restaurant & Bar,http://www.thecornerstonepub.com.au/,+61 3 9645 1405,"1 Crockford St, Port Melbourne VIC 3207, Australia",Port Melbourne,Victoria,AU,3207,-37.834618,144.946425,4.3,437,281,83,23,30,20
Mama Rumaan,Restaurant & Bar,,+61 3 8623 9690,"t10/161 Harbour Esplanade, Docklands VIC 3008, Australia",Docklands,Victoria,AU,3008,-37.8167654,144.9434747,4.3,433,274,93,25,30,11
Koko,Restaurant & Bar,https://www.crownmelbourne.com.au/restaurants/premium/koko/info-booking?utm_source=google&utm_medium=organic&utm_content=koko&utm_campaign=gmb,+61 3 9292 5777,"Level 3, Crown Towers, 8 Whiteman St, Southbank VIC 3006, Australia",Southbank,Victoria,AU,3006,-37.8220786,144.9598287,4.3,430,273,78,25,34,20
The Posty,Restaurant & Bar,http://www.theposty.com.au/,+61 3 9428 6674,"90 Swan St, Cremorne VIC 3121, Australia",Cremorne,Victoria,AU,3121,-37.8252492,144.9929077,4.3,400,201,142,15,34,8
Jimmy Watson's,Restaurant & Bar,http://jimmywatsons.info/,+61 3 9347 3985,"333 Lygon St, Carlton VIC 3053, Australia",Carlton,Victoria,AU,3053,-37.7975,144.9672222,4.3,302,174,86,10,25,7
The Deck Southbank,Restaurant & Bar,http://www.thedeckrestaurant.com.au/,+61 3 9699 9544,"UPPER, LEVEL U1/2 Southgate Ave, Southbank VIC 3006, Australia",Southbank,Victoria,AU,3006,-37.8201534,144.9668346,4.3,145,84,37,8,13,3
Pascale Bar & Grill,Restaurant & Bar,https://www.pascalebarandgrill.com.au/,+61 3 8636 8808,"Level 1/133 Russell St, Melbourne VIC 3000, Australia",Melbourne,Victoria,AU,3000,-37.8133323,144.9681618,4.3,144,86,30,8,15,5
Chilangos Mexican Cantina - Docklands,Restaurant & Bar,,+61 3 9112 9450,"855 Collins St, Docklands VIC 3008, Australia",Docklands,Victoria,AU,3008,-37.8214463,144.9437877,4.3,107,59,34,6,7,1
Imperial Hotel,Restaurant & Bar,https://www.bourkestreetimperial.com/?utm_source=google&utm_medium=organic&utm_campaign=gmb&utm_term=plcid_4999112587877517742,+61 3 9810 0062,"2-8 Bourke St, Melbourne VIC 3000, Australia",Melbourne,Victoria,AU,3000,-37.8112408,144.9727267,4.2,2801,1267,1005,85,357,87
Rockpool Bar & Grill,Restaurant & Bar,https://rockpoolbarandgrill.com.au/,+61 3 9081 0532,"Crown Casino, 8 Whiteman St, Southbank VIC 3006, Australia",Southbank,Victoria,AU,3006,-37.8218482,144.96027,4.2,1590,965,295,131,114,85
Hopscotch Melbourne,Restaurant & Bar,https://www.hopscotchmelbourne.com.au/?utm_source=google&utm_medium=organic&utm_campaign=gmb&utm_term=plcid_18072388455749531259,+61 3 9810 0099,"Ground Floor, 4 Riverside Quay, Southbank VIC 3006, Australia",Southbank,Victoria,AU,3006,-37.820722,144.963457,4.2,1575,777,515,59,167,57
Mamasita,Restaurant & Bar,http://www.mamasita.com.au/#home/about,+61 3 9650 3821,"Level 1/11 Collins St, Melbourne VIC 3000, Australia",Melbourne,Victoria,AU,3000,-37.813806,144.973484,4.2,1458,815,350,71,145,77
The Breslin Bar & Grill,Restaurant & Bar,http://breslingrill.com.au/,+61 3 9686 2110,"1 Southbank Blvd, Southbank VIC 3006, Australia",Southbank,Victoria,AU,3006,-37.8208499,144.9629618,4.2,1253,621,397,71,110,54
Network Public Bar & Pizzeria,Restaurant & Bar,/url?q=http://networkpublicbar.com.au/&sa=U&ved=0ahUKEwjJnKDilM76AhXqkIkEHaG9AkwQ61gIHCgQ&usg=AOvVaw0r-y2aRRY3PABWMqjajQqT,+61 458 301 901,"99 Spencer St, Docklands VIC 3008, Australia",Docklands,Victoria,AU,3008,-37.8175473,144.9529846,4.2,1114,561,371,41,111,30
Pier 35 Bar & Grill,Restaurant & Bar,https://www.pier35barandgrill.com.au/,+61 3 9646 0606,"263-329 Lorimer St, Port Melbourne VIC 3207, Australia",Port Melbourne,Victoria,AU,3207,-37.823866,144.9065137,4.2,1087,582,287,57,108,53
The Bank on Collins,Restaurant & Bar,https://thebankoncollins.au/,+61 3 9070 3980,"Ground floor/394 Collins St, Melbourne VIC 3000, Australia",Melbourne,Victoria,AU,3000,-37.816768,144.961161,4.2,901,396,327,19,127,32
The Exchange Hotel,Restaurant & Bar,https://www.theexchangehotel.net.au/?utm_source=google&utm_medium=organic&utm_campaign=gmb&utm_term=plcid_10306803255869292449,+61 3 9810 0058,"39 Bay St, Port Melbourne VIC 3207, Australia",Port Melbourne,Victoria,AU,3207,-37.841978,144.9388329,4.2,769,393,225,28,94,29
Doutta Galla Hotel,Restaurant & Bar,http://www.douttagallahotel.com/,+61 3 9376 7233,"339 Racecourse Rd, Flemington VIC 3031, Australia",Flemington,Victoria,AU,3031,-37.7883826,144.9297426,4.2,697,343,228,28,78,20
Hardimans Hotel,Bar,http://hardimans.com.au/,+61 3 9372 2666,"521 Macaulay Rd, Kensington VIC 3031, Australia",Kensington,Victoria,AU,3031,-37.794421,144.928354,4.2,688,361,193,34,70,30
Imperial South Yarra,Restaurant & Bar,https://www.imperialsouthyarra.com/?utm_source=google&utm_medium=organic&utm_campaign=gmb&utm_term=plcid_509697143426896053,+61 3 9810 0070,"522 Chapel St, South Yarra VIC 3141, Australia",South Yarra,Victoria,AU,3141,-37.8415365,144.9954142,4.2,592,302,183,27,66,14
El Sabor - Mexican Restaurant,Restaurant & Bar,http://www.elsabor.com.au/,+61 3 9329 9477,"500 Victoria St, North Melbourne VIC 3051, Australia",North Melbourne,Victoria,AU,3051,-37.8049758,144.9496116,4.2,565,331,115,36,47,36
Prince Alfred Rooftop & Bar,Restaurant & Bar,https://www.princealfred.com/,+61 3 9982 1813,"191 Grattan St, Carlton VIC 3053, Australia",Carlton,Victoria,AU,3053,-37.8004228,144.9622287,4.2,384,185,122,16,51,10
Stovetop,Cafe,http://www.stovetop.com.au/,+61 3 9347 2010,"108 Leicester St, Carlton VIC 3053, Australia",Carlton,Victoria,AU,3053,-37.8033282,144.9606306,4.2,354,190,105,14,30,15
Left Bank Melbourne Restaurant & Cocktail Bar,Restaurant & Bar,https://www.leftbankmelbourne.com.au/?utm_source=google&utm_medium=localbusiness&utm_campaign=website,+61 3 9682 4500,"1 Southbank Blvd, Southbank VIC 3006, Australia",Southbank,Victoria,AU,3006,-37.8210084,144.9628614,4.1,2973,1540,805,190,306,132
Mail Exchange Hotel,Restaurant & Bar,https://mailexchangehotel.com.au/#utm_source=google&utm_medium=organic&utm_campaign=Mail-Exchange-Hotel-Website&utm_content=688-Bourke-St-Melbourne-VIC,+61 3 9903 6880,"688 Bourke St, Melbourne VIC 3000, Australia",Melbourne,Victoria,AU,3000,-37.8167985,144.9536878,4.1,2127,977,698,76,301,75
European Bier Cafe,Restaurant & Bar,https://www.europeanbiercafe.com.au/?utm_source=google&utm_medium=organic&utm_campaign=gmb&utm_term=plcid_10732363235255235029,+61 3 8563 0080,"120 Exhibition St, Melbourne VIC 3000, Australia",Melbourne,Victoria,AU,3000,-37.8128691,144.9711969,4.1,2034,821,761,74,311,67
Temperance Hotel,Restaurant & Bar,http://www.temperancehotel.com.au/,+61 3 9827 7401,"426 Chapel St, South Yarra VIC 3141, Australia",South Yarra,Victoria,AU,3141,-37.844624,144.9947248,4.1,978,440,330,42,132,34
Daughter In Law,Restaurant & Bar,http://daughterinlaw.com.au/,+61 3 9242 0814,"37/41 Little Bourke St, Melbourne VIC 3000, Australia",Melbourne,Victoria,AU,3000,-37.8108154,144.9714971,4.1,809,460,154,68,69,58
Errol's,Restaurant & Bar,http://www.errols.com.au/,+61 3 9326 6610,"69/71 Errol St, North Melbourne VIC 3051, Australia",North Melbourne,Victoria,AU,3051,-37.8035381,144.9493366,4.1,665,323,202,35,79,26
Taco Bill - Russell St,Restaurant & Bar,https://www.tacobill.com.au/,+61 3 9654 3369,"142 Russell St, Melbourne VIC 3000, Australia",Melbourne,Victoria,AU,3000,-37.8130233,144.9683892,4.1,608,316,151,45,73,23
Golden Fleece Hotel,Restaurant & Bar,https://goldenfleecemelb.com.au/,+61 3 7018 2373,"120 Montague St, South Melbourne VIC 3205, Australia",South Melbourne,Victoria,AU,3205,-37.831282,144.950318,4.1,477,259,108,46,37,27
Blondie Bar,Restaurant & Bar,http://www.blondiebar.com.au/,+61 3 4428 0009,"Cnr Southbank Boulevard &, Sturt St, Southbank VIC 3006, Australia",Southbank,Victoria,AU,3006,-37.8238338,144.9678462,4.1,208,104,57,8,26,13
Soho Restaurant and Bar,Restaurant & Bar,http://www.sohomelbourne.com.au/,+61 3 9682 4299,"2/4 Riverside Quay, Southbank VIC 3006, Australia",Southbank,Victoria,AU,3006,-37.8207812,144.9632448,4,1594,756,451,162,156,69
Father's Office Speakeasy Bar and Restaurant,Restaurant & Bar,http://fathersoffice.com.au/,+61 3 9825 8900,"249 Little Lonsdale St, Melbourne VIC 3000, Australia",Melbourne,Victoria,AU,3000,-37.8105309,144.9647087,4,1495,620,498,115,190,72
Time Out Fed Square,Restaurant & Bar,http://www.timeoutfedsquare.com.au/,+61 3 9671 3855,"2 Swanston St, Melbourne VIC 3000, Australia",Melbourne,Victoria,AU,3000,-37.8176674,144.9683312,4,1061,478,312,78,136,57
The Nixon Hotel,Restaurant & Bar,https://nixonhotel.au/,+61 3 9642 3272,"757 Bourke St, Docklands VIC 3008, Australia",Docklands,Victoria,AU,3008,-37.818709,144.948244,4,727,295,240,27,141,24
Renzo's Bar,Restaurant & Bar,https://renzosbar.com/,+61 3 9640 0550,"46 Newquay Promenade, Docklands VIC 3008, Australia",Docklands,Victoria,AU,3008,-37.8147448,144.9416482,4,655,341,151,71,63,29
Garden State Hotel,Restaurant & Bar,,+61 3 8396 5777,"101 Flinders Ln, Melbourne VIC 3000, Australia",Melbourne,Victoria,AU,3000,-37.81542,144.971164,4,516,266,139,61,33,17
Spice Temple,Restaurant & Bar,http://www.spicetemple.com.au/,+61 3 9081 0533,"8 Whiteman St, Southbank VIC 3006, Australia",Southbank,Victoria,AU,3006,-37.8219651,144.9599672,4,514,283,95,45,53,38
Hooks At The Yarra,Restaurant & Bar,http://www.hooksattheyarra.com/,+61 3 9043 4221,"50 River Esplanade, Docklands VIC 3008, Australia",Docklands,Victoria,AU,3008,-37.8240519,144.9477542,4,428,218,108,47,42,13
The Sri Lounge,Restaurant & Bar,/url?q=https://thesrilounge.com/&sa=U&ved=0ahUKEwisu7K0lM76AhXmhIkEHX5yCk0Q61gIHCgS&usg=AOvVaw0CISZNd8ot6gYWvJw7rsek,+61 3 7037 2422,"Ground Floor, 116 Newquay Promenade, Docklands VIC 3008, Australia",Docklands,Victoria,AU,3008,-37.8160048,144.9384394,4,295,196,22,59,11,7
Masani Italian Dining & Terrace,Restaurant & Bar,https://www.masani.com.au/,+61 3 9347 5610,"313/315 Drummond St, Carlton VIC 3053, Australia",Carlton,Victoria,AU,3053,-37.7984018,144.9685483,4,129,81,14,22,7,5
Bossa Nova Café | Brazilian Restaurant,Cafe,https://bossanova.com.au/,+61 423 146 157,"156 Elgin St, Carlton VIC 3053, Australia",Carlton,Victoria,AU,3053,-37.797158,144.969439,4.9,309,284,20,2,1,2
Verve Spice Food Store. Home. Gelati.,Takeout Restaurant,https://m.facebook.com/VerveSpice/,+61 3 9827 2050,"330 Toorak Rd, South Yarra VIC 3141, Australia",South Yarra,Victoria,AU,3141,-37.8399543,144.9986252,4.9,114,104,7,1,2,0
Docklands Den,Restaurant & Cafe,,+61 427 679 751,"103/5 Rakaia Way, Docklands VIC 3008, Australia",Docklands,Victoria,AU,3008,-37.8141432,144.9400673,4.8,104,96,3,5,0,0
Coe & Coe,Cafe,http://www.coeandcoe.com.au/,+61 3 5849 1443,"1 Fennell St, Port Melbourne VIC 3207, Australia",Port Melbourne,Victoria,AU,3207,-37.8297519,144.9360443,4.7,161,132,20,3,4,2
Heartattack and Vine,Restaurant & Cafe,http://www.heartattackandvine.com.au/,+61 3 9349 1891,"329 Lygon St, Carlton VIC 3053, Australia",Carlton,Victoria,AU,3053,-37.797643,144.9672859,4.6,588,414,133,10,21,10
Escagrill,Restaurant & Cafe,http://www.escagrill.com.au/,+61 3 9370 1101,"650 Mt Alexander Rd, Moonee Ponds VIC 3039, Australia",Moonee Ponds,Victoria,AU,3039,-37.7701157,144.9262572,4.6,428,323,61,16,17,11
White Rabbit Record Bar,Cafe & Bar,http://www.whiterabbitrecords.com.au/,+61 3 9376 5441,"176 Bellair St, Kensington VIC 3031, Australia",Kensington,Victoria,AU,3031,-37.7936111,144.93,4.6,145,108,22,3,12,0
Red Petite Thai Cafe,Restaurant & Cafe,https://www.redpetitethaicafe.com.au/,+61 3 9699 6969,"194 Bank St, South Melbourne VIC 3205, Australia",South Melbourne,Victoria,AU,3205,-37.8340477,144.9607721,4.5,234,169,43,9,10,3
VelaThai Port Melbourne,Restaurant & Cafe,https://www.velathaiportmelbourne.com.au/,+61 3 9939 9351,"147 Bay St, Port Melbourne VIC 3207, Australia",Port Melbourne,Victoria,AU,3207,-37.8399,144.940813,4.5,107,82,12,6,6,1
Peppans Bar & Cafe,Restaurant & Cafe,https://peppansbarandcafe.com.au/,+61 3 9015 8634,"446 Chapel St, South Yarra VIC 3141, Australia",South Yarra,Victoria,AU,3141,-37.8441314,144.9948272,4.4,161,113,21,9,16,2
Pho & bakery cafe,Restaurant & Cafe,http://pho-bakery-cafe.edan.io/,,"838 Collins St, Docklands VIC 3008, Australia",Docklands,Victoria,AU,3008,-37.8212394,144.9451751,4.4,124,64,47,3,9,1
Pacinos Italian Family Restaurant,Restaurant & Cafe,https://pacinos.melbourne/,+61 3 9376 4888,"28/300 Epsom Rd, Flemington VIC 3031, Australia",Flemington,Victoria,AU,3031,-37.782739,144.916476,4.3,999,593,254,51,78,23
Cafe Republic.,Restaurant & Cafe,http://www.republiccafe.com.au/,+61 3 9820 0800,"160 Toorak Rd, South Yarra VIC 3141, Australia",South Yarra,Victoria,AU,3141,-37.839126,144.9914767,4.3,468,260,129,23,40,16
Palette. & Palette.atnight,Restaurant & Cafe,/url?q=https://palettemelbourne.square.site/&sa=U&ved=0ahUKEwi7ouaPlc76AhW2kYkEHfxLCSUQ61gIGygQ&usg=AOvVaw0ydPypIidOuTqQsWZbznOG,+61 3 9326 8648,"610 Queensberry St, North Melbourne VIC 3051, Australia",North Melbourne,Victoria,AU,3051,-37.802566,144.947109,4.3,233,154,35,13,22,9
Kiwi Fish and Chips,Restaurant & Cafe,http://www.kiwifish.com.au/,+61 3 9417 5494,"412-442 Victoria Parade, East Melbourne VIC 3002, Australia",East Melbourne,Victoria,AU,3002,-37.8102271,144.9852094,4.2,324,187,76,30,17,14
Stuzzichino Restaurant & Bar,Restaurant & Cafe,http://stuzzichino.com.au/,+61 3 9347 7373,"169 Lygon St, Carlton VIC 3053, Australia",Carlton,Victoria,AU,3053,-37.8017254,144.9665593,4.2,207,124,44,14,18,7
Ned's Bake Cafe and Restaurant,Restaurant & Cafe,http://nedsbake.com.au/,+61 3 9867 2457,"134 Toorak Rd, South Yarra VIC 3141, Australia",South Yarra,Victoria,AU,3141,-37.8390745,144.9909001,4.1,862,492,149,91,86,44
Bluetrain,Restaurant & Cafe,https://bluetrain.com.au/,+61 3 9696 0111,"3 Southgate Ave, Southbank VIC 3006, Australia",Southbank,Victoria,AU,3006,-37.8201184,144.9662684,4.1,442,202,151,30,39,20
Corner Stop Fish and Chips Cafe Flemington,Takeout Restaurant,https://cornerstopfishandchipscafe.com.au/,+61 3 9372 1150,"142 Ascot Vale Rd, Flemington VIC 3031, Australia",Flemington,Victoria,AU,3031,-37.7812061,144.922661,4.1,102,61,20,14,3,4
Bar Nacional,Restaurant & Cafe,/url?q=http://barnacional.com.au/&sa=U&ved=0ahUKEwjgkYPTlM76AhWskYkEHUj5Ax8Q61gIGygQ&usg=AOvVaw1uiwhESK79NMua2ltuGXZb,+61 3 9252 7909,"727 Collins St, Docklands VIC 3008, Australia",Docklands,Victoria,AU,3008,-37.820436,144.950122,4,440,156,176,7,84,17
Summer's Garden Bar,Bar,/url?q=https://summersgardeninn.business.site/%3Futm_source%3Dgmb%26utm_medium%3Dreferral&sa=U&ved=0ahUKEwjH0r6-lM76AhXyjokEHQzTDFoQ61gIGigQ&usg=AOvVaw2zIgOuu4UWrNgHHd_LT5zq,+61 406 334 098,"494 Victoria St, North Melbourne VIC 3051, Australia",North Melbourne,Victoria,AU,3051,-37.8049933,144.949859,4.9,162,151,8,0,3,0
Sushi Bar Kakizaki,Restaurant,http://sushibarkakizaki.com/,+61 3 9827 9029,"479 Malvern Rd, South Yarra VIC 3141, Australia",South Yarra,Victoria,AU,3141,-37.8477932,145.0024556,4.9,135,124,8,2,0,1
Wazhir - Indian Restaurant,Restaurant,http://www.wazhir.com.au/,+61 3 7012 5833,"264 Racecourse Rd, Flemington VIC 3031, Australia",Flemington,Victoria,AU,3031,-37.7882239,144.9318285,4.9,118,113,3,1,1,0
Panda Hot Pot Carlton,Restaurant,https://www.pandahotpot.com.au/,+61 3 9888 9899,"100 Victoria St, Carlton VIC 3053, Australia",Carlton,Victoria,AU,3053,-37.8065155,144.9641967,4.8,4773,4202,324,120,83,44
"3 Brothersss Indian Restaurant (Elizabeth Street, QVM)",Restaurant,https://www.mryum.com/3brothers-e,+61 3 9328 7951,"513 Elizabeth St Queen Victoria Market, Melbourne VIC 3000, Australia",Melbourne,Victoria,AU,3000,-37.806948,144.9596097,4.8,911,841,31,26,8,5
Scopri Italian Food and Wine,Restaurant,http://scopri.com.au/,+61 3 9347 8252,"191 Nicholson St, Carlton VIC 3053, Australia",Carlton,Victoria,AU,3053,-37.7956744,144.9749259,4.8,688,605,57,12,8,6
The Abyssinian Restaurant,Restaurant,http://www.theabyssinian.com.au/,+61 3 9376 8754,"277 Racecourse Rd, Kensington VIC 3031, Australia",Kensington,Victoria,AU,3031,-37.7885828,144.9318569,4.8,609,499,91,3,14,2
The Galbi BBQ,Restaurant,https://nam12.safelinks.protection.outlook.com/?url=https%3A%2F%2Finline.app%2Fbooking%2Fthegalbibbq%2F-MzSpjFLfF7kbkKJcSy5&data=04%7C01%7C%7Ce78e034e398b459616a808da15fb102f%7C84df9e7fe9f640afb435aaaaaaaaaaaa%7C1%7C0%7C637846465297968939%7CUnknown%7CTWFpbGZsb3d8eyJWIjoiMC4wLjAwMDAiLCJQIjoiV2luMzIiLCJBTiI6Ik1haWwiLCJXVCI6Mn0%3D%7C3000&sdata=sDW75sz5jd7OCADL3JUsxHEWFgHEbzjG7ewolPZdzI4%3D&reserved=0,+61 452 479 101,"270-274 Victoria St, North Melbourne VIC 3051, Australia",North Melbourne,Victoria,AU,3051,-37.8057857,144.9573701,4.8,480,435,29,6,4,6
The Boiling Crab Melbourne CBD,Restaurant,https://www.theboilingcrab.com.au/,+61 448 038 172,"4 Tattersalls Ln, Melbourne VIC 3000, Australia",Melbourne,Victoria,AU,3000,-37.8120758,144.965787,4.8,448,379,56,3,6,4
Little Africa Restaurant,Restaurant,http://little-africa.com.au/,+61 3 9329 8018,"223 Victoria St, West Melbourne VIC 3003, Australia",West Melbourne,Victoria,AU,3003,-37.8058916,144.9540531,4.8,427,348,63,3,9,4
Tokui Sushi,Restaurant,,+61 3 9663 9966,"260 Lonsdale St, Melbourne VIC 3000, Australia",Melbourne,Victoria,AU,3000,-37.81145,144.9643483,4.8,414,348,49,5,11,1
"The Secret Recipe, Indian Fusion Restaurant",Restaurant,,+61 3 9193 7414,"495-497 Spencer St, West Melbourne VIC 3003, Australia",West Melbourne,Victoria,AU,3003,-37.8089492,144.9488069,4.8,255,223,17,6,6,3
Horn & Hoof,Restaurant,https://hornandhoof.au/,+61 420 224 774,"6/50 Newquay Promenade, Docklands VIC 3008, Australia",Docklands,Victoria,AU,3008,-37.8147465,144.9414891,4.8,235,213,10,3,5,4
The Tipsy Cow - Cocktail Tapas Bar & Beer Garden,Bar,http://www.thetipsycow.com.au/,+61 483 372 222,"359 Bay St, Port Melbourne VIC 3207, Australia",Port Melbourne,Victoria,AU,3207,-37.8353147,144.945079,4.8,213,177,29,4,3,0
Vinoteca,Restaurant,http://www.vinotecawine.com.au/,+61 3 8256 3911,"317 Bay St, Port Melbourne VIC 3207, Australia",Port Melbourne,Victoria,AU,3207,-37.8363033,144.9441732,4.8,189,167,14,0,5,3
"Melba Social - Indian Restaurant ,Bar & Café",Restaurant,https://www.melbasocial.com.au/,+61 456 885 782,"524 Macaulay Rd, Kensington VIC 3031, Australia",Kensington,Victoria,AU,3031,-37.7941143,144.9286334,4.8,180,165,8,3,3,1
Adonai Restaurant (Nigerian Cuisine),Restaurant,http://adonaifoods.com.au/,+61 439 449 402,"478 Drummond St, Carlton VIC 3053, Australia",Carlton,Victoria,AU,3053,-37.794473,144.9699598,4.8,171,149,18,1,3,0
Them Authentic Vietnamese Cuisine & Rolls,Restaurant,,+61 3 9077 3540,"5/60 Siddeley St, Docklands VIC 3008, Australia",Docklands,Victoria,AU,3008,-37.8229788,144.9519647,4.8,141,129,5,3,3,1
THE JERK SOUTH YARRA,Restaurant,http://thejerk.com.au/,+61 3 8685 1222,"194 Toorak Rd, South Yarra VIC 3141, Australia",South Yarra,Victoria,AU,3141,-37.8393774,144.9934886,4.8,136,122,6,5,2,1
MT.BURGER,Takeout Restaurant,,+61 424 380 500,"97 Mt Alexander Rd, Flemington VIC 3031, Australia",Flemington,Victoria,AU,3031,-37.783903,144.936305,4.8,126,116,2,4,2,2
La Tonada Restaurant,Restaurant,https://www.latonadarestaurant.com/,+61 435 161 894,"687 Rathdowne St, Carlton North VIC 3054, Australia",Carlton North,Victoria,AU,3054,-37.7889155,144.9717595,4.8,122,110,7,2,2,1
Westwood,Bar,http://www.westwood3003.com/,+61 3 9348 9406,"313 Victoria St, West Melbourne VIC 3003, Australia",West Melbourne,Victoria,AU,3003,-37.8054885,144.9510974,4.8,117,101,10,1,5,0
So & So.,Cafe,https://www.facebook.com/soandsotravancore,+61 3 9376 8905,"206 Mt Alexander Rd, Travancore VIC 3032, Australia",Travancore,Victoria,AU,3032,-37.7809582,144.9324882,4.8,105,85,17,1,2,0
"Roza’s Kitchen - Pizza, Burgers, Pasta",Restaurant,https://www.rozaskitchen.com.au/,+61 3 9021 1111,"147 City Rd, Southbank VIC 3006, Australia",Southbank,Victoria,AU,3006,-37.8237063,144.9630994,4.7,1252,1081,94,31,30,16
Carlton Wine Room,Restaurant,http://thecarltonwineroom.com.au/,+61 3 9347 2626,"172-174 Faraday St, Carlton VIC 3053, Australia",Carlton,Victoria,AU,3053,-37.7986111,144.9686111,4.7,614,496,78,9,19,12
Cairo Nights Restaurant & Bar,Restaurant,http://www.caironightsrestaurant.com.au/,+61 478 074 419,"5/252 Lygon St, Carlton VIC 3053, Australia",Carlton,Victoria,AU,3053,-37.8013126,144.9671422,4.7,584,508,33,22,9,12
Epocha Restaurant | Hope Food & Wine,Restaurant,https://epocha.com.au/,+61 3 9036 4949,"49 Rathdowne St, Carlton VIC 3053, Australia",Carlton,Victoria,AU,3053,-37.8059977,144.9687706,4.7,571,467,63,9,18,14
Roccella,Restaurant,http://roccellamelbourne.com.au/,+61 3 9416 1700,"158 Clarendon St, East Melbourne VIC 3002, Australia",East Melbourne,Victoria,AU,3002,-37.8117379,144.9835304,4.7,558,469,61,14,6,8
Cucinetta Melb since 2013,Restaurant,http://cucinettamelb.com.au/,+61 3 9942 2607,"4/3 Murphy St, South Yarra VIC 3141, Australia",South Yarra,Victoria,AU,3141,-37.8383357,144.990184,4.7,541,441,62,11,14,13
New Somali Kitchen,Restaurant,http://www.newsomalikitchen.com.au/,+61 3 8589 7631,"284 Racecourse Rd, Flemington VIC 3031, Australia",Flemington,Victoria,AU,3031,-37.7881394,144.9310861,4.7,464,396,39,15,12,2
Amiconi Restaurant,Restaurant,https://www.amiconi.com.au/menu,+61 3 9328 3710,"359 Victoria St, West Melbourne VIC 3003, Australia",West Melbourne,Victoria,AU,3003,-37.805384,144.949577,4.7,440,345,65,8,14,8
Geppetto Trattoria,Restaurant,http://www.geppettotrattoria.com/,+61 3 9417 4691,"78A Wellington Parade, East Melbourne VIC 3002, Australia",East Melbourne,Victoria,AU,3002,-37.8164817,144.9873908,4.7,390,298,71,6,9,6
CIEL Cafe,Cafe,http://www.cielcafe.com.au/,+61 3 9896 7995,"48 Cecil St, Southbank VIC 3006, Australia",Southbank,Victoria,AU,3006,-37.8288751,144.9556648,4.7,307,244,43,5,13,2
Ginger Olive | Restaurant and Grill,Restaurant,http://www.gingerolive.com.au/,+61 435 889 768,"Shop 2/38 Manchester Ln, Melbourne VIC 3000, Australia",Melbourne,Victoria,AU,3000,-37.8164935,144.9662126,4.7,295,236,42,3,9,5
Old Man Pho Southbank - Vietnamese Restaurant,Restaurant,https://oldmanpho.orderup.com.au/,+61 497 899 899,"T2/1 Southbank Blvd, Southbank VIC 3006, Australia",Southbank,Victoria,AU,3006,-37.8210966,144.9630499,4.7,294,251,15,12,9,7
Thyme Square Café,Cafe,http://facebook.com/thyme2,+61 3 8590 6865,"243 Flemington Rd, North Melbourne VIC 3051, Australia",North Melbourne,Victoria,AU,3051,-37.7935963,144.946861,4.7,276,216,41,4,10,5
Mai Jia,Restaurant,https://www.facebook.com/Mai-Jia-2076062002619777/,+61 3 9939 4458,"280 Toorak Rd, South Yarra VIC 3141, Australia",South Yarra,Victoria,AU,3141,-37.839762,144.996543,4.7,260,199,44,4,9,4
Subi Q Korean BBQ,Restaurant,http://www.subiqkoreanbbq.com.au/,+61 3 9827 7887,"407 Malvern Rd, South Yarra VIC 3141, Australia",South Yarra,Victoria,AU,3141,-37.8474797,145.0002675,4.7,244,200,29,8,4,3
Wolf and Hound Cafe.,Cafe,,,"60 Pin Oak Cres, Flemington VIC 3031, Australia",Flemington,Victoria,AU,3031,-37.7865107,144.9291281,4.7,239,183,38,1,15,2
Warung Agus,Restaurant,http://www.warungagus.com.au/,+61 3 9329 1737,"305 Victoria St, West Melbourne VIC 3003, Australia",West Melbourne,Victoria,AU,3003,-37.8055175,144.9513354,4.7,232,189,22,3,12,6
WAYO Japanese Dining,Restaurant,https://www.wayojapanesedining.com.au/,+61 3 9376 5484,"286 Racecourse Rd, Flemington VIC 3031, Australia",Flemington,Victoria,AU,3031,-37.788137,144.9310318,4.7,195,153,28,0,10,4
Jaspresso,Cafe,https://www.instagram.com/jaspresso.melbourne/,+61 405 758 119,"Retail 1/91 Flemington Road, North Melbourne VIC 3051, Australia",North Melbourne,Victoria,AU,3051,-37.798507,144.952987,4.7,191,151,31,2,6,1
Infinite Wasabi,Restaurant,http://infinitewasabi.com.au/,+61 3 9696 6851,"3/4 Riverside Quay, Southbank VIC 3006, Australia",Southbank,Victoria,AU,3006,-37.8210698,144.9632597,4.7,179,147,19,4,7,2
The Rice Paddy Thai,Restaurant,,+61 3 9867 2492,"34 Toorak Rd, South Yarra VIC 3141, Australia",South Yarra,Victoria,AU,3141,-37.8385448,144.987553,4.7,177,142,21,4,9,1
JUSIK,Restaurant,,+61 3 9939 5916,"Shop1/39-47 Peel St, West Melbourne VIC 3003, Australia",West Melbourne,Victoria,AU,3003,-37.8071843,144.9554305,4.7,177,142,20,3,10,2
Lagoon Dining,Restaurant,http://www.lagoondining.com/,+61 3 9349 1939,"263 Lygon St, Carlton VIC 3053, Australia",Carlton,Victoria,AU,3053,-37.7993013,144.9669119,4.7,176,143,19,4,7,3
ARGI.,Restaurant,https://argicafe.square.site/,+61 412 468 669,"512 Macaulay Rd, Kensington VIC 3031, Australia",Kensington,Victoria,AU,3031,-37.7941836,144.9291375,4.7,156,129,14,5,4,4
Kazuki's Restaurant,Restaurant,https://kazukis.com.au/,+61 3 9349 2223,"121 Lygon St, Carlton VIC 3053, Australia",Carlton,Victoria,AU,3053,-37.804156,144.966067,4.7,149,122,14,2,5,6
Rock Pho,Restaurant,http://rockpho.com.au/,+61 3 9824 1631,"497 Chapel St, South Yarra VIC 3141, Australia",South Yarra,Victoria,AU,3141,-37.8427922,144.9946501,4.7,146,126,8,1,7,4
Cafe Godot,Cafe,https://www.facebook.com/godotsouthbank/,,"152 Sturt St, Southbank VIC 3006, Australia",Southbank,Victoria,AU,3006,-37.8254729,144.9665543,4.7,143,116,20,2,5,0
Rolling Nori Japanese cafe,Restaurant,https://m.facebook.com/RollingNori-Japanese-cafe-361964864209450/,,"T302/11 Rose Ln, Melbourne VIC 3000, Australia",Melbourne,Victoria,AU,3000,-37.8152541,144.9541326,4.7,141,112,18,3,5,3
HOME Vegan Bar,Restaurant,https://homeveganbar.square.site/,+61 1300 464 729,"shop 4/699 Collins St, Docklands VIC 3008, Australia",Docklands,Victoria,AU,3008,-37.8202588,144.9512693,4.7,137,119,11,3,0,4
Hunters & Disciples,Cafe,http://www.huntersdisciples.com.au/,+61 1300 555 749,"39/617-643 Spencer St, West Melbourne VIC 3003, Australia",West Melbourne,Victoria,AU,3003,-37.8071621,144.9454649,4.7,134,113,11,3,5,2
Castro's Kiosk,Cafe,,,"Physics Building, The University Of Melbourne, Tin Alley, Parkville VIC 3053, Australia",Parkville,Victoria,AU,3053,-37.797179,144.963502,4.7,129,103,18,2,4,2
Fu Lu Chinese Cafe & Take Away,Cafe,,+61 3 9347 7673,"172 Rathdowne St, Carlton VIC 3053, Australia",Carlton,Victoria,AU,3053,-37.795277,144.9710761,4.7,110,89,15,3,2,1
Charm Korean Restaurant,Restaurant,https://charmkoreanrestaurant.business.site/?m=true,,"146 Toorak Rd, South Yarra VIC 3141, Australia",South Yarra,Victoria,AU,3141,-37.8390279,144.9911006,4.7,106,91,8,3,3,1
San Telmo,Restaurant,http://www.santelmo.com.au/?utm_source=google&utm_medium=gmb,+61 3 9650 5525,"14 Meyers Pl, Melbourne VIC 3000, Australia",Melbourne,Victoria,AU,3000,-37.8121636,144.9724132,4.6,2281,1701,367,61,96,56
ChangGo Korean BBQ,Restaurant,https://www.instagram.com/changgobbq_/,,"70 Little La Trobe St, Melbourne VIC 3000, Australia",Melbourne,Victoria,AU,3000,-37.8094517,144.9617432,4.6,2048,1573,328,37,80,30
Leonards House Of Love,Bar,http://leonardshouseoflove.com.au/,+61 428 066 778,"3 Wilson St, South Yarra VIC 3141, Australia",South Yarra,Victoria,AU,3141,-37.843681,144.995667,4.6,1716,1291,311,29,69,16
Khabbay Restaurant,Restaurant,http://khabbayrestaurant.com.au/,+61 433 982 552,"140-146 Lygon St, Carlton VIC 3053, Australia",Carlton,Victoria,AU,3053,-37.803815,144.966667,4.6,1522,1168,205,61,64,24
Bowery To Williamsburg,Restaurant,http://bowerytowilliamsburg.com.au/,+61 3 9077 0162,"16 Oliver Ln, Melbourne VIC 3000, Australia",Melbourne,Victoria,AU,3000,-37.8162381,144.970252,4.6,1356,951,288,31,66,20
Osteria Ilaria,Restaurant,http://www.osteriailaria.com/,+61 3 9642 2287,"367 Little Bourke St, Melbourne VIC 3000, Australia",Melbourne,Victoria,AU,3000,-37.8136075,144.9619069,4.6,1343,1031,203,31,55,23
MIXITY Restaurant and Cafe,Restaurant,http://www.mixityrestaurant.com/,+61 3 9939 8602,"171 Lygon St, Carlton VIC 3053, Australia",Carlton,Victoria,AU,3053,-37.801665,144.966565,4.6,1337,1118,109,64,35,11
Mr Ramen San,Restaurant,http://www.mrramensan.com.au/,+61 3 9042 1588,"12a/200 Bourke St, Melbourne VIC 3000, Australia",Melbourne,Victoria,AU,3000,-37.812401,144.967248,4.6,1331,959,264,23,72,13
SSAM Korean BBQ - CBD,Restaurant,https://www.facebook.com/SSAMmelbourne,+61 481 388 456,"189 King St, Melbourne VIC 3000, Australia",Melbourne,Victoria,AU,3000,-37.815723,144.9551175,4.6,1234,969,158,59,29,19
Thirty Eight Chairs,Restaurant,http://www.thirtyeightchairs.com.au/,+61 3 9827 5553,"4 Bond St, South Yarra VIC 3141, Australia",South Yarra,Victoria,AU,3141,-37.8411108,144.9946972,4.6,1080,836,144,22,56,22
Moroccan Soup Bar,Restaurant,http://moroccansoupbar.com.au/,+61 403 315 559,"47-51 Boundary Rd, North Melbourne VIC 3051, Australia",North Melbourne,Victoria,AU,3051,-37.7941771,144.9389484,4.6,1000,807,99,25,42,27
By Korea,Restaurant,,+61 3 9662 9380,"7 Tattersalls Ln, Melbourne VIC 3000, Australia",Melbourne,Victoria,AU,3000,-37.8120162,144.9655941,4.6,849,608,170,14,48,9
KRABBY'S CRAB BOIL,Restaurant,http://krabbyscrabboil.com.au/,+61 481 432 288,"District Docklands CCF01, LEVEL 1/3-6 Star Circus, Docklands VIC 3008, Australia",Docklands,Victoria,AU,3008,-37.8123815,144.9378477,4.6,848,651,111,30,40,16
Sassy Italian Restaurant,Restaurant,https://www.sassyitalianrestaurant.com.au/,+61 488 007 297,"1 Dryburgh St, West Melbourne VIC 3003, Australia",West Melbourne,Victoria,AU,3003,-37.8070035,144.9425483,4.6,738,633,32,53,12,8
Philippe,Restaurant,http://www.philipperestaurant.com.au/,+61 3 8394 6625,"115 Collins St, Melbourne VIC 3000, Australia",Melbourne,Victoria,AU,3000,-37.814762,144.9700693,4.6,721,546,119,15,31,10
Pentolina - Fresh Pasta & Bar,Restaurant,https://www.pentolina.com.au/,+61 3 9606 0642,"2/377 Little Collins St, Melbourne VIC 3000, Australia",Melbourne,Victoria,AU,3000,-37.8158502,144.9624301,4.6,646,513,76,14,28,15
KOMEYUI,Restaurant,http://www.komeyui.com.au/,+61 3 9645 5420,"181 Ferrars St, Southbank VIC 3006, Australia",Southbank,Victoria,AU,3006,-37.8302484,144.9540075,4.6,608,448,105,19,26,10
ShanDong MaMa Mini,Restaurant,,+61 416 662 992,"5 Centre Pl, Melbourne VIC 3000, Australia",Melbourne,Victoria,AU,3000,-37.8167056,144.9655546,4.6,589,440,112,8,20,9
Royal Standard Hotel,Bar,http://www.royalstandardhotel.com.au/,+61 3 9328 2295,"333 William St, West Melbourne VIC 3003, Australia",West Melbourne,Victoria,AU,3003,-37.807831,144.9542788,4.6,548,400,104,12,26,6
Squires Loft South Yarra,Restaurant,http://www.squiresloftsouthyarra.com.au/,+61 3 9824 0999,"3/166 Toorak Rd, South Yarra VIC 3141, Australia",South Yarra,Victoria,AU,3141,-37.8392301,144.9926344,4.6,542,383,120,12,21,6
Kenzan Japanese Restaurant,Restaurant,http://www.kenzan.com.au/,+61 3 9654 8933,"Collins Place Lower ground floor, 45 Collins St, Melbourne VIC 3000, Australia",Melbourne,Victoria,AU,3000,-37.8147056,144.9726333,4.6,535,377,111,11,27,9
La Luna Bistro,Restaurant,http://www.lalunabistro.com.au/,+61 3 9349 4888,"320 Rathdowne St, Carlton North VIC 3054, Australia",Carlton North,Victoria,AU,3054,-37.7910915,144.9718497,4.6,506,375,80,14,29,8
Gimlet at Cavendish House,Restaurant,https://gimlet.melbourne/,+61 3 9277 9777,"33 Russell St, Melbourne VIC 3000, Australia",Melbourne,Victoria,AU,3000,-37.8158812,144.9693376,4.6,501,404,49,15,20,13
Bistrot d'Orsay,Restaurant,http://www.bistrotdorsay.com.au/,+61 3 9654 6498,"184 Collins St, Melbourne VIC 3000, Australia",Melbourne,Victoria,AU,3000,-37.815033,144.967453,4.6,475,351,88,6,23,7
279 Victoria St,Cafe,http://279victoriast.co/,+61 401 343 310,"279 Victoria St, West Melbourne VIC 3003, Australia",West Melbourne,Victoria,AU,3003,-37.8056505,144.951959,4.6,470,350,70,13,27,10
Leonardo's Pizza Palace,Restaurant,http://www.leonardospizzapalace.com.au/,+61 3 9242 0666,"29 Grattan St, Carlton VIC 3053, Australia",Carlton,Victoria,AU,3053,-37.8010583,144.9686339,4.6,455,339,75,15,19,7
Chai 'N' Chilli - Indian Restaurant in Docklands,Restaurant,http://www.chai-n-chilli.com/,+61 433 577 006,"Shop 101/673 La Trobe St, Docklands VIC 3008, Australia",Docklands,Victoria,AU,3008,-37.8151873,144.9481024,4.6,421,324,56,17,15,9
Blossom Thai,Restaurant,http://blossomthai.com.au/,+61 466 585 585,"36 Cunningham St, South Yarra VIC 3141, Australia",South Yarra,Victoria,AU,3141,-37.8399847,144.9969491,4.6,407,315,45,12,21,14
Chez Olivier Le Bistro,Restaurant,http://www.chezolivier.com.au/,+61 3 9525 2273,"268 Toorak Rd, South Yarra VIC 3141, Australia",South Yarra,Victoria,AU,3141,-37.8397419,144.996272,4.6,389,295,64,10,13,7
Albion Hotel North Melbourne,Bar,https://www.facebook.com/AlbionHotelNorthMelbourne/,+61 3 9326 6575,"171 Curzon St, North Melbourne VIC 3051, Australia",North Melbourne,Victoria,AU,3051,-37.7988889,144.9486111,4.6,330,236,64,5,24,1
Eat Pizza North Melbourne,Restaurant,https://eat-pizza.com.au/,+61 3 9328 4888      phone4,"55 Flemington Rd, North Melbourne VIC 3051, Australia",North Melbourne,Victoria,AU,3051,-37.7995645,144.9543308,4.6,314,239,47,15,10,3
Waterslide Bar,Bar,http://www.waterslidebar.com.au/,+61 426 763 383,"MR3, Southgate Ave, Southbank VIC 3006, Australia",Southbank,Victoria,AU,3006,-37.819998,144.966873,4.6,299,214,61,6,16,2
Soul Soul Cafe,Cafe,http://www.soulsoul.com.au/,+61 3 7038 0068,"shop 1/158 Victoria St, Carlton VIC 3053, Australia",Carlton,Victoria,AU,3053,-37.8061814,144.9622201,4.6,297,230,42,8,9,8
Hanoi Mee Kitchen & Bar,Restaurant,http://www.hanoimee.com.au/,+61 3 9042 7921,"140 Rouse St, Port Melbourne VIC 3207, Australia",Port Melbourne,Victoria,AU,3207,-37.8420644,144.9398109,4.6,258,202,31,8,12,5
Lona Misa,Restaurant,http://lonamisa.com.au/,+61 3 9116 2000,"234 Toorak Rd, South Yarra VIC 3141, Australia",South Yarra,Victoria,AU,3141,-37.8396541,144.9948592,4.6,234,183,24,9,12,6
NOMAD,Restaurant,https://nomad.melbourne/,+61 3 8419 2800,"187 Flinders Ln, Melbourne VIC 3000, Australia",Melbourne,Victoria,AU,3000,-37.8161891,144.9683115,4.6,223,179,24,9,6,5
Ample Cafe & Bar,Cafe,https://www.amplecafe.com.au/,+61 3 9329 6622,"123/129 Howard St, North Melbourne VIC 3051, Australia",North Melbourne,Victoria,AU,3051,-37.804108,144.9537523,4.6,217,150,50,2,13,2
Maria's Trattoria,Restaurant,https://mariastrattoria.com.au/,+61 3 9329 9016,"122-124 Peel St, North Melbourne VIC 3051, Australia",North Melbourne,Victoria,AU,3051,-37.8051482,144.9563384,4.6,213,154,37,4,15,3
Joe Taylor,Bar,http://joetaylorbar.com/,+61 3 9329 4669,"7 Errol St, North Melbourne VIC 3051, Australia",North Melbourne,Victoria,AU,3051,-37.8047936,144.9490524,4.6,207,146,45,4,9,3
House of Cards,Cafe,http://houseofcardsespresso.com/,,"University of Melbourne Engineering Lane, Parkville VIC 3052, Australia",Parkville,Victoria,AU,3052,-37.7991665,144.9615868,4.6,188,141,32,2,11,2
tom dick and harry cafe,Cafe,https://www.facebook.com/tomdickharrycafe?ref=hl,,"242 Toorak Rd, South Yarra VIC 3141, Australia",South Yarra,Victoria,AU,3141,-37.8396038,144.9950822,4.6,180,128,35,4,10,3
Mr Gonzo,Restaurant,,+61 449 536 317,"28 Melrose St, North Melbourne VIC 3051, Australia",North Melbourne,Victoria,AU,3051,-37.7947046,144.9420735,4.6,180,145,18,4,9,4
Turk To Me,Restaurant,,+61 3 9498 0478,"167 Bay St, Port Melbourne VIC 3207, Australia",Port Melbourne,Victoria,AU,3207,-37.839553,144.941107,4.6,175,147,12,12,4,0
Luncheonette,Cafe,https://m.facebook.com/Luncheonette-163353340356330/,+61 450 919 159,"173 Rankins Rd, Kensington VIC 3031, Australia",Kensington,Victoria,AU,3031,-37.7944393,144.9311145,4.6,129,96,20,5,7,1
Butcher Shop Cafe,Cafe,http://www.butchershopcafe.weebly.com/,+61 411 723 916,"72 Hawke St, West Melbourne VIC 3003, Australia",West Melbourne,Victoria,AU,3003,-37.808004,144.945578,4.6,119,88,21,2,5,3
Carte Crepes,Cafe,,+61 449 824 809,"John Medley Building, University of Melbourne, Parkville VIC 3052, Australia",Parkville,Victoria,AU,3052,-37.799191,144.960443,4.6,110,74,30,1,4,1
Okra Sri Lankan Cuisine,Restaurant,https://okrasrilankancuisine.com/,+61 3 8590 9661,"166 Rathdowne St, Carlton VIC 3053, Australia",Carlton,Victoria,AU,3053,-37.7954351,144.971125,4.6,107,91,6,9,1,0
Crown Street Stables,Cafe,https://mvcc.vic.gov.au/play/my-experience/crown-street-stables/,+61 3 9372 5350,"40 Crown St, Flemington VIC 3031, Australia",Flemington,Victoria,AU,3031,-37.7859091,144.9229755,4.6,102,70,23,0,9,0
The Fresh Prince Of Burgertory,Cafe,http://www.burgertory.com.au/,+61 3 9995 9182,"192 Bellair St, Kensington VIC 3031, Australia",Kensington,Victoria,AU,3031,-37.79404,144.930084,4.6,102,81,8,4,6,3
Laksa King,Restaurant,https://www.laksaking.com.au/flemington/,+61 3 9372 6383,"6-12 Pin Oak Cres, Flemington VIC 3031, Australia",Flemington,Victoria,AU,3031,-37.7878851,144.9295518,4.5,3570,2406,813,79,204,68
Supernormal,Restaurant,http://www.supernormal.net.au/,+61 3 9650 8688,"180 Flinders Ln, Melbourne VIC 3000, Australia",Melbourne,Victoria,AU,3000,-37.8159071,144.9683863,4.5,3016,2028,670,53,189,76
Pastuso,Restaurant,http://pastuso.com.au/,+61 3 9662 4556,"19 AC/DC La, Melbourne VIC 3000, Australia",Melbourne,Victoria,AU,3000,-37.8158403,144.9710359,4.5,2066,1445,397,59,110,55
MoVida,Restaurant,https://www.movida.com.au/,+61 3 9663 3038,"1 Hosier Ln, Melbourne VIC 3000, Australia",Melbourne,Victoria,AU,3000,-37.8167167,144.9691417,4.5,1605,1092,340,37,106,30
Asado,Restaurant,https://www.asado.melbourne/?utm_source=google&utm_medium=gmb,+61 3 9088 8600,"6 Riverside Quay, Southbank VIC 3006, Australia",Southbank,Victoria,AU,3006,-37.8208984,144.9640633,4.5,1459,1030,236,58,85,50
Humble Rays Melbourne,Cafe,https://www.humblerays.com.au/,+61 466 044 477,"71 Bouverie St, Carlton VIC 3053, Australia",Carlton,Victoria,AU,3053,-37.8047794,144.9613635,4.5,1442,956,342,41,81,22
Rare Steakhouse Downtown,Restaurant,http://www.raresteakhouse.com.au/,+61 3 9620 9888,"42-44 King St, Melbourne VIC 3000, Australia",Melbourne,Victoria,AU,3000,-37.8191552,144.9572031,4.5,1242,872,237,30,72,31
Vue de monde,Restaurant,http://www.vuedemonde.com.au/,+61 3 9691 3888,"55 Rialto Towers, 525 Collins St, Melbourne VIC 3000, Australia",Melbourne,Victoria,AU,3000,-37.8187,144.9576,4.5,1182,923,121,70,46,22
Yeonga Korean BBQ Restaurant,Restaurant,http://www.yeongabbq.com.au/,+61 3 9326 8834,"1 Cobden St, North Melbourne VIC 3051, Australia",North Melbourne,Victoria,AU,3051,-37.8056217,144.9569746,4.5,1099,746,245,34,54,20
Bornga Korean Restaurant,Restaurant,https://instagram.com/borngamelbourne?igshid=3kmx2zmgii9s,+61 406 468 878,"Level 1/178 Little Bourke St, Melbourne VIC 3000, Australia",Melbourne,Victoria,AU,3000,-37.8119045,144.9669566,4.5,1069,747,202,50,54,16
Flower Drum Restaurant Melbourne,Restaurant,http://www.flowerdrum.melbourne/,+61 3 9662 3655,"17 Market Ln, Melbourne VIC 3000, Australia",Melbourne,Victoria,AU,3000,-37.8118772,144.9692458,4.5,1025,740,181,31,44,29
Longrain Melbourne,Restaurant,http://www.longrainmelbourne.com/,+61 3 9653 1600,"44 Little Bourke St, Melbourne VIC 3000, Australia",Melbourne,Victoria,AU,3000,-37.8106333,144.9711861,4.5,1025,699,228,20,58,20
Chocolate Buddha,Restaurant,http://chocolatebuddha.com.au/,+61 3 9654 5688,"Federation Square, Swanston St & Flinders St, Melbourne VIC 3000, Australia",Melbourne,Victoria,AU,3000,-37.8177174,144.9687344,4.5,932,625,185,26,66,30
Rare Steakhouse Midtown,Restaurant,http://raresteakhouse.com.au/,+61 3 9670 7317,"12 Goldie Pl, Melbourne VIC 3000, Australia",Melbourne,Victoria,AU,3000,-37.813386,144.960767,4.5,910,625,187,19,66,13
Mörk Chocolate Brew House,Cafe,http://morkchocolate.com.au/,+61 3 9328 1386,"150 Errol St, North Melbourne VIC 3051, Australia",North Melbourne,Victoria,AU,3051,-37.8015376,144.9501363,4.5,910,619,196,27,55,13
SPQR Pizzeria,Restaurant,https://www.spqrpizzeria.com/,+61 3 9671 3326,"26 Liverpool St, Melbourne VIC 3000, Australia",Melbourne,Victoria,AU,3000,-37.8109748,144.9713394,4.5,901,630,164,36,54,17
A Hereford Beefstouw,Restaurant,http://beefstouw.com/melbourne-australia,+61 3 9654 8297,"22 Duckboard Pl, Melbourne VIC 3000, Australia",Melbourne,Victoria,AU,3000,-37.8157449,144.9712936,4.5,899,625,167,27,51,29
Vertue Coffee Roasters CARLTON,Cafe,http://vertuecoffee.com.au/,+61 3 8060 6987,"8 Raffa Pl, Carlton VIC 3053, Australia",Carlton,Victoria,AU,3053,-37.7976816,144.9682985,4.5,893,626,160,41,44,22
Archie Brothers Cirque Electriq Melbourne,Bar,https://www.archiebrothers.com.au/locations/melbourne?utm_source=google-business&utm_medium=organic&utm_campaign=search-google-business,+61 1300 888 386,"Shop CW-G19 The District Docklands, 440 Docklands Dr, Docklands VIC 3008, Australia",Docklands,Victoria,AU,3008,-37.8121338,144.9365876,4.5,891,594,198,25,58,16
Da Guido La Pasta,Restaurant,http://www.daguidomelbourne.com/,+61 3 8528 4547,"130 Lygon St, Carlton VIC 3053, Australia",Carlton,Victoria,AU,3053,-37.8040315,144.9666273,4.5,807,590,116,35,42,24
Woodo Korean Barbecue,Restaurant,https://woodo-korean-bbq.business.site/,+61 3 9995 9612,"179 King St, Melbourne VIC 3000, Australia",Melbourne,Victoria,AU,3000,-37.8159438,144.9552646,4.5,786,547,147,27,46,19
Don Tojo,Restaurant,,,"164 Cardigan St, Carlton VIC 3053, Australia",Carlton,Victoria,AU,3053,-37.8013824,144.9656286,4.5,776,518,184,22,43,9
Code Black Coffee North Melbourne,Cafe,http://www.codeblackcoffee.com.au/,+61 3 9329 1810,"119 Howard St, North Melbourne VIC 3051, Australia",North Melbourne,Victoria,AU,3051,-37.804227,144.953643,4.5,652,435,150,15,35,17
Skewer'd,Restaurant,http://www.skewerdmeat.com/,+61 3 9646 0031,"151 Bay St, Port Melbourne VIC 3207, Australia",Port Melbourne,Victoria,AU,3207,-37.8398041,144.9409084,4.5,642,433,135,24,34,16
Cecconi's Flinders Lane Restaurant & Cellar Bar,Restaurant,http://cecconis.com/,+61 3 8663 0500,"61 Flinders Ln, Melbourne VIC 3000, Australia",Melbourne,Victoria,AU,3000,-37.8150555,144.9725293,4.5,625,442,110,21,30,22
Hanaichi,Restaurant,http://www.hanaichi.com.au/,+61 3 9662 9409,"QV Square, 13-15 Swanston &, Lonsdale St, Melbourne VIC 3000, Australia",Melbourne,Victoria,AU,3000,-37.8105481,144.9655226,4.5,595,380,152,16,34,13
Pizza Pizza Pizza,Restaurant,http://www.pizzapizzapizza.com.au/,+61 3 9639 7411,"16 Meyers Pl, Melbourne VIC 3000, Australia",Melbourne,Victoria,AU,3000,-37.8121794,144.972356,4.5,581,422,100,26,28,5
Square & Compass,Restaurant,http://compasshospitalitygroup.com.au/,+61 3 9416 4914,"222 Clarendon St, East Melbourne VIC 3002, Australia",East Melbourne,Victoria,AU,3002,-37.809698,144.9839472,4.5,540,333,159,9,31,8
Gai Wong,Restaurant,http://www.gaiwong.com.au/,+61 415 358 801,"Shop 1/5-17 Flemington Rd, North Melbourne VIC 3051, Australia",North Melbourne,Victoria,AU,3051,-37.8008832,144.956052,4.5,536,392,82,22,26,14
Local Folk,Cafe,http://www.localfolk.com.au/,+61 3 9939 7241,"43 Epsom Rd, Kensington VIC 3031, Australia",Kensington,Victoria,AU,3031,-37.7922097,144.9257042,4.5,477,321,105,13,24,14
Sunda Dining,Restaurant,https://www.sunda.com.au/,+61 3 9654 8190,"18 Punch Ln, Melbourne VIC 3000, Australia",Melbourne,Victoria,AU,3000,-37.8103547,144.9711635,4.5,453,347,52,15,25,14
Prudence,Bar,http://www.facebook.com/PrudenceBar,+61 3 9329 9267,"368 Victoria St, North Melbourne VIC 3051, Australia",North Melbourne,Victoria,AU,3051,-37.80553,144.9540668,4.5,434,286,107,11,23,7
Gemma Simply Italian,Restaurant,http://www.gemmasimplyitalian.com.au/,+61 3 9349 2835,"183 Elgin St, Carlton VIC 3053, Australia",Carlton,Victoria,AU,3053,-37.7973644,144.968445,4.5,423,306,67,14,27,9
Rubira's,Restaurant,http://www.rubiras.com.au/,+61 3 9646 2746,"192 Station St, Port Melbourne VIC 3207, Australia",Port Melbourne,Victoria,AU,3207,-37.8327981,144.9456215,4.5,406,289,72,8,25,12
Yokoso Izakaya Moonee Ponds,Restaurant,http://yokoso-izakaya.com/,+61 3 9372 8702,"702 Mt Alexander Rd, Moonee Ponds VIC 3039, Australia",Moonee Ponds,Victoria,AU,3039,-37.7684961,144.925599,4.5,369,260,72,13,18,6
Corniche Restaurant,Restaurant,http://cornicherestaurant.com/,+61 3 9078 9590,"96 River Esplanade, Docklands VIC 3008, Australia",Docklands,Victoria,AU,3008,-37.824583,144.9441104,4.5,360,262,55,25,14,4
Scugnizzo Ristorante,Restaurant,http://www.scugnizzo.com.au/,+61 3 9670 5622,"558 Little Bourke St, Melbourne VIC 3000, Australia",Melbourne,Victoria,AU,3000,-37.8150634,144.95578,4.5,354,243,67,14,23,7
Bar Carolina,Restaurant,http://www.barcarolina.com.au/,+61 3 9820 9774,"44 Toorak Rd, South Yarra VIC 3141, Australia",South Yarra,Victoria,AU,3141,-37.838679,144.9880041,4.5,352,256,60,13,13,10
Lupino,Restaurant,https://www.lupino.com.au/,+61 3 9639 0333,"41 Little Collins St, Melbourne VIC 3000, Australia",Melbourne,Victoria,AU,3000,-37.8127556,144.9723371,4.5,347,234,81,9,15,8
The Olive Jar,Restaurant,http://www.theolivejar.com.au/,+61 3 9347 6173,"168/170 Rathdowne St, Carlton VIC 3053, Australia",Carlton,Victoria,AU,3053,-37.795364,144.971153,4.5,347,276,29,23,13,6
Pepper,Cafe,http://www.peppercafe.com.au/,+61 3 9372 2726,"44 Pin Oak Cres, Flemington VIC 3031, Australia",Flemington,Victoria,AU,3031,-37.787032,144.929318,4.5,340,231,75,9,18,7
Royal Kebab Cafe,Restaurant,,+61 3 9329 5497,"193 Flemington Rd, North Melbourne VIC 3051, Australia",North Melbourne,Victoria,AU,3051,-37.7949989,144.9485255,4.5,335,248,42,16,18,11
Bistro Gitan,Restaurant,http://www.bistrogitan.com.au/,+61 3 9867 5853,"52 Toorak Rd West, South Yarra VIC 3141, Australia",South Yarra,Victoria,AU,3141,-37.8372341,144.9792539,4.5,328,218,77,9,16,8
Abla's,Restaurant,http://www.ablas.com.au/,+61 3 9347 0006,"109 Elgin St, Carlton VIC 3053, Australia",Carlton,Victoria,AU,3053,-37.7977139,144.9710972,4.5,326,223,58,10,26,9
ima Project Cafe,Cafe,https://imacafe.co/,+61 3 9348 1118,"169 Elgin St, Carlton VIC 3053, Australia",Carlton,Victoria,AU,3053,-37.7975066,144.9692409,4.5,322,229,53,14,20,6
Flavours of Indus Indian Restaurant,Restaurant,,+61 3 6417 0102,"104 Lygon St, Carlton VIC 3053, Australia",Carlton,Victoria,AU,3053,-37.804669,144.9665263,4.5,313,238,40,21,10,4
Rock Paper Scissors,Cafe,https://rock-paper-scissors-cafe.business.site/?utm_source=gmb&utm_medium=referral,+61 3 9676 9917,"136/138 Rouse St, Port Melbourne VIC 3207, Australia",Port Melbourne,Victoria,AU,3207,-37.8421619,144.9398182,4.5,297,192,76,8,15,6
El Rincon,Restaurant,http://elrincon.com.au/,+61 450 902 222,"69 Victoria St, Melbourne VIC 3000, Australia",Melbourne,Victoria,AU,3000,-37.806407,144.958841,4.5,288,205,51,10,16,6
Tabouli,Restaurant,https://www.facebook.com/tabouli/,+61 3 8383 2157,"189 Lygon St, Carlton VIC 3053, Australia",Carlton,Victoria,AU,3053,-37.8011938,144.9665615,4.5,285,219,31,14,17,4
The Graham Hotel,Restaurant,https://www.thegrahamhotel.com.au/,+61 3 9676 2566,"97 Graham St, Port Melbourne VIC 3207, Australia",Port Melbourne,Victoria,AU,3207,-37.841622,144.942628,4.5,276,186,55,8,17,10
Fandango Cafe,Cafe,/url?q=https://fandangocafenorthmelbourne.com.au/&sa=U&ved=0ahUKEwj57sz6lM76AhV0pokEHaIxDQ4Q61gIHCgQ&usg=AOvVaw01JBaWZ2lbDCDiqZ60T_Kj,+61 3 9329 0693,"97 Errol St, North Melbourne VIC 3051, Australia",North Melbourne,Victoria,AU,3051,-37.8026164,144.9494255,4.5,270,194,48,7,17,4
North Melbourne Fish and Chips,Restaurant,,+61 3 9329 1852,"38 Haines St, North Melbourne VIC 3051, Australia",North Melbourne,Victoria,AU,3051,-37.7983387,144.9468569,4.5,266,191,42,9,15,9
Bedggood & Co.,Restaurant,https://www.facebook.com/bedggoodco/,+61 3 9671 3730,"137 Wellington Parade S, East Melbourne VIC 3002, Australia",East Melbourne,Victoria,AU,3002,-37.816798,144.9799912,4.5,251,183,44,12,9,3
Beluga Fish & Chippery South Yarra,Restaurant,https://www.belugafishandchips.com.au/,+61 3 9820 4009,"39 Toorak Rd, South Yarra VIC 3141, Australia",South Yarra,Victoria,AU,3141,-37.8383802,144.9877692,4.5,249,170,53,9,10,7
Taquito,Restaurant,http://taquito.bar/,+61 450 651 247,"350 Drummond St, Carlton VIC 3053, Australia",Carlton,Victoria,AU,3053,-37.7977042,144.969218,4.5,245,190,22,12,12,9
Da Noi,Restaurant,http://www.danoi.com.au/,+61 3 9866 5975,"95 Toorak Rd, South Yarra VIC 3141, Australia",South Yarra,Victoria,AU,3141,-37.8386167,144.9896667,4.5,234,175,26,10,17,6
Ecco Gusto Italiano - Restaurant,Restaurant,http://www.eccorestaurant.com.au/,+61 3 9866 5466,"97 Toorak Rd, South Yarra VIC 3141, Australia",South Yarra,Victoria,AU,3141,-37.8386326,144.9897181,4.5,223,161,39,7,11,5
Apollo Café,Cafe,http://www.apollocafe.com.au/,+61 414 215 160,"109-111 Hawke St, West Melbourne VIC 3003, Australia",West Melbourne,Victoria,AU,3003,-37.8078222,144.9465719,4.5,205,149,35,5,10,6
The Peacock South Yarra,Cafe,http://www.thepeacock.com.au/,+61 3 8596 2342,"68 River St, South Yarra VIC 3141, Australia",South Yarra,Victoria,AU,3141,-37.837152,144.997818,4.5,197,151,21,13,6,6
Nahm Tao Thai Kitchen,Restaurant,http://www.nahmtaothaikitchen.com.au/,+61 451 913 348,"348 Victoria St, North Melbourne VIC 3051, Australia",North Melbourne,Victoria,AU,3051,-37.8055639,144.9545043,4.5,189,134,35,11,8,1
Mum Mum Asian Street Food,Restaurant,http://www.mummumstreet.com.au/,+61 3 9329 7106,"67 Flemington Rd, North Melbourne VIC 3051, Australia",North Melbourne,Victoria,AU,3051,-37.799353,144.953975,4.5,183,125,43,4,9,2
Chickilia,Restaurant,http://www.chickilia.com.au/,+61 3 9328 5828,"89 Peel St, West Melbourne VIC 3003, Australia",West Melbourne,Victoria,AU,3003,-37.8060762,144.9556854,4.5,178,127,29,4,12,6
Papa Giuseppe Pizza,Restaurant,,+61 3 9329 0200,"348 Abbotsford St, North Melbourne VIC 3051, Australia",North Melbourne,Victoria,AU,3051,-37.7988083,144.9463636,4.5,163,119,24,4,13,3
Get to the Greek,Restaurant,http://gettothegreek.com.au/,+61 3 9041 3211,"49 Beach St, Port Melbourne VIC 3207, Australia",Port Melbourne,Victoria,AU,3207,-37.8424566,144.9375031,4.5,155,105,36,6,6,2
La Madonna,Restaurant,https://nexthotelmelbourne.com/drink-and-dine/la-madonna/,+61 3 9118 3352,"103 Little Collins St, Melbourne VIC 3000, Australia",Melbourne,Victoria,AU,3000,-37.8134213,144.9703466,4.5,126,92,21,4,7,2
Pope Joan,Cafe,https://www.popejoancity.com/,+61 492 954 245,"shop 16/45 Collins St, Melbourne VIC 3000, Australia",Melbourne,Victoria,AU,3000,-37.8145435,144.9732808,4.5,124,81,29,4,8,2
Tiger Bread Bakery & Café,Cafe,,+61 85907018,"330 Racecourse Rd, Flemington VIC 3031, Australia",Flemington,Victoria,AU,3031,-37.7879939,144.9297507,4.5,122,97,9,6,5,5
Angliss Restaurant,Restaurant,https://www.angliss.edu.au/restaurants-events/angliss-dining/angliss-restaurant/,+61 3 9606 2108,"550 Little Lonsdale St, Melbourne VIC 3000, Australia",Melbourne,Victoria,AU,3000,-37.8137917,144.9525603,4.5,116,75,32,1,5,3
Universal Restaurant,Restaurant,https://www.universalrestaurant.com.au/,+61 3 9347 4393,"141 Lygon St, Carlton VIC 3053, Australia",Carlton,Victoria,AU,3053,-37.8038454,144.9661208,4.4,4606,2872,1149,152,328,105
The Hardware Société,Restaurant,http://hardwaresociete.com/,+61 3 9621 2100,"10 Katherine Pl, Melbourne VIC 3000, Australia",Melbourne,Victoria,AU,3000,-37.8200386,144.9566619,4.4,3401,2106,812,114,269,100
Royal Stacks,Restaurant,http://www.royalstacks.com.au/,+61 3 9620 0296,"470 Collins St, Melbourne VIC 3000, Australia",Melbourne,Victoria,AU,3000,-37.8176217,144.9584147,4.4,2790,1690,775,57,211,57
+39 Pizzeria CBD,Restaurant,http://plus39.com.au/,+61 3 9642 0440,"362 Little Bourke St, Melbourne VIC 3000, Australia",Melbourne,Victoria,AU,3000,-37.813468,144.961833,4.4,2366,1503,575,71,165,52
DOC Pizza & Mozzarella Bar - Carlton,Restaurant,http://docgroup.net/,+61 3 9347 2998,"295 Drummond St, Carlton VIC 3053, Australia",Carlton,Victoria,AU,3053,-37.7989897,144.9685103,4.4,2189,1397,487,109,126,70
Auction Rooms,Cafe,http://www.auctionroomscafe.com.au/,+61 3 9326 7749,"103-107 Errol St, North Melbourne VIC 3051, Australia",North Melbourne,Victoria,AU,3051,-37.8025013,144.9494883,4.4,2162,1331,584,50,155,42
Operator25,Cafe,http://www.operator25.com.au/,+61 3 9670 3278,"25 Wills St, Melbourne VIC 3000, Australia",Melbourne,Victoria,AU,3000,-37.8106796,144.9569892,4.4,2052,1284,512,64,143,49
Red Spice Road,Restaurant,https://redspiceroad.com/,+61 3 9603 1601,"141 Queen St, Melbourne VIC 3000, Australia",Melbourne,Victoria,AU,3000,-37.8153444,144.9606767,4.4,2027,1216,531,69,142,69
Cargo,Restaurant,http://www.cargorestaurant.com.au/,+61 3 9670 0999,"55A Newquay Promenade, Docklands VIC 3008, Australia",Docklands,Victoria,AU,3008,-37.8152778,144.9413889,4.4,1577,924,459,35,125,34
Hunky Dory Fish & Chips Port Melbourne,Restaurant,http://www.hunkydory.com.au/,+61 3 9646 1020,"3/181 Bay St, Port Melbourne VIC 3207, Australia",Port Melbourne,Victoria,AU,3207,-37.8392611,144.9414139,4.4,1412,884,319,60,121,28
Krimper Cafe,Cafe,http://www.krimper.com.au/,+61 3 9043 8844,"20 Guildford Ln, Melbourne VIC 3000, Australia",Melbourne,Victoria,AU,3000,-37.8111667,144.9601056,4.4,1200,694,352,28,82,44
D'Lish Fish,Restaurant,https://dlishfish.com/,+61 3 9646 0660,"3/105 Beach St, Port Melbourne VIC 3207, Australia",Port Melbourne,Victoria,AU,3207,-37.8410105,144.9319303,4.4,1162,726,278,41,83,34
Two Birds One Stone Cafe,Cafe,https://www.twobirdsonestonecafe.com.au/,+61 3 9827 1228,"12 Claremont St, South Yarra VIC 3141, Australia",South Yarra,Victoria,AU,3141,-37.8380083,144.9940885,4.4,1083,699,250,37,72,25
Kedai Satay in King St,Restaurant,http://kedaisatay.com.au/?utm_source=gmb&utm_medium=referral,+61 3 9640 0371,"186 King St, Melbourne VIC 3000, Australia",Melbourne,Victoria,AU,3000,-37.8157059,144.9556643,4.4,974,585,292,25,61,11
France-Soir,Restaurant,http://www.france-soir.com.au/,+61 3 9866 8569,"11 Toorak Rd, South Yarra VIC 3141, Australia",South Yarra,Victoria,AU,3141,-37.8382608,144.9868879,4.4,874,612,125,48,59,30
Oriental Teahouse South Yarra,Restaurant,,+61 3 9826 0168,"455 Chapel St, South Yarra VIC 3141, Australia",South Yarra,Victoria,AU,3141,-37.843835,144.994428,4.4,856,552,190,22,73,19
Magic Mountain Saloon,Restaurant,http://www.magicmountainsaloon.com.au/,+61 3 9078 0078,"62 Little Collins St, Melbourne VIC 3000, Australia",Melbourne,Victoria,AU,3000,-37.81281,144.971442,4.4,839,499,211,21,80,28
Roasting Warehouse,Cafe,,+61 3 9329 2973,"19-21 Leveson St, North Melbourne VIC 3051, Australia",North Melbourne,Victoria,AU,3051,-37.8044707,144.9506532,4.4,829,533,175,32,63,26
Sezar Restaurant,Restaurant,http://sezar.com.au/,+61 3 9663 9882,"6 Melbourne Pl, Melbourne VIC 3000, Australia",Melbourne,Victoria,AU,3000,-37.8134041,144.9689668,4.4,810,519,195,30,42,24
Seamstress Restaurant and Bar,Restaurant,https://www.seamstress.com.au/,+61 3 9663 6363,"113 Lonsdale St, Melbourne VIC 3000, Australia",Melbourne,Victoria,AU,3000,-37.8105595,144.9690135,4.4,647,413,147,22,48,17
Indian Star Restaurant,Restaurant,http://www.indianstar.com.au/,+61 3 9375 1113,"254/256 Maribyrnong Rd, Moonee Ponds VIC 3039, Australia",Moonee Ponds,Victoria,AU,3039,-37.7703181,144.9051629,4.4,646,457,87,55,29,18
Hello Sam South Yarra,Restaurant,http://www.hellosam.com.au/,+61 3 9973 9551,"760 Chapel St, South Yarra VIC 3141, Australia",South Yarra,Victoria,AU,3141,-37.8362275,144.99651,4.4,612,370,156,24,52,10
Flemington Kebab House,Restaurant,http://flemington-kebabhouse.com/,+61 3 9376 2767,"301 Racecourse Rd, Kensington VIC 3031, Australia",Kensington,Victoria,AU,3031,-37.7885198,144.9308944,4.4,611,451,67,52,29,12
Kaprica,Restaurant,https://m.facebook.com/kapricacarlton,+61 447 043 404,"50 Grattan St, Carlton VIC 3053, Australia",Carlton,Victoria,AU,3053,-37.8006944,144.9678694,4.4,606,366,158,26,43,13
The Waiters Restaurant,Restaurant,,+61 3 9650 1508,"20 Meyers Pl, Melbourne VIC 3000, Australia",Melbourne,Victoria,AU,3000,-37.812078,144.97235,4.4,603,371,152,23,39,18
Philhellene,Restaurant,http://www.philhellene.com.au/,+61 3 9370 3303,"551-553 Mt Alexander Rd, Moonee Ponds VIC 3039, Australia",Moonee Ponds,Victoria,AU,3039,-37.7693864,144.9254166,4.4,602,385,125,30,47,15
Hurricane Handsome,Cafe,http://hurricanehandsome.com.au/,+61 3 9645 1080,"329-331 Bay St, Port Melbourne VIC 3207, Australia",Port Melbourne,Victoria,AU,3207,-37.836078,144.94434,4.4,590,377,151,19,27,16
The Rice Cooker,Restaurant,http://thericecooker.com.au/,+61 3 9041 9190,"Shop 3/33 Flemington Rd, North Melbourne VIC 3051, Australia",North Melbourne,Victoria,AU,3051,-37.800357,144.955367,4.4,575,340,174,15,38,8
The House of Mandi,Restaurant,https://www.facebook.com/thehouseofmandi/,+61 3 9077 3963,"326 Racecourse Rd, Flemington VIC 3031, Australia",Flemington,Victoria,AU,3031,-37.787998,144.929855,4.4,568,381,99,40,38,10
Embassy Cafe,Cafe,https://m.facebook.com/EmbassyCafe547/,+61 3 9328 1830,"547 Spencer St, West Melbourne VIC 3003, Australia",West Melbourne,Victoria,AU,3003,-37.8081322,144.9478149,4.4,531,346,121,19,37,8
Donnini's,Restaurant,http://www.donninis.com.au/,+61 3 9347 3128,"320 Lygon St, Carlton VIC 3053, Australia",Carlton,Victoria,AU,3053,-37.7994889,144.9673139,4.4,522,360,93,25,33,11
Kebab Connection,Restaurant,https://kebabconnection.com.au/,+61 3 9042 2412,"320 Victoria St, North Melbourne VIC 3051, Australia",North Melbourne,Victoria,AU,3051,-37.8056567,144.9555166,4.4,520,391,48,43,28,10
Fratellino - South Yarra,Restaurant,http://www.fratellino.com.au/,+61 3 9826 3624,"415 Malvern Rd, South Yarra VIC 3141, Australia",South Yarra,Victoria,AU,3141,-37.8475181,145.0004623,4.4,512,362,64,37,29,20
Aagaman Indian Nepalese Restaurant & Function Catering Service Melbourne,Restaurant,https://www.aagamanrestaurant.com.au/,+61 3 9676 9234,"271 Bay St, Port Melbourne VIC 3207, Australia",Port Melbourne,Victoria,AU,3207,-37.8374938,144.9430865,4.4,507,347,88,31,30,11
Claypots Barbarossa,Restaurant,http://www.claypotsbarbarossa.com.au/,+61 3 9670 5255,"79 Hardware Ln, Melbourne VIC 3000, Australia",Melbourne,Victoria,AU,3000,-37.8129361,144.9608111,4.4,488,329,86,32,23,18
The French Brasserie,Restaurant,http://www.thefrenchbrasserie.com.au/,+61 3 9662 1632,"2 Malthouse Ln, Melbourne VIC 3000, Australia",Melbourne,Victoria,AU,3000,-37.8154573,144.9715812,4.4,482,323,97,21,22,19
Burgerlove South Melbourne,Restaurant,http://www.burgerlove.co/,+61 3 9939 6794,"2 George St, South Melbourne VIC 3205, Australia",South Melbourne,Victoria,AU,3205,-37.8305556,144.9519444,4.4,456,304,82,25,31,14
Atlas Dining,Restaurant,http://www.atlasdining.com.au/,+61 3 9826 2621,"133 Commercial Rd, South Yarra VIC 3141, Australia",South Yarra,Victoria,AU,3141,-37.84629,144.990957,4.4,423,327,35,39,16,6
Red Cliff Authentic Chinese Restaurant,Restaurant,,+61 3 9602 1886,"Ground Floor, 256 Queen St, Melbourne VIC 3000, Australia",Melbourne,Victoria,AU,3000,-37.8125912,144.9597801,4.4,422,300,51,38,28,5
D’Penyetz & D’Cendol Carlton (HALAL),Restaurant,https://www.dpenyetz.com.au/,+61 3 9639 8777,"112-114 Lygon St, Carlton VIC 3053, Australia",Carlton,Victoria,AU,3053,-37.804426,144.966564,4.4,419,283,71,24,31,10
Hansang,Restaurant,http://www.hansang.com.au/,+61 3 9995 0867,"347/349 King St, West Melbourne VIC 3003, Australia",West Melbourne,Victoria,AU,3003,-37.812149,144.953494,4.4,416,253,112,17,25,9
Makan,Restaurant,http://makaninmelbourne.com.au/,+61 3 9642 3109,"360 Collins St, Melbourne VIC 3000, Australia",Melbourne,Victoria,AU,3000,-37.8164313,144.9622636,4.4,410,274,88,16,20,12
Bottega Restaurant,Restaurant,http://www.bottega.com.au/,+61 3 9654 2252,"74 Bourke St, Melbourne VIC 3000, Australia",Melbourne,Victoria,AU,3000,-37.8117287,144.9710292,4.4,394,248,84,12,35,15
Pho Victoria,Restaurant,,+61 3 9972 7283,"372 Victoria St, North Melbourne VIC 3051, Australia",North Melbourne,Victoria,AU,3051,-37.8054518,144.9539362,4.4,389,245,97,13,29,5
Il Caminetto,Restaurant,http://www.ilcaminetto.com.au/,+61 3 9370 6884,"114 Pascoe Vale Rd, Moonee Ponds VIC 3039, Australia",Moonee Ponds,Victoria,AU,3039,-37.7616287,144.9261334,4.4,377,264,64,21,15,13
Twenty & Six Espresso,Cafe,http://www.twentyandsix.com.au/,+61 3 9326 9239,"594 Queensberry St, North Melbourne VIC 3051, Australia",North Melbourne,Victoria,AU,3051,-37.8026775,144.9474653,4.4,361,239,80,16,20,6
A Treat of France (Southbank),Cafe,http://atreatoffrance.com/,+61 3 9043 6855,"269 City Rd, Southbank VIC 3006, Australia",Southbank,Victoria,AU,3006,-37.8270808,144.9590642,4.4,352,234,68,19,23,8
Ombra,Restaurant,/url?q=http://www.ombrabar.com.au/&sa=U&ved=0ahUKEwiB8fzVk876AhUBjIkEHZ6cAVcQ61gIGygQ&usg=AOvVaw0z3Q8MRu-EA_OCPyiyGW1z,+61 3 9639 1927,"76 Bourke St, Melbourne VIC 3000, Australia",Melbourne,Victoria,AU,3000,-37.8117314,144.9709552,4.4,351,229,81,12,19,10
The Cricketers - Neighbourhood Eatery,Bar,https://www.thecricketersport.com.au/,+61 3 9087 5858,"69 Cruikshank St, Port Melbourne VIC 3207, Australia",Port Melbourne,Victoria,AU,3207,-37.8387886,144.9463933,4.4,345,224,78,14,18,11
Shakahari,Restaurant,https://www.shakaharivegetarian.com.au/,+61 3 9347 3848,"201-203 Faraday St, Carlton VIC 3053, Australia",Carlton,Victoria,AU,3053,-37.798995,144.967807,4.4,344,216,91,9,18,10
RuYi Modern Chinese,Restaurant,/url?q=https://www.ruyi.com.au/&sa=U&ved=0ahUKEwia6PPnk876AhUQrYkEHTFcDJQQ61gIHigS&usg=AOvVaw2EU5w9vT0HJ4eFRAq_Njpa,+61 3 9090 7778,"Ground Floor, 16 Liverpool St, Melbourne VIC 3000, Australia",Melbourne,Victoria,AU,3000,-37.8111063,144.9714699,4.4,342,255,23,27,23,14
TEN BBQ & HOTPOT,Restaurant,https://m.facebook.com/tenbbqhotpot,+61 452 655 386,"143 City Rd, Southbank VIC 3006, Australia",Southbank,Victoria,AU,3006,-37.8236294,144.9632512,4.4,339,212,79,19,23,6
Pizze Societe,Restaurant,http://www.pizzesociete.com.au/,+61 3 9646 7775,"2 S Wharf Dr, Docklands VIC 3008, Australia",Docklands,Victoria,AU,3008,-37.8235128,144.9407563,4.4,333,238,50,19,19,7
Hot Poppy cafe,Cafe,https://hotpoppycafe.com.au/,+61 3 9326 9299,"9 Errol St, North Melbourne VIC 3051, Australia",North Melbourne,Victoria,AU,3051,-37.8047964,144.9491014,4.4,326,195,94,12,20,5
Toast Kitchen Cafe,Cafe,http://toast-caffe.edan.io/,+61 3 9329 9322,"13 Errol St, North Melbourne VIC 3051, Australia",North Melbourne,Victoria,AU,3051,-37.8046474,144.9491338,4.4,313,203,65,8,19,18
Hakata Gensuke Yatai Ramen Carlton,Restaurant,https://gensuke.com.au/carlton/,+61 3 9078 4819,"126 Lygon St, Carlton VIC 3053, Australia",Carlton,Victoria,AU,3053,-37.8040994,144.9666287,4.4,313,205,69,13,21,5
Yagiz,Restaurant,http://www.yagiz.com.au/,+61 3 9821 4758,"22 Toorak Rd, South Yarra VIC 3141, Australia",South Yarra,Victoria,AU,3141,-37.8385489,144.9872802,4.4,312,231,36,23,14,8
Gypsy and Pig,Restaurant,https://gypsy-and-pig.webflow.io/,+61 3 9640 0731,"391 Little Lonsdale St, Melbourne VIC 3000, Australia",Melbourne,Victoria,AU,3000,-37.8117895,144.9603231,4.4,302,189,71,14,20,8
Fruits of Passion,Cafe,http://www.fruitsofpassioncafe.com/,+61 3 9376 8588,"188 Bellair St, Kensington VIC 3031, Australia",Kensington,Victoria,AU,3031,-37.7939189,144.930139,4.4,301,201,67,13,12,8
Matzip Korean BBQ Restaurant,Restaurant,https://www.facebook.com/MATZIPKBBQ,+61 3 9041 9770,"179-181 Victoria St, West Melbourne VIC 3003, Australia",West Melbourne,Victoria,AU,3003,-37.8059939,144.9555717,4.4,295,195,56,16,22,6
ARU Restaurant,Restaurant,https://aru.net.au/,+61 3 9939 8113,"268 Little Collins St, Melbourne VIC 3000, Australia",Melbourne,Victoria,AU,3000,-37.8144236,144.9656851,4.4,291,203,48,14,16,10
Balderdash,Cafe,https://m.facebook.com/balderdashcafepm/,+61 3 9077 3813,"295 Bay St, Port Melbourne VIC 3207, Australia",Port Melbourne,Victoria,AU,3207,-37.8369444,144.9436111,4.4,289,182,65,10,24,8
Glenda Pho Cafe,Restaurant,https://glendapho-cafe.com.au/,+61 3 9646 5124,"191 Bay St, Port Melbourne VIC 3207, Australia",Port Melbourne,Victoria,AU,3207,-37.8390215,144.9414333,4.4,285,177,74,4,23,7
Station Street Trading Co.,Cafe,,+61 3 9646 6663,"166 Station St, Port Melbourne VIC 3207, Australia",Port Melbourne,Victoria,AU,3207,-37.8334934,144.9443328,4.4,283,184,63,8,20,8
Vegie Kitchen,Restaurant,,+61 3 9686 9188,"113 Queens Bridge St, Southbank VIC 3006, Australia",Southbank,Victoria,AU,3006,-37.8248699,144.9605566,4.4,258,167,57,12,17,5
Hazel,Restaurant,http://www.hazelrestaurant.com.au/,+61 3 9070 4938,"164 Flinders Ln, Melbourne VIC 3000, Australia",Melbourne,Victoria,AU,3000,-37.8158872,144.9687316,4.4,258,184,33,14,19,8
Sushi Ten,Restaurant,,+61 3 9349 3090,"178 Rathdowne St, Carlton VIC 3053, Australia",Carlton,Victoria,AU,3053,-37.795197,144.971162,4.4,245,184,21,26,8,6
M Yong Tofu,Restaurant,,+61 3 9376 0168,"314 Racecourse Rd, Flemington VIC 3031, Australia",Flemington,Victoria,AU,3031,-37.7880223,144.930238,4.4,243,162,43,14,18,6
Sosta Cucina,Restaurant,http://www.sosta.com.au/,+61 3 9329 2882,"12 Errol St, North Melbourne VIC 3051, Australia",North Melbourne,Victoria,AU,3051,-37.8047811,144.9495167,4.4,236,155,52,13,12,4
Thai City Restaurant,Restaurant,https://thaicityrestaurant.com.au/,+61 3 9663 2028,"124 Lygon St, Carlton VIC 3053, Australia",Carlton,Victoria,AU,3053,-37.804155,144.96665,4.4,229,151,48,9,16,5
Char Siu House,Restaurant,http://www.charsiuhouse.com/,+61 3 9328 2812,"37 Errol St, North Melbourne VIC 3051, Australia",North Melbourne,Victoria,AU,3051,-37.804119,144.949078,4.4,222,146,42,10,19,5
Bacash Restaurant,Restaurant,http://www.bacash.com.au/,+61 3 9866 3566,"175 Domain Rd, South Yarra VIC 3141, Australia",South Yarra,Victoria,AU,3141,-37.8341667,144.9819444,4.4,222,145,49,13,12,3
The Melbourne Supper Club,Restaurant,http://www.melbournesupperclub.com.au/,+61 3 9654 6300,"First Floor, 161 Spring St, Melbourne VIC 3000, Australia",Melbourne,Victoria,AU,3000,-37.8109568,144.9724344,4.4,221,135,59,4,13,10
HAN & LE MIEL,Restaurant,/url?q=http://www.hanlemiel.com/&sa=U&ved=0ahUKEwiH8tS0lc76AhVZjYkEHe_wDP0Q61gIGygQ&usg=AOvVaw2P7K9v8KuR_7ukTAaYqnzA,+61 3 7012 4138,"330 Cardigan St, Carlton VIC 3053, Australia",Carlton,Victoria,AU,3053,-37.7968528,144.9664306,4.4,217,139,47,6,16,9
IL Duca Restaurant,Restaurant,https://www.ilducarestaurant.com.au/,+61 3 9417 4243,"132 Wellington Parade, East Melbourne VIC 3002, Australia",East Melbourne,Victoria,AU,3002,-37.8162867,144.985711,4.4,214,132,48,6,20,8
Dong Phuong Vietnamese Cuisine,Restaurant,,+61 3 9193 0711,"122 Lygon St, Carlton VIC 3053, Australia",Carlton,Victoria,AU,3053,-37.80419,144.966606,4.4,203,143,23,13,22,2
ONE FALL,Cafe,http://www.onefall.com.au/,+61 3 9376 6444,"285 Racecourse Rd, Kensington VIC 3031, Australia",Kensington,Victoria,AU,3031,-37.788564,144.9316043,4.4,184,117,41,3,18,5
Blended Beard,Cafe,http://www.blendedbeard.com.au/,+61 412 629 163,"818 Bourke St, Docklands VIC 3008, Australia",Docklands,Victoria,AU,3008,-37.8195202,144.94419,4.4,174,106,52,4,7,5
Malay Momma,Restaurant,http://www.malaymomma.com.au/,+61 3 7006 0499,"56 Kavanagh St, Southbank VIC 3006, Australia",Southbank,Victoria,AU,3006,-37.8241271,144.9639622,4.4,166,110,35,8,10,3
The Member's Lounge @ Reggio Calabria Club,Restaurant,http://www.reggiocalabriaclub.com.au/,+61 3 9380 6500,"476 Brunswick Rd, Parkville VIC 3052, Australia",Parkville,Victoria,AU,3052,-37.7751458,144.9380559,4.4,157,101,35,3,13,5
The Golden Triangle Restaurant,Restaurant,http://thegoldentriangle.com.au/,+61 3 9820 3633,"Unit 1/123 Park St, South Yarra VIC 3141, Australia",South Yarra,Victoria,AU,3141,-37.8342831,144.982284,4.4,156,102,34,6,11,3
Pimm Thai Cafe,Restaurant,http://www.pimmthaicafe.com.au/,+61 3 9043 3879,"170 Bellair St, Kensington VIC 3031, Australia",Kensington,Victoria,AU,3031,-37.793527,144.929966,4.4,156,104,31,7,9,5
Sassone,Restaurant,http://www.sassone.com.au/,+61 3 9681 8289,"70 Lorimer St, Docklands VIC 3008, Australia",Docklands,Victoria,AU,3008,-37.8246249,144.9461021,4.4,154,103,28,10,9,4
A Treat of France (North Melbourne),Cafe,https://atreatoffrance.com/,+61 3 9326 6620,"37 Flemington Rd, North Melbourne VIC 3051, Australia",North Melbourne,Victoria,AU,3051,-37.8002666,144.9552635,4.4,154,96,42,5,6,5
Ichimaki,Restaurant,,+61 3 9606 0358,"313 Spencer St, Docklands VIC 3008, Australia",Docklands,Victoria,AU,3008,-37.8139094,144.9514927,4.4,145,92,34,5,10,4
Master Ma Kitchen,Restaurant,https://inline.app/booking/-MgENu-KVgh0VBvgUi0x:inline-live-2/-MgENuAOQ-Szknjix6zA,+61 3 9853 5277,"309 Toorak Rd, South Yarra VIC 3141, Australia",South Yarra,Victoria,AU,3141,-37.8395223,144.9975225,4.4,133,95,17,9,8,4
Kim Sing Restaurant,Restaurant,,+61 451 818 328,"310 Flinders Ln, Melbourne VIC 3000, Australia",Melbourne,Victoria,AU,3000,-37.8172905,144.9636965,4.4,129,87,23,5,11,3
Spirit Of Melbourne Cruising Restaurant,Restaurant,http://www.melbcruises.com.au/,+61 3 8610 2600,"Southbank Promenade, Southbank Berth 1, Melbourne VIC 3006, Australia",Melbourne,Victoria,AU,3006,-37.8199496,144.9655336,4.4,128,87,25,10,3,3
Port Melbourne Chippery,Takeout Restaurant,https://portmelbournechippery.com.au/,+61 3 9646 0503,"279 Bay St, Port Melbourne VIC 3207, Australia",Port Melbourne,Victoria,AU,3207,-37.837293,144.943133,4.4,124,79,32,7,5,1
The Workers' Food Room,Restaurant,https://www.workersfoodroom.com.au/,+61 3 9602 3220,"472 Little Lonsdale St, Melbourne VIC 3000, Australia",Melbourne,Victoria,AU,3000,-37.8130354,144.9555453,4.4,123,79,29,3,9,3
Hanoi in North Melbourne,Restaurant,,+61 3 9348 9217,"8 Errol St, North Melbourne VIC 3051, Australia",North Melbourne,Victoria,AU,3051,-37.8049189,144.9494931,4.4,114,71,24,3,13,3
Chin Chin,Restaurant,http://www.chinchinrestaurant.com.au/,+61 3 8663 2000,"125 Flinders Ln, Melbourne VIC 3000, Australia",Melbourne,Victoria,AU,3000,-37.815614,144.970377,4.3,5860,3612,1186,331,470,261
Stalactites Restaurant,Restaurant,http://www.stalactites.com.au/,+61 3 9663 3316,"177/183 Lonsdale St, Melbourne VIC 3000, Australia",Melbourne,Victoria,AU,3000,-37.8110808,144.9670491,4.3,5845,3317,1547,276,549,156
Betty's Burgers,Restaurant,http://www.bettysburgers.com.au/,+61 3 9642 5823,"97 Elizabeth St, Melbourne VIC 3000, Australia",Melbourne,Victoria,AU,3000,-37.8158957,144.9637306,4.3,4608,2519,1301,182,451,155
The Meat & Wine Co Southbank,Restaurant,https://themeatandwineco.com/melbourne-restaurants/southbank/?utm_source=google&utm_medium=organic&utm_campaign=yext&utm_content=booking-southbank,+61 3 9696 5333,"Freshwater Place, 3 Queens Bridge St, Southbank VIC 3006, Australia",Southbank,Victoria,AU,3006,-37.8215461,144.961854,4.3,2825,1689,740,114,201,81
Tiamo,Restaurant,http://www.tiamo.com.au/,+61 3 9347 5759,"303 Lygon St, Carlton VIC 3053, Australia",Carlton,Victoria,AU,3053,-37.79818,144.967079,4.3,2238,1280,633,77,183,65
Carl's Jr. Docklands,Restaurant,https://carlsjr.com.au/,+61 3 9600 0759,"Shop CW, G14/440 Docklands Dr, Docklands VIC 3008, Australia",Docklands,Victoria,AU,3008,-37.8116606,144.9368297,4.3,1812,1210,275,130,127,70
Papa Gino's,Restaurant,http://www.papaginos.com.au/,+61 3 9347 5758,"221 Lygon St, Carlton VIC 3053, Australia",Carlton,Victoria,AU,3053,-37.8002083,144.9667889,4.3,1687,1023,394,64,149,57
Conservatory,Restaurant,https://www.crownmelbourne.com.au/restaurants/premium/conservatory/info-booking?utm_source=google&utm_medium=organic&utm_content=conservatory&utm_campaign=gmb,+61 3 9292 5777,"8, Level 1 Crown Towers, Whiteman St, Southbank VIC 3006, Australia",Southbank,Victoria,AU,3006,-37.8221027,144.9598176,4.3,1658,1027,360,89,119,63
Cookie,Bar,https://www.cookiemelbourne.com.au/,+61 3 9663 7660,"252 Swanston St, Melbourne VIC 3000, Australia",Melbourne,Victoria,AU,3000,-37.8120053,144.965164,4.3,1518,836,440,72,130,40
Miznon,Restaurant,http://www.miznonaustralia.com/,+61 3 9670 2861,"59 Hardware Ln, Melbourne VIC 3000, Australia",Melbourne,Victoria,AU,3000,-37.8134718,144.9610934,4.3,1379,871,286,77,106,39
Maccaroni Trattoria Italiana,Restaurant,http://www.maccaronitrattoria.com/,+61 3 9090 7634,"10-16 Manchester Ln, Melbourne VIC 3000, Australia",Melbourne,Victoria,AU,3000,-37.8160732,144.9659752,4.3,1093,618,278,47,102,48
Spicy Korea,Restaurant,,+61 3 9629 9797,"1/601 Little Collins St, Melbourne VIC 3000, Australia",Melbourne,Victoria,AU,3000,-37.817833,144.954844,4.3,1049,611,297,41,67,33
Waterfront Southgate,Restaurant,http://waterfrontsouthgate.com.au/,+61 3 9686 9766,"Southgate Precinct, 20/3 Southgate Ave, Southbank VIC 3006, Australia",Southbank,Victoria,AU,3006,-37.8202217,144.9656542,4.3,905,576,182,48,64,35
"Wagyu Ya (South Yarra,Victoria )",Restaurant,http://www.wagyuya.com.au/,+61 3 9867 2882,"156 Toorak Rd, South Yarra VIC 3141, Australia",South Yarra,Victoria,AU,3141,-37.8390707,144.9913596,4.3,896,574,162,73,60,27
A25 Pizzeria,Restaurant,https://a25.com.au/,+61 3 9826 2233,"720 Chapel St, South Yarra VIC 3141, Australia",South Yarra,Victoria,AU,3141,-37.8365604,144.9964155,4.3,858,524,210,54,48,22
Steakhouse Grill 66,Restaurant,https://www.steakhouse66.com.au/,+61 3 9640 0808,"66 Newquay Promenade, Docklands VIC 3008, Australia",Docklands,Victoria,AU,3008,-37.81494,144.940797,4.3,857,533,158,64,84,18
Chef Lagenda Malaysian Kitchen,Restaurant,https://www.cheflagenda.com/,,"16 Pin Oak Cres, Flemington VIC 3031, Australia",Flemington,Victoria,AU,3031,-37.7877183,144.929595,4.3,805,465,219,31,67,23
Gingerboy,Restaurant,http://www.gingerboy.com.au/,+61 3 9662 4200,"27-29 Crossley St, Melbourne VIC 3000, Australia",Melbourne,Victoria,AU,3000,-37.8112056,144.9709778,4.3,731,440,159,35,55,42
Squires Loft Docklands,Restaurant,http://www.squiresloftdocklands.com.au/,+61 3 9670 9968,"818 Bourke St, Docklands VIC 3008, Australia",Docklands,Victoria,AU,3008,-37.8188288,144.9440938,4.3,726,412,183,38,72,21
The Meat & Wine Co South Yarra,Restaurant,https://themeatandwineco.com/melbourne-restaurants/south-yarra/?utm_source=google&utm_medium=organic&utm_campaign=yext&utm_content=booking-south-yarra,+61 3 9190 1588,"The Como Centre Shop 4 Corner Toorak Road &, Chapel St, South Yarra VIC 3141, Australia",South Yarra,Victoria,AU,3141,-37.8394928,144.9964165,4.3,703,428,148,37,54,36
Ciao Cielo,Restaurant,http://www.ciaocielo.com.au/,+61 3 9646 7697,"115 Bay St, Port Melbourne VIC 3207, Australia",Port Melbourne,Victoria,AU,3207,-37.8403371,144.9403526,4.3,641,398,139,34,41,29
Dohtonbori (Docklands),Restaurant,/url?q=http://dohtonbori.com.au/&sa=U&ved=0ahUKEwiWhq2alc76AhUal4kEHfbRCmEQ61gIGygS&usg=AOvVaw3eWZi3RVcW8mlEJS2reH0O,+61 3 9600 0873,"The District Docklands, Level 1/14B Star Circus, Docklands VIC 3008, Australia",Docklands,Victoria,AU,3008,-37.8122856,144.9368786,4.3,618,434,70,57,32,25
Lukumades,Cafe,http://www.lukumades.co/,+61 3 9326 6584,"83 Peel St, West Melbourne VIC 3003, Australia",West Melbourne,Victoria,AU,3003,-37.8062979,144.9556383,4.3,614,402,102,49,38,23
Dinner by Heston Blumenthal,Restaurant,https://www.crownmelbourne.com.au/restaurants/premium/dinner-by-heston/info-booking?utm_source=google&utm_medium=organic&utm_content=dinner-by-heston&utm_campaign=Google%20Places,+61 3 9292 5779,"Level 3, Crown Towers, 8 Whiteman St, Southbank VIC 3006, Australia",Southbank,Victoria,AU,3006,-37.8219623,144.959887,4.3,578,390,81,33,45,29
Noisette Port Melbourne,Cafe,http://noisette.com.au/port-melbourne/,+61 3 9646 9555,"84 Bay St, Port Melbourne VIC 3207, Australia",Port Melbourne,Victoria,AU,3207,-37.841617,144.9399369,4.3,525,311,134,33,32,15
KL Bunga Raya,Restaurant,http://www.klbungaraya.com.au/,+61 3 9329 1762,"34 Errol St, North Melbourne VIC 3051, Australia",North Melbourne,Victoria,AU,3051,-37.8043626,144.9496249,4.3,523,320,129,29,34,11
The Local,Bar,https://www.thelocalportmelbourne.com.au/?utm_source=google&utm_medium=organic&utm_campaign=gmb&utm_term=plcid_17307071603174860014,+61 3 9810 0076,"22-24 Bay St, Port Melbourne VIC 3207, Australia",Port Melbourne,Victoria,AU,3207,-37.842748,144.938832,4.3,513,267,167,8,57,14
At ease - easy Thai,Restaurant,http://www.ateasethai.com.au/,+61 3 9639 6492,"195 Lonsdale St, Melbourne VIC 3000, Australia",Melbourne,Victoria,AU,3000,-37.8112572,144.9666395,4.3,500,298,122,32,38,10
Matilda 159 Domain,Restaurant,http://www.matilda159.com/,+61 3 9089 6668,"159 Domain Rd, South Yarra VIC 3141, Australia",South Yarra,Victoria,AU,3141,-37.8342101,144.9816379,4.3,497,310,85,23,52,27
Mama Bear Cafe,Cafe,https://www.mamabearcafe.com.au/,+61 3 9376 3637,"528/531 Racecourse Rd, Flemington VIC 3031, Australia",Flemington,Victoria,AU,3031,-37.787274,144.922696,4.3,492,296,115,19,38,24
Grey and Bliss Cafe,Cafe,https://www.greyandbliss.com.au/,+61 3 9646 9989,"197 Bay St, Port Melbourne VIC 3207, Australia",Port Melbourne,Victoria,AU,3207,-37.838979,144.941645,4.3,432,267,98,23,30,14
Pho House,Restaurant,http://www.phohouse.com.au/,+61 3 9372 1426,"318 Racecourse Rd, Flemington VIC 3031, Australia",Flemington,Victoria,AU,3031,-37.7880797,144.930096,4.3,419,252,100,20,34,13
No35,Restaurant,http://no35.com.au/,+61 3 9653 0000,"25 Collins St, Melbourne VIC 3000, Australia",Melbourne,Victoria,AU,3000,-37.8138399,144.9733687,4.3,387,247,74,23,29,14
House of Lulu White,Cafe,http://www.houseofluluwhite.com.au/,+61 3 9997 5000,"4 Yarra St, South Yarra VIC 3141, Australia",South Yarra,Victoria,AU,3141,-37.8381051,144.9929441,4.3,380,247,66,24,30,13
GJ's Grill,Restaurant,,+61 3 9328 8242,"2/243 Franklin St, Melbourne VIC 3000, Australia",Melbourne,Victoria,AU,3000,-37.8095782,144.9567048,4.3,371,218,85,15,37,16
Le Bajo Milkbar,Cafe,https://lebajo.com.au/,+61 402 189 088,"8-14 Howard St, North Melbourne VIC 3051, Australia",North Melbourne,Victoria,AU,3051,-37.805084,144.9540363,4.3,352,215,66,14,36,21
Hawker Boys,Restaurant,http://hawkerboys.com.au/,+61 3 8590 4955,"85 Hardware Ln, Melbourne VIC 3000, Australia",Melbourne,Victoria,AU,3000,-37.8129421,144.9608214,4.3,351,191,98,15,39,8
Le Taj Restaurant & Lounge,Restaurant,http://letaj.com.au/,+61 3 9329 8402,"70-74 Rosslyn St, West Melbourne VIC 3003, Australia",West Melbourne,Victoria,AU,3003,-37.807758,144.952035,4.3,316,203,59,23,20,11
Berbeo Bros (Colombian street food),Restaurant,http://berbeobros.com/,+61 413 595 851,"602 City Rd, South Melbourne VIC 3205, Australia",South Melbourne,Victoria,AU,3205,-37.83371,144.949689,4.3,316,236,24,32,10,14
MMS Mirchi Madras Streat,Restaurant,https://mmsdockland.lifeintouch.net/,+61 401 555 480,"11/2 Waterview Walk, Docklands VIC 3008, Australia",Docklands,Victoria,AU,3008,-37.8199541,144.9483075,4.3,297,194,46,26,22,9
Beast CBD,Restaurant,https://cbdbeastmelbourne.com/,+61 410 428 075,"231 Swanston St, Melbourne VIC 3000, Australia",Melbourne,Victoria,AU,3000,-37.812476,144.964906,4.3,293,180,58,12,22,21
Shinbashi Yakiniku,Restaurant,http://www.shinbashimelb.com/,+61 3 9347 3528,"294 Lygon St, Carlton VIC 3053, Australia",Carlton,Victoria,AU,3053,-37.800042,144.967327,4.3,284,178,59,16,23,8
Gozleme Kebab Docklands,Restaurant,,+61 424 041 179,"Observation Dr, Docklands VIC 3008, Australia",Docklands,Victoria,AU,3008,-37.8123123,144.9371883,4.3,251,159,47,12,26,7
Fuji Teppanyaki,Restaurant,http://www.fujiteppanyaki.com.au/,+61 3 9370 2188,"545-547 Mt Alexander Rd, Moonee Ponds VIC 3039, Australia",Moonee Ponds,Victoria,AU,3039,-37.7695425,144.925564,4.3,247,145,61,12,20,9
Kensington Fish & Chips,Restaurant,http://kensington-chips.edan.io/,+61 3 9376 0370,"503 Macaulay Rd, Kensington VIC 3031, Australia",Kensington,Victoria,AU,3031,-37.7944836,144.9293598,4.3,218,138,41,12,14,13
Saigon Pho,Restaurant,/url?q=https://www.saigonpho.com.au/&sa=U&ved=0ahUKEwjh_YW5lc76AhVdmIkEHcatDDYQ61gIGygQ&usg=AOvVaw0Eg2LCl5y1fCPWk-nYcUxe,+61 3 9654 9653,"106 Lygon St, Carlton VIC 3053, Australia",Carlton,Victoria,AU,3053,-37.804564,144.966539,4.3,217,125,59,12,14,7
Cafe Gaia.,Cafe,,+61 3 9866 7522,"Unit 3/4 Avoca St, South Yarra VIC 3141, Australia",South Yarra,Victoria,AU,3141,-37.838274,144.989326,4.3,212,132,48,15,14,3
Crisp Pizza,Restaurant,http://crisppizza.com.au/,+61 3 9376 6611,"279 Racecourse Rd, Kensington VIC 3031, Australia",Kensington,Victoria,AU,3031,-37.788667,144.9317401,4.3,188,135,17,18,10,8
ccwok,Restaurant,/url?q=http://www.ccwok.com.au/&sa=U&ved=0ahUKEwjpuq2VlM76AhVUrIkEHRNYBQUQ61gIGygQ&usg=AOvVaw0GSE6VKCLSVBx8js5O30me,+61 468 783 168,"464 Victoria St, North Melbourne VIC 3051, Australia",North Melbourne,Victoria,AU,3051,-37.805067,144.950515,4.3,186,127,25,10,16,8
Salt Seafood & Burger Bar,Restaurant,https://saltseafoodnorthmelbourne.com.au/,+61 3 9328 2829,"11 Errol St, North Melbourne VIC 3051, Australia",North Melbourne,Victoria,AU,3051,-37.804702,144.949032,4.3,174,110,35,15,8,6
La Lucciola Bistro,Restaurant,,+61 3 9827 2146,"Unit 4/478 Chapel St, South Yarra VIC 3141, Australia",South Yarra,Victoria,AU,3141,-37.8432465,144.9950482,4.3,169,103,35,7,16,8
Hatch'd Charcoal Chicken,Restaurant,,+61 1300 428 243,"497 Macaulay Rd, Kensington VIC 3031, Australia",Kensington,Victoria,AU,3031,-37.7944805,144.9295213,4.3,151,94,29,10,14,4
EKEKO,Restaurant,https://ekeko.com.au/,+61 432 826 195,"74 Toorak Rd, South Yarra VIC 3141, Australia",South Yarra,Victoria,AU,3141,-37.8387263,144.9889863,4.3,147,102,18,13,9,5
GARAM MASALA Indian Cuisine,Restaurant,,+61 420 213 867,"470 Spencer St, West Melbourne VIC 3003, Australia",West Melbourne,Victoria,AU,3003,-37.8093257,144.9497278,4.3,139,109,5,19,5,1
My Sista Says,Cafe,https://facebook.com/mysistersays/,,"118/120 Bridge St, Port Melbourne VIC 3207, Australia",Port Melbourne,Victoria,AU,3207,-37.8364795,144.9435121,4.3,136,88,24,6,13,5
Curry Cafe Canteen,Restaurant,http://curry.cafe/,+61 498 003 970,"332 Racecourse Rd, Flemington VIC 3031, Australia",Flemington,Victoria,AU,3031,-37.7879759,144.9296964,4.3,127,89,16,14,6,2
Bar Bombay,Restaurant,/url?q=https://bombayyachtclub.com.au/menu&sa=U&ved=0ahUKEwiZxv_ik876AhWsrYkEHbsaCcEQ61gIGigQ&usg=AOvVaw1fHNX0W86DIuIrRnevMokd,+61 3 9654 6526,"88 Flinders Ln, Melbourne VIC 3000, Australia",Melbourne,Victoria,AU,3000,-37.8151175,144.9712823,4.3,126,78,20,6,16,6
Elma,Restaurant,http://www.elmamelbourne.com.au/,+61 401 564 788,"300 Plummer St, Port Melbourne VIC 3207, Australia",Port Melbourne,Victoria,AU,3207,-37.8339532,144.9198224,4.3,118,84,15,14,2,3
Foxes Den - Port Melbourne,Restaurant,http://www.foxesden.com.au/,+61 3 9646 4353,"99 Bay St, Port Melbourne VIC 3207, Australia",Port Melbourne,Victoria,AU,3207,-37.8409705,144.9399096,4.3,115,65,32,3,5,10
Hanoi Square,Restaurant,https://hanoisquare-melbourne.business.site/,+61 3 9623 3304,"Shop 4/60 Siddeley St, Docklands VIC 3008, Australia",Docklands,Victoria,AU,3008,-37.8229509,144.9519634,4.3,108,88,3,17,0,0
Gradi at Crown,Restaurant,https://www.crownmelbourne.com.au/restaurants/casual/gradi/info-booking,+61 3 9292 5777,"8 Whiteman St, Southbank VIC 3006, Australia",Southbank,Victoria,AU,3006,-37.8227725,144.9583346,4.2,2531,1400,602,164,246,119
Fonda Mexican,Restaurant,https://www.fondamexican.com.au/?utm_source=GOOGLE,+61 3 8686 7300,"31 Flinders Ln, Melbourne VIC 3000, Australia",Melbourne,Victoria,AU,3000,-37.814891,144.9732909,4.2,1665,877,496,86,135,71
Shanghai Street,Restaurant,,+61 3 9662 3226,"146/148 Little Bourke St, Melbourne VIC 3000, Australia",Melbourne,Victoria,AU,3000,-37.8115563,144.9683296,4.2,1474,772,426,94,135,47
The Hof Downtown,Restaurant,http://www.thehof.com/,+61 3 9670 7389,"737 Bourke St, Docklands VIC 3008, Australia",Docklands,Victoria,AU,3008,-37.8190289,144.9491776,4.2,1413,719,457,37,145,55
Sushi Hotaru,Restaurant,,+61 3 9663 7538,"118/200 Midcity Arcade, Melbourne VIC 3000, Australia",Melbourne,Victoria,AU,3000,-37.812693,144.9673306,4.2,1404,753,398,82,125,46
Abacus Bar & Kitchen,Restaurant,http://abacusbar.com.au/,+61 3 9824 1026,"383 Chapel St, South Yarra VIC 3141, Australia",South Yarra,Victoria,AU,3141,-37.845675,144.9941417,4.2,1338,746,319,92,121,60
Nelayan Restaurant,Restaurant,,+61 3 9663 5886,"265 Swanston St, Melbourne VIC 3000, Australia",Melbourne,Victoria,AU,3000,-37.8119798,144.96469,4.2,1067,548,290,55,144,30
The Sandbar,Cafe,https://sandbarbeachcafe.au/,+61 3 9645 0250,"175B Beaconsfield Parade, Middle Park VIC 3206, Australia",Middle Park,Victoria,AU,3206,-37.8509531,144.9546212,4.2,1025,536,298,46,99,46
La Camera Southgate,Restaurant,http://www.lacamerasouthgate.com/,+61 3 9699 3600,"3 Southgate Ave, Southbank VIC 3006, Australia",Southbank,Victoria,AU,3006,-37.8200963,144.966676,4.2,884,457,267,44,84,32
Cafe Corretto,Restaurant,https://cafe-corretto.business.site/,+61 3 9347 2300,"227 Lygon St, Carlton VIC 3053, Australia",Carlton,Victoria,AU,3053,-37.7999998,144.9668825,4.2,821,453,198,56,81,33
The George on Collins,Restaurant,https://www.thegeorgeoncollins.com.au/,+61 3 9663 7226,"162-168 Collins St, Melbourne VIC 3000, Australia",Melbourne,Victoria,AU,3000,-37.8145697,144.9679363,4.2,799,458,179,44,76,42
Spaghetti Tree,Restaurant,https://www.spaghettitree.com.au/,+61 3 9650 3174,"59 Bourke St, Melbourne VIC 3000, Australia",Melbourne,Victoria,AU,3000,-37.8119715,144.9715104,4.2,750,394,221,42,67,26
My Goodness,Restaurant,https://mygoodness.com.au/,+61 3 9696 3962,"186 City Rd, Southbank VIC 3000, Australia",Southbank,Victoria,AU,3000,-37.8241584,144.961876,4.2,737,461,133,68,51,24
The Wanderer Thai Kitchen and Bar,Restaurant,http://www.thewanderermelbourne.net/,+61 405 698 111,"Shop 4/399 Lonsdale St, Melbourne VIC 3000, Australia",Melbourne,Victoria,AU,3000,-37.8129024,144.9606894,4.2,732,389,199,47,65,32
Thai Town,Restaurant,http://www.thaitownqv.com.au/,+61 3 9654 1555,"Shop 25 Artemis Ln QV Shopping Centre, Melbourne VIC 3000, Australia",Melbourne,Victoria,AU,3000,-37.8106059,144.9662249,4.2,725,391,191,49,62,32
Wagaya Melbourne,Restaurant,https://oymaps.com/wagaya-melbourne-176704-web,+61 3 9663 7756,"201/200 Bourke St, Melbourne VIC 3000, Australia",Melbourne,Victoria,AU,3000,-37.812449,144.9673463,4.2,723,384,185,36,91,27
Pacific Seafood BBQ House South Yarra,Restaurant,https://m.facebook.com/Pacifichouse.southyarra/,+61 3 9826 3838,"Shop 1/210 Toorak Rd, South Yarra VIC 3141, Australia",South Yarra,Victoria,AU,3141,-37.8394576,144.9941121,4.2,710,367,220,35,62,26
Soda Rock Diner,Restaurant,http://www.sodarock.com.au/,+61 3 9827 3500,"10/500 Chapel St, South Yarra VIC 3141, Australia",South Yarra,Victoria,AU,3141,-37.8420872,144.9952657,4.2,671,410,139,42,42,38
Grill'd Carlton,Restaurant,https://www.grilld.com.au/restaurants/victoria/melbourne/carlton#GoogleLocal,+61 3 9347 1666,"350 Lygon St, Carlton VIC 3053, Australia",Carlton,Victoria,AU,3053,-37.7988314,144.9674686,4.2,670,341,222,35,55,17
Mercadante Woodfired Pizzeria,Restaurant,/url?q=http://www.mercadante.com.au/&sa=U&ved=0ahUKEwjS1vKvlc76AhV0pokEHboGBUkQ61gIGygQ&usg=AOvVaw0gxCPJm4jDk8DvKxGlP5KJ,+61 3 9347 6974,"123 Lygon St, Carlton VIC 3053, Australia",Carlton,Victoria,AU,3053,-37.8040987,144.966046,4.2,633,358,151,35,55,34
La Tortilleria,Restaurant,http://latortilleria.com.au/,+61 1300 556 084,"72 Stubbs St, Kensington VIC 3031, Australia",Kensington,Victoria,AU,3031,-37.7914358,144.9354142,4.2,624,400,83,60,46,35
Hunky Dory Fish & Chips South Yarra,Restaurant,http://www.hunkydory.com.au/,+61 3 9826 6875,"670 Chapel St, South Yarra VIC 3141, Australia",South Yarra,Victoria,AU,3141,-37.8373603,144.9962102,4.2,610,350,143,37,58,22
Darling Cafe,Cafe,https://darlinggroup.com.au/venues/darlingcafe/,+61 3 9820 9222,"2 Darling St, South Yarra VIC 3141, Australia",South Yarra,Victoria,AU,3141,-37.8385315,144.9916207,4.2,608,341,151,36,50,30
Wonky Trolley,Restaurant,https://wonkytrolley.com.au/,+61 3 9328 1781,"47 Errol St, North Melbourne VIC 3051, Australia",North Melbourne,Victoria,AU,3051,-37.803938,144.949255,4.2,582,337,129,36,58,22
Nando's,Restaurant,https://www.nandos.com.au/?utm_source=google&utm_medium=organic&utm_campaign=gmb-website&utm_term=NANDOSBOURKESTREET,+61 1300 626 367,"79-85 Bourke St, Melbourne VIC 3001, Australia",Melbourne,Victoria,AU,3001,-37.8121523,144.9710566,4.2,571,308,150,30,58,25
Seasons Provedore,Restaurant,http://www.seasonsprovedore.com.au/,+61 3 9347 3585,"199 Lygon St, Carlton VIC 3053, Australia",Carlton,Victoria,AU,3053,-37.800967,144.966654,4.2,553,337,101,50,32,33
The Castle Hotel,Restaurant,http://www.thecastlehotel.com.au/,+61 3 9348 9692,"56 Courtney St, North Melbourne VIC 3051, Australia",North Melbourne,Victoria,AU,3051,-37.8008991,144.9530362,4.2,549,288,161,21,61,18
Good Heavens Rooftop Bar,Bar,https://www.goodheavens.com.au/,+61 3 9453 2882,"level 2/79 Bourke St, Melbourne VIC 3000, Australia",Melbourne,Victoria,AU,3000,-37.8120759,144.9711426,4.2,545,258,198,27,42,20
Saké Restaurant & Bar,Restaurant,https://www.sakerestaurant.com.au/hamer-hall/,+61 3 9119 4799,"100 St Kilda Rd, Southbank VIC 3004, Australia",Southbank,Victoria,AU,3004,-37.8199177,144.9677708,4.2,533,295,125,29,56,28
Two Wrongs,Restaurant,http://www.twowrongs.com.au/,+61 3 7034 7067,"637 Chapel St, South Yarra VIC 3141, Australia",South Yarra,Victoria,AU,3141,-37.8378613,144.9957094,4.2,501,303,87,46,48,17
Hallah,Restaurant,/url?q=http://www.koreanbbqmelbourne.com.au/&sa=U&ved=0ahUKEwjog5ynlc76AhXUrokEHaWqBJMQ61gIGygQ&usg=AOvVaw0_AxZkT0mDBHUogb5Ukqj_,+61 3 9329 4293,"268 Victoria St, North Melbourne VIC 3051, Australia",North Melbourne,Victoria,AU,3051,-37.8058052,144.9574369,4.2,457,267,98,45,32,15
Nine Elephants Thai Restaurant,Restaurant,https://www.facebook.com/nineelephants,+61 3 9670 9994,"8/737 Bourke St, Docklands VIC 3008, Australia",Docklands,Victoria,AU,3008,-37.8190634,144.9492039,4.2,455,209,162,18,49,17
New York Minute,Restaurant,https://newyorkminute.com.au/,+61 3 9372 8679,"491 Mt Alexander Rd, Moonee Ponds VIC 3039, Australia",Moonee Ponds,Victoria,AU,3039,-37.7717583,144.9263551,4.2,412,242,94,32,30,14
Tao Dumplings,Restaurant,https://www.taodumplings.com.au/,+61 3 9866 3818,"37 Toorak Rd, South Yarra VIC 3141, Australia",South Yarra,Victoria,AU,3141,-37.8383205,144.9877595,4.2,390,237,81,32,31,9
Ritz Kebab,Restaurant,,,"200 Spencer St, Melbourne VIC 3000, Australia",Melbourne,Victoria,AU,3000,-37.8161753,144.9532284,4.2,362,241,49,39,17,16
Burgertory (Southbank),Restaurant,http://www.burgertory.com.au/,+61 3 4050 7770,"250 City Rd, Southbank VIC 3006, Australia",Southbank,Victoria,AU,3006,-37.8257135,144.9596312,4.2,293,213,20,37,13,10
Robata Melbourne,Restaurant,https://robata.com.au/,+61 3 9989 3575,"2 Exhibition St, Melbourne VIC 3000, Australia",Melbourne,Victoria,AU,3000,-37.8156392,144.9725349,4.2,275,174,36,18,28,19
DOC Pizza & Mozzarella Bar - Southbank,Restaurant,https://docgroup.net/,+61 3 9686 2780,"6 Riverside Quay, Southbank VIC 3006, Australia",Southbank,Victoria,AU,3006,-37.8208482,144.963894,4.2,272,158,69,22,16,7
Toodouri,Restaurant,http://www.toodouri.com.au/,+61 439 821 556,"260 Victoria St, North Melbourne VIC 3051, Australia",North Melbourne,Victoria,AU,3051,-37.8058296,144.9577266,4.2,271,145,74,14,24,14
Kebab & Gozleme Café,Restaurant,http://kebabandgozlemecafe.com.au/DGHI,+61 3 9670 6604,"3/22 Waterview Walk, Docklands VIC 3008, Australia",Docklands,Victoria,AU,3008,-37.8190661,144.9474134,4.2,264,144,75,24,17,4
Mejico,Restaurant,https://mejico.com.au/melbourne,+61 3 9671 4376,"1 Pink Alley, Melbourne VIC 3000, Australia",Melbourne,Victoria,AU,3000,-37.8137587,144.9704207,4.2,258,171,27,21,23,16
Hem 27,Restaurant,http://hem27.com.au/,+61 3 9376 2961,"shop 27/320- 380 Epsom Rd, Flemington VIC 3031, Australia",Flemington,Victoria,AU,3031,-37.7818993,144.9157498,4.2,250,152,53,16,16,13
Moshi Moshi,Restaurant,http://www.moshimoshi.net.au/,+61 3 9646 7228,"396 Bay St, Port Melbourne VIC 3207, Australia",Port Melbourne,Victoria,AU,3207,-37.8353635,144.9456758,4.2,231,135,55,13,15,13
Lanna Thai,Restaurant,https://www.facebook.com/lannathainorthmelbourne/,+61 3 9329 2960,"65 Flemington Rd, North Melbourne VIC 3051, Australia",North Melbourne,Victoria,AU,3051,-37.7992979,144.9541044,4.2,228,119,66,10,23,10
Merchant Society,Restaurant,http://merchant-society.com.au/,+61 3 9078 5844,"71 Merchant St, Docklands VIC 3008, Australia",Docklands,Victoria,AU,3008,-37.820375,144.9437917,4.2,224,103,86,7,23,5
Man Mo WTC ??,Restaurant,http://www.manmowtc.com.au/,+61 3 9077 9598,"WTC Wharf Precinct, 18/38 Siddeley St, VIC 3008, Australia",Docklands,Victoria,AU,3008,-37.8230794,144.9539024,4.2,223,137,47,18,11,10
Tippy-Tay,Restaurant,https://tippytay.com.au/,+61 3 8396 5777,"101 Flinders Ln, Melbourne VIC 3000, Australia",Melbourne,Victoria,AU,3000,-37.8154089,144.971052,4.2,206,128,34,18,13,13
Hakoya Izakaya,Restaurant,http://hakoyaizakaya.com/,+61 455 481 624,"364 Lonsdale St, Melbourne VIC 3000, Australia",Melbourne,Victoria,AU,3000,-37.8122428,144.9615207,4.2,198,105,56,12,13,12
Manchi,Restaurant,https://bopple.app/manchicarlton,+61 3 8597 8823,"173 Lygon St, Carlton VIC 3053, Australia",Carlton,Victoria,AU,3053,-37.801614,144.9665123,4.2,197,120,37,19,15,6
Dragon Hot Pot,Restaurant,https://www.dragonhotpot.com.au/,,"111 Grattan St, Carlton VIC 3053, Australia",Carlton,Victoria,AU,3053,-37.800804,144.9657798,4.2,175,96,47,14,14,4
The Pink Rabbit by Tho Tho,Restaurant,http://www.theoinkrabbit.com.au/,+61 432 977 744,"1 Star Circus, Docklands VIC 3008, Australia",Docklands,Victoria,AU,3008,-37.812207,144.9382787,4.2,160,114,15,25,4,2
ThaiLicious Restaurant,Restaurant,https://www.thailiciousrestaurant.com.au/,+61 3 9639 1888,"355 Exhibition St, Melbourne VIC 3000, Australia",Melbourne,Victoria,AU,3000,-37.8075282,144.9682011,4.2,151,85,39,11,11,5
Acai Brothers,Cafe,http://www.acaibrothers.com.au/,+61 426 592 405,"299 Bay St, Port Melbourne VIC 3207, Australia",Port Melbourne,Victoria,AU,3207,-37.836638,144.9438525,4.2,145,92,21,12,14,6
Thai Thani Docklands,Restaurant,,+61 3 9620 3452,"Shop3/851 Collins St, Docklands VIC 3008, Australia",Docklands,Victoria,AU,3008,-37.8213908,144.9436774,4.2,141,93,21,16,6,5
Pho St,Restaurant,https://m.facebook.com/PhoSt.Melbourne/,+61 3 8528 6087,"251 Bay St, Port Melbourne VIC 3207, Australia",Port Melbourne,Victoria,AU,3207,-37.8378275,144.9427365,4.2,136,86,25,14,9,2
Pioneer Pizza,Restaurant,,+61 3 9326 4238,"360 Abbotsford St, North Melbourne VIC 3051, Australia",North Melbourne,Victoria,AU,3051,-37.7981792,144.9465082,4.2,134,85,20,16,11,2
Billy Barista,Cafe,,,"3/861 Bourke St, Docklands VIC 3008, Australia",Docklands,Victoria,AU,3008,-37.8203757,144.9422615,4.2,130,80,21,12,11,6
Noodle on Errols,Takeout Restaurant,https://www.ubereats.com/en-AU/melbourne/food-delivery/sushi-noodle-town/MIfSae-pT82AX90__x2PwA/,+61 3 9328 1668,"31 Errol St, North Melbourne VIC 3051, Australia",North Melbourne,Victoria,AU,3051,-37.8042548,144.9491277,4.2,130,83,18,15,10,4
Noulboo Chicken N Jokbal,Restaurant,https://noulboo-korean-chicken-bbq.business.site/?utm_source=gmb&utm_medium=referral,+61 3 9670 8090,"768 Bourke St, Docklands VIC 3008, Australia",Docklands,Victoria,AU,3008,-37.8186699,144.9471059,4.2,114,69,20,11,12,2
London K Burgers,Restaurant,http://www.londonkburgers.com.au/,+61 3 9372 3320,"482 Macaulay Rd, Kensington VIC 3031, Australia",Kensington,Victoria,AU,3031,-37.7942676,144.9300219,4.2,109,71,18,14,4,2
Kaikey's Lane,Restaurant,https://www.facebook.com/kaikeyslane/,,"30 Block Pl, Melbourne VIC 3000, Australia",Melbourne,Victoria,AU,3000,-37.815303,144.9644096,4.2,109,64,22,9,9,5
Mr Tucker,Cafe,http://www.mrtucker.com.au/,+61 3 9328 5108,"17 Melrose St, North Melbourne VIC 3051, Australia",North Melbourne,Victoria,AU,3051,-37.7952213,144.9414599,4.2,104,59,23,9,10,3
Roundabout Pizza,Takeout Restaurant,http://www.roundaboutpizza.com.au/,+61 3 9376 6221,"562 Racecourse Rd, Flemington VIC 3031, Australia",Flemington,Victoria,AU,3031,-37.7871729,144.9216683,4.2,103,69,12,10,8,4
Higher Ground,Cafe,https://highergroundmelbourne.com.au/,+61 3 8899 6219,"650 Little Bourke St, Melbourne VIC 3000, Australia",Melbourne,Victoria,AU,3000,-37.8158034,144.9530273,4.1,3663,1936,933,259,367,168
Mamak Melbourne,Restaurant,http://www.mamak.com.au/,+61 3 9670 3137,"366 Lonsdale St, Melbourne VIC 3000, Australia",Melbourne,Victoria,AU,3000,-37.8122826,144.9615784,4.1,1985,847,729,109,237,63
Chilli India,Restaurant,http://chilliindia.com.au/,+61 3 9670 7949,"79 Batmans Hill Dr, Docklands VIC 3008, Australia",Docklands,Victoria,AU,3008,-37.8190053,144.9482287,4.1,1562,753,447,128,186,48
San Antone by Bludso's BBQ,Restaurant,https://www.crownmelbourne.com.au/restaurants/casual/san-antone/info-booking?utm_source=google&utm_medium=organic&utm_content=san_antone_by_bludso's_bbq&utm_campaign=gmb,+61 3 9292 5777,"Level 1 Casino, Crown Melbourne, 8 Whiteman Street, Southbank VIC 3006, Australia",Southbank,Victoria,AU,3006,-37.8240776,144.9575719,4.1,1319,662,363,90,132,72
Chapelli's,Restaurant,,+61 3 9826 9516,"571 Chapel St, South Yarra VIC 3141, Australia",South Yarra,Victoria,AU,3141,-37.8404949,144.9951219,4.1,1181,591,324,95,130,41
Shark Fin Inn,Restaurant,http://www.sharkfin.com.au/,+61 3 9662 2681,"50 Little Bourke St, Melbourne VIC 3000, Australia",Melbourne,Victoria,AU,3000,-37.8106944,144.9709994,4.1,1090,530,318,78,122,42
Pure South Kitchen,Restaurant,http://www.puresouthkitchen.com.au/,+61 3 9699 4600,"GR2 River Level Southgate Precinct, 3 Southgate Ave, Southbank VIC 3006, Australia",Southbank,Victoria,AU,3006,-37.8202814,144.9652412,4.1,1086,548,310,62,103,63
YASSAS THE GREEK WAY - SOUTHBANK,Restaurant,https://www.yassas.com.au/southbank/,+61 3 9134 7751,"4-9, Level M/3 Southgate Ave, Southbank VIC 3006, Australia",Southbank,Victoria,AU,3006,-37.8201217,144.9661924,4.1,1033,519,289,95,93,37
Melba Restaurant,Restaurant,http://www.melbarestaurant.com.au/,+61 1800 641 107,"1 Southgate Ave, Southbank VIC 3006, Australia",Southbank,Victoria,AU,3006,-37.8206644,144.965638,4.1,998,528,228,83,98,61
Tonka,Restaurant,http://www.tonkarestaurant.com.au/,+61 3 9650 3155,"20 Duckboard Pl, Melbourne VIC 3000, Australia",Melbourne,Victoria,AU,3000,-37.8156991,144.9714107,4.1,876,496,180,69,91,40
Hwaro Korean BBQ Restaurant,Restaurant,http://hwaro.com.au/,+61 3 9642 5696,"562 Little Bourke St, Melbourne VIC 3000, Australia",Melbourne,Victoria,AU,3000,-37.8150663,144.9556962,4.1,835,432,229,56,84,34
Ying Thai 2,Restaurant,http://yingthai2.com.au/,+61 3 9639 1697,"110 Lygon St, Carlton VIC 3053, Australia",Carlton,Victoria,AU,3053,-37.8050651,144.9664118,4.1,821,416,243,55,72,35
I Love Dumplings - Flemington,Restaurant,https://ilovedumplings.net.au/,+61 3 9372 5218,"297 Racecourse Rd, Flemington VIC 3031, Australia",Flemington,Victoria,AU,3031,-37.7885678,144.930908,4.1,779,390,223,64,77,25
Crystal Jade Restaurant,Restaurant,http://www.crystaljademelbourne.com.au/,+61 3 9639 2633,"154 Little Bourke St, Melbourne VIC 3000, Australia",Melbourne,Victoria,AU,3000,-37.8115473,144.9679945,4.1,755,347,232,51,95,30
Amigos Hardware Lane,Restaurant,http://www.amigoshardwarelane.com.au/,+61 3 9670 7797,"75-77 Hardware Ln, Melbourne VIC 3000, Australia",Melbourne,Victoria,AU,3000,-37.813143,144.960867,4.1,724,354,197,53,85,35
Hightail,Bar,http://www.hightail.bar/,+61 3 9982 1800,"727 Collins St, Docklands VIC 3008, Australia",Docklands,Victoria,AU,3008,-37.8212003,144.9494521,4.1,628,236,261,18,95,18
Funghi e tartufo,Restaurant,http://funghietartufo.com.au/,+61 3 9670 9939,"60 Hardware Ln, Melbourne VIC 3000, Australia",Melbourne,Victoria,AU,3000,-37.8133452,144.9611632,4.1,627,337,138,57,64,31
Emporio Pizza and Pasta,Restaurant,https://www.crownmelbourne.com.au/restaurants/casual/emporio-pizza-and-pasta?utm_source=google&utm_medium=organic&utm_content=emporio_pizza_and_pasta&utm_campaign=gmb,+61 3 9292 5777,"8 Whiteman St, Southbank VIC 3006, Australia",Southbank,Victoria,AU,3006,-37.8245307,144.9573393,4.1,610,291,177,40,85,17
Pok Pok Docklands,Restaurant,https://www.pokpokdocklands.com.au/,+61 3 9620 4580,"801&803, Bourke St, Docklands VIC 3008, Australia",Docklands,Victoria,AU,3008,-37.819575,144.945466,4.1,577,240,214,20,82,21
Nasi Lemak House,Restaurant,/url?q=http://www.nasilemakhouse.com.au/&sa=U&ved=0ahUKEwjt5L29lc76AhWDjIkEHQP1BvQQ61gIGygQ&usg=AOvVaw2s8CXNYVdGVmp3Jp7lnyIA,+61 3 9348 4900,"115 Grattan St, Carlton VIC 3053, Australia",Carlton,Victoria,AU,3053,-37.8007064,144.9656794,4.1,558,274,160,40,59,25
Red Emperor (Southgate) Chinese Restaurant,Restaurant,http://www.redemperor.com.au/,+61 3 9699 4170,"M10/3 Southgate Ave, Southbank VIC 3006, Australia",Southbank,Victoria,AU,3006,-37.8200814,144.9664159,4.1,535,304,111,46,47,27
TAP831,Restaurant,https://www.tap831.com.au/,+61 3 8592 1220,"831 Bourke St, Docklands VIC 3008, Australia",Docklands,Victoria,AU,3008,-37.8201016,144.9436663,4.1,530,205,222,16,79,8
Kanteen,Cafe,http://www.kanteen.net/,+61 3 9827 0488,"154 Alexandra Ave, South Yarra VIC 3141, Australia",South Yarra,Victoria,AU,3141,-37.8340156,145.0047576,4.1,495,253,128,36,57,21
Nando's Northbank,Restaurant,https://www.nandos.com.au/?utm_source=google&utm_medium=organic&utm_campaign=gmb-website&utm_term=NANDOSNORTHBANK,+61 1300 626 367,"Central Tower, Northbank, 551 Flinders St, Melbourne VIC 3000, Australia",Melbourne,Victoria,AU,3000,-37.820962,144.9564753,4.1,481,247,123,44,45,22
La Porchetta Carlton North,Restaurant,http://www.laporchetta.com.au/,+61 3 9347 8906,"392 Rathdowne St, Carlton North VIC 3054, Australia",Carlton North,Victoria,AU,3054,-37.7882041,144.9722985,4.1,471,240,120,30,68,13
Colourful Yunnan,Restaurant,http://www.colourfulyunnan.com.au/,+61 3 9943 1055,"680-682 Swanston St, Carlton VIC 3053, Australia",Carlton,Victoria,AU,3053,-37.8006019,144.9642486,4.1,457,239,128,42,41,7
The Premises.,Cafe,http://thepremises.com.au/,+61 3 9376 7565,"202 Bellair St, Kensington VIC 3031, Australia",Kensington,Victoria,AU,3031,-37.7943229,144.9302457,4.1,447,228,130,26,41,22
Miyako Japanese Cuisine & Teppanyaki,Restaurant,https://miyakocuisine.com.au/,+61 3 9699 9201,"Southgate Arts & Leisure Precinct, Shop, UR2/3 Southgate Ave, Southbank VIC 3006, Australia",Southbank,Victoria,AU,3006,-37.8201378,144.9665086,4.1,429,231,94,38,40,26
City Kebabs,Restaurant,,+61 3 9191 0791,"3/546 Flinders St, Melbourne VIC 3000, Australia",Melbourne,Victoria,AU,3000,-37.8205272,144.9561929,4.1,420,239,86,40,41,14
BAMBU Asian Eating House,Restaurant,https://eatbambu.com.au/,+61 3 9686 1608,"92/116 Cecil St, South Melbourne VIC 3205, Australia",South Melbourne,Victoria,AU,3205,-37.832112,144.9571168,4.1,403,222,89,34,38,20
Riverside Teppanyaki,Restaurant,https://www.kobejones.com.au/riverside-teppanyaki/393299173/,+61 3 9329 9173,"G16/18/38 Siddeley St, Docklands VIC 3005, Australia",Docklands,Victoria,AU,3005,-37.8229904,144.9540863,4.1,392,206,94,38,36,18
Gangnam Pocha,Restaurant,https://weborder.qonus.com.au:31001/home/order/takeaway?enc=y&action=takeaway&storeCode=R200NFFheG5kNFdubFZjUnFLaUM5QT09&qrfrom=undefined,+61 3 9642 8005,"1/270 King St, Melbourne VIC 3000, Australia",Melbourne,Victoria,AU,3000,-37.8137798,144.9548156,4.1,388,239,65,46,24,14
Di Stasio Citta,Restaurant,http://www.distasio.com.au/,+61 3 9070 1177,"45 Spring St, Melbourne VIC 3004, Australia",Melbourne,Victoria,AU,3004,-37.8142548,144.974186,4.1,387,233,60,49,27,18
Ging Thai,Restaurant,https://www.crownmelbourne.com.au/restaurants/premium/ging-thai/info-booking?utm_source=google&utm_medium=organic&utm_content=ging_thai&utm_campaign=gmb,+61 3 9292 5777,"Crown Riverwalk, Crown Melbourne, 8 Whiteman St, Southbank VIC 3006, Australia",Southbank,Victoria,AU,3006,-37.8223299,144.9590778,4.1,365,209,78,30,30,18
Master Roll Vietnam (South Yarra) - Best Banh Mi Best Rice Paper Rolls,Restaurant,http://masterroll.com.au/,+61 3 9078 8754,"169 Toorak Rd, South Yarra VIC 3141, Australia",South Yarra,Victoria,AU,3141,-37.8389918,144.9926075,4.1,362,218,57,46,22,19
Bay 101,Restaurant,https://www.bay101.com.au/,+61 3 9646 6088,"7/101 Bay St, Port Melbourne VIC 3207, Australia",Port Melbourne,Victoria,AU,3207,-37.8410152,144.93986,4.1,356,199,77,28,42,10
Parrot House Restaurant,Restaurant,,+61 3 9372 6688,"293-295 Racecourse Rd, Flemington VIC 3031, Australia",Flemington,Victoria,AU,3031,-37.7885133,144.9312343,4.1,351,169,103,28,41,10
Kickin'Inn Port Melbourne,Restaurant,http://www.kickininn.com.au/,+61 3 8001 8188,"309 Bay St, Port Melbourne VIC 3207, Australia",Port Melbourne,Victoria,AU,3207,-37.8364898,144.9439442,4.1,333,203,45,40,25,20
Phat Milk,Cafe,http://phatmilkcafe.com.au/,+61 3 9372 1134,"208 Mt Alexander Rd, Travancore VIC 3032, Australia",Travancore,Victoria,AU,3032,-37.780876,144.932568,4.1,311,182,52,33,29,15
La Porchetta South Yarra,Restaurant,http://www.laporchetta.com.au/,+61 3 9866 4938,"93 Toorak Rd, South Yarra VIC 3141, Australia",South Yarra,Victoria,AU,3141,-37.8385453,144.989567,4.1,291,148,78,23,30,12
Silks,Restaurant,https://www.crownmelbourne.com.au/restaurants/premium/silks/info-booking?utm_source=google&utm_medium=organic&utm_content=silks&utm_campaign=gmb,+61 3 9292 5777,"Level 1 Crown Towers, Crown Melbourne, 8 Whiteman St, Southbank VIC 3006, Australia",Southbank,Victoria,AU,3006,-37.8218012,144.9601499,4.1,260,153,35,23,32,17
Mr. Hive Kitchen & Bar,Restaurant,https://www.crownmelbourne.com.au/restaurants/premium/mr-hive/info-booking?utm_source=google&utm_medium=organic&utm_content=mr._hive_kitchen_&_bar&utm_campaign=gmb,+61 3 9292 5777,"Level 1 Crown Metropol, Crown Melbourne, 8 Whiteman St, Southbank VIC 3006, Australia",Southbank,Victoria,AU,3006,-37.8255556,144.9575,4.1,252,133,58,21,27,13
1932 Cafe & Restaurant,Cafe,http://manchesterunitybuilding.com.au/1932-cafe-restaurant/,+61 3 9663 5494,"220 Collins St, Melbourne VIC 3000, Australia",Melbourne,Victoria,AU,3000,-37.815345,144.9663045,4.1,232,117,68,12,23,12
Hwatu - Korean Street Style Eatery,Restaurant,https://www.mryum.com/hwatu,+61 3 8597 8823,"1/F, 173 Lygon St, Carlton VIC 3053, Australia",Carlton,Victoria,AU,3053,-37.801606,144.966477,4.1,229,127,51,23,19,9
Rock Sugar Melbourne,Restaurant,http://www.rocksugar.com.au/,+61 3 9826 2888,"477 Malvern Rd, South Yarra VIC 3141, Australia",South Yarra,Victoria,AU,3141,-37.8478211,145.0023923,4.1,223,129,33,17,24,20
Me Dee Thai Restaurant,Restaurant,,+61 3 9650 1260,"Shop 2/108 Bourke St, Melbourne VIC 3000, Australia",Melbourne,Victoria,AU,3000,-37.8117621,144.9697173,4.1,214,110,58,17,23,6
Nefes,Restaurant,,+61 3 9639 4870,"174-178 Lygon St, Carlton VIC 3053, Australia",Carlton,Victoria,AU,3053,-37.8030575,144.9668025,4.1,213,151,12,34,5,11
The Kathmandu Cottage,Restaurant,,+61 3 9329 3960,"349 Victoria St, West Melbourne VIC 3003, Australia",West Melbourne,Victoria,AU,3003,-37.805392,144.9498101,4.1,203,121,35,21,16,10
East Imperial,Restaurant,http://www.eastimperial.com.au/,+61 3 9347 3322,"323 Rathdowne St, Carlton VIC 3053, Australia",Carlton,Victoria,AU,3053,-37.7991068,144.9700406,4.1,198,104,47,16,23,8
Mad Duck Cafe,Cafe,,+61 3 9681 8882,"Yarra's Edge, 92 River Esplanade, Docklands VIC 3008, Australia",Docklands,Victoria,AU,3008,-37.8244423,144.9444334,4.1,196,104,49,11,18,14
Oskar Pizza,Restaurant,https://oskar-pizza.com.au/,+61 3 9329 1585,"7 Errol St, North Melbourne VIC 3051, Australia",North Melbourne,Victoria,AU,3051,-37.804807,144.949046,4.1,156,87,33,17,14,5
Parkside,Cafe,http://www.parksideinparkville.com.au/?utm_source=google&utm_medium=organic&utm_campaign=Google%20My%20Business%20Page,+61 3 9347 1222,"369 Royal Parade, Parkville VIC 3052, Australia",Parkville,Victoria,AU,3052,-37.7849727,144.9586345,4.1,154,81,40,13,18,2
Bella Cosi,Cafe,https://www.bellacosi.net.au/,+61 3 9676 2775,"71 Beach St, Port Melbourne VIC 3207, Australia",Port Melbourne,Victoria,AU,3207,-37.841789,144.936162,4.1,135,92,14,21,4,4
Zambrero Parkville,Restaurant,https://www.zambrero.com.au/locations/parkville,+61 456 741 834,"Eastern Resource Centre, University of Melbourne, Parkville VIC 3052, Australia",Parkville,Victoria,AU,3052,-37.7994376,144.9626088,4.1,103,51,27,4,14,7
Secret Kitchen Chinatown,Restaurant,http://secret-kitchen.com.au/,+61 3 9988 7778,"222 Exhibition St, Melbourne VIC 3000, Australia",Melbourne,Victoria,AU,3000,-37.8109099,144.9703044,4,1834,822,556,186,196,74
Red Pepper,Restaurant,http://www.redpepperindianrestaurant.com/,+61 3 9654 5714,"14-16 Bourke St, Melbourne VIC 3000, Australia",Melbourne,Victoria,AU,3000,-37.811314,144.972481,4,1803,963,414,196,156,74
Om Vegetarian,Restaurant,http://omvegetarian.com/,+61 3 9639 9412,"Shop 4-5/227 Collins St, Melbourne VIC 3000, Australia",Melbourne,Victoria,AU,3000,-37.8158276,144.9663033,4,1509,708,383,128,207,83
Pepper Lunch,Restaurant,http://www.pepperlunch.com.au/,+61 3 9078 6388,"311 Elizabeth St, Melbourne VIC 3000, Australia",Melbourne,Victoria,AU,3000,-37.8113889,144.9616667,4,1301,603,396,106,146,50
Dragon Hot Pot Russell St,Restaurant,http://dragonhotpot.com.au/,+61 3 9662 1833,"213 Russell St, Melbourne VIC 3000, Australia",Melbourne,Victoria,AU,3000,-37.8115523,144.9672726,4,1125,570,295,119,91,50
Hophaus Bar,Bar,http://hophaus.com.au/,+61 3 9682 5900,"MR5/3 Southgate Ave, Southbank VIC 3006, Australia",Southbank,Victoria,AU,3006,-37.820243,144.965657,4,919,402,296,48,129,44
Dainty Sichuan Food ?????- South Yarra Store,Restaurant,http://daintysichuanfood.com.au/cn,+61 3 9078 1686,"176 Toorak Rd, South Yarra VIC 3141, Australia",South Yarra,Victoria,AU,3141,-37.8393109,144.9930073,4,915,473,230,98,75,39
Henry and The Fox,Restaurant,https://www.henryandthefox.com.au/,+61 3 9614 3277,"525 Little Collins St, Melbourne VIC 3000, Australia",Melbourne,Victoria,AU,3000,-37.8171167,144.9572444,4,905,345,346,47,129,38
Cafe Notturno,Cafe,,+61 3 9347 8286,"179 Lygon St, Carlton VIC 3053, Australia",Carlton,Victoria,AU,3053,-37.8014725,144.966634,4,891,443,228,71,111,38
Supper Inn,Restaurant,https://www.facebook.com/pages/Supper-Inn/153690991329647,+61 3 9663 4759,"Level 1/15 Celestial Ave, Melbourne VIC 3000, Australia",Melbourne,Victoria,AU,3000,-37.8118638,144.966165,4,727,331,207,71,82,36
Piccolo Mondo,Restaurant,http://piccolomondo.restaurant/,+61 3 9650 9064,"240 Lygon St, Carlton VIC 3053, Australia",Carlton,Victoria,AU,3053,-37.8015563,144.9671139,4,644,373,99,84,43,45
Ca De Vin,Restaurant,https://www.cadevin.com/,+61 3 9654 3639,"Melbourne GPO, 350 Bourke St, Melbourne VIC 3000, Australia",Melbourne,Victoria,AU,3000,-37.8138627,144.9636075,4,607,295,163,58,63,28
Grill'd Southern Cross,Restaurant,https://www.grilld.com.au/restaurants/victoria/melbourne/southern-cross#GoogleLocal,+61 3 9670 4100,"Southern Cross Station Cnr Collins St &, Spencer St, Melbourne VIC 3000, Australia",Melbourne,Victoria,AU,3000,-37.818963,144.9536221,4,574,269,175,47,62,21
Ginza Teppanyaki,Restaurant,https://ginzateppanyaki.com.au/,+61 3 9663 1155,"139 Little Bourke St, Melbourne VIC 3000, Australia",Melbourne,Victoria,AU,3000,-37.8117282,144.9684233,4,563,301,131,63,43,25
Wagyu One,Restaurant,https://wagyuone.com.au/,+61 3 9639 7198,"122 Bourke St, Melbourne VIC 3000, Australia",Melbourne,Victoria,AU,3000,-37.8120687,144.9695645,4,505,254,127,63,49,12
Persian Room 248 Restaurant,Restaurant,http://persianroomrestaurant.com.au/,+61 3 9826 4835,"248 Toorak Rd, South Yarra VIC 3141, Australia",South Yarra,Victoria,AU,3141,-37.8396168,144.9952318,4,492,265,109,63,41,14
Bistro Guillaume,Restaurant,https://www.crownmelbourne.com.au/restaurants/premium/bistro-guillaume/info-booking?utm_source=google&utm_medium=organic&utm_id=gmb,+61 3 9292 5777,"8, Riverside, Crown Melbourne, Whiteman St, Southbank VIC 3006, Australia",Southbank,Victoria,AU,3006,-37.8221868,144.9594149,4,477,249,100,49,45,34
Rosetta Ristorante,Restaurant,https://www.rosettarestaurant.com.au/,+61 3 9081 0534,"Crown Riverwalk, Crown Melbourne, 8 Whiteman St, Southbank VIC 3006, Australia",Southbank,Victoria,AU,3006,-37.8215883,144.9605757,4,464,251,94,56,35,28
90 Secondi,Restaurant,http://90secondi.com.au/,+61 3 9600 2841,"1/700 Bourke St, Docklands VIC 3000, Australia",Docklands,Victoria,AU,3000,-37.8176925,144.9486753,4,405,174,127,27,61,16
"Achelya Restaurant, Cafe & Bar",Restaurant,http://www.achelya.com.au/,+61 3 9602 2234,"23 Aquitania Way, Docklands VIC 3008, Australia",Docklands,Victoria,AU,3008,-37.814172,144.942681,4,395,226,60,51,35,23
Eat All Korean BBQ Buffet,Restaurant,http://www.eatallbbq.com.au/,+61 433 630 408,"156 Peel St, North Melbourne VIC 3051, Australia",North Melbourne,Victoria,AU,3051,-37.8042819,144.9566416,4,388,195,97,50,33,13
OhGam Korean BBQ Buffet,Restaurant,https://www.facebook.com/ohgam17,+61 481 333 690,"shop 1/139 Lonsdale St, Melbourne VIC 3000, Australia",Melbourne,Victoria,AU,3000,-37.8107439,144.968102,4,381,199,81,42,39,20
Kanpai,Restaurant,http://www.kanpai.com.au/,+61 3 9827 4379,"569 Chapel St, South Yarra VIC 3141, Australia",South Yarra,Victoria,AU,3141,-37.8405556,144.9952778,4,303,162,63,33,31,14
Biryani King Docklands,Restaurant,https://www.biryanikingrestaurant.com.au/,+61 3 8698 9999,"62 Newquay Promenade, Docklands VIC 3008, Australia",Docklands,Victoria,AU,3008,-37.815038,144.9410054,4,279,176,31,49,18,5
Intersection Cafe Carlton,Takeout Restaurant,https://www.intersectioncafe.com.au/,+61 3 9349 5046,"341 Lygon St, Carlton VIC 3053, Australia",Carlton,Victoria,AU,3053,-37.7972947,144.9673149,4,193,91,49,18,25,10
Smile Thai Cuisine,Restaurant,http://facebook.com/ismilethaicuisine,+61 3 9329 5568,"357 Victoria St, West Melbourne VIC 3003, Australia",West Melbourne,Victoria,AU,3003,-37.8053499,144.9496255,4,190,110,33,22,15,10
The Pancake Parlour District Docklands,Restaurant,/url?q=http://www.pancakeparlour.com.au/&sa=U&ved=0ahUKEwjExp7YlM76AhW9jIkEHbAbBbYQ61gIGygQ&usg=AOvVaw0t22VSwZqNBQYms9F9yox2,+61 3 9642 7494,"440 Docklands Dr, Docklands VIC 3008, Australia",Docklands,Victoria,AU,3008,-37.8120661,144.9368356,4,173,87,42,16,18,10
The Fair Trader,Restaurant,http://www.thefairtradercafebar.com.au/,+61 3 9041 7032,"11 Exhibition St, Melbourne VIC 3000, Australia",Melbourne,Victoria,AU,3000,-37.8155787,144.9718577,4,145,59,51,9,19,7
Mr. Tod Cafe,Cafe,http://eurekahospitality.com.au/,+61 3 9654 5477,"2 St Andrews Pl, East Melbourne VIC 3002, Australia",East Melbourne,Victoria,AU,3002,-37.8117108,144.9757089,4,141,56,55,6,15,9
Poké Me South Yarra,Restaurant,http://www.pokeme.life/,+61 458 465 863,"180 Toorak Rd, South Yarra VIC 3141, Australia",South Yarra,Victoria,AU,3141,-37.8392723,144.9931577,4,136,69,31,11,14,11
Grocery Bar East Melbourne,Cafe,,+61 3 9419 4659,"5/412-442 Victoria Parade, East Melbourne VIC 3002, Australia",East Melbourne,Victoria,AU,3002,-37.8099179,144.985236,4,124,71,23,17,6,7
Little Collins St Kitchen,Restaurant,/url?q=https://www.lcskmelbournerestaurant.com/%3Futm_source%3Dgoogle%26utm_medium%3Dorganic%26utm_campaign%3DMyBusiness%26utm_content%3DMain&sa=U&ved=0ahUKEwjyyNjck876AhXIrYkEHWWKAZcQ61gIGygQ&usg=AOvVaw0L4MBIVhI0uG6C-yXSi0K-,+61 3 9290 1056,"1/27 Little Collins St, Melbourne VIC 3000, Australia",Melbourne,Victoria,AU,3000,-37.8127501,144.9725559,4,123,55,34,6,18,10
So Thai,Restaurant,https://www.sothaitapas.com/,+61 3 9329 5855,"25/31 Peel St, West Melbourne VIC 3003, Australia",West Melbourne,Victoria,AU,3003,-37.807613,144.9554257,4,122,66,28,16,8,4
Mr Grazier,Restaurant,https://facebook.com/pages/Mr-Grazier/1420371801512345,+61 3 9975 8088,"700 Bourke St, Docklands VIC 3008, Australia",Docklands,Victoria,AU,3008,-37.8174518,144.9497043,4,113,47,38,9,14,5
ArtVo,"Art, Museum & Theater",http://www.artvo.com.au/,+61 3 9600 1118,"Shop NCF, 07 Level/1 26 Star Cres, Docklands VIC 3008, Australia",Docklands,Victoria,AU,3008,-37.8128346,144.9376494,4.6,2020,1511,364,35,88,22
Australian Centre for Contemporary Art,"Art, Museum & Theater",http://www.acca.melbourne/,+61 3 9697 9999,"111 Sturt St, Southbank VIC 3006, Australia",Southbank,Victoria,AU,3006,-37.8265889,144.9670222,4.2,415,219,114,15,49,18
National Gallery of Victoria,"Art, Museum & Theater",https://www.ngv.vic.gov.au/,+61 3 8620 2222,"180 St Kilda Rd, Melbourne VIC 3006, Australia",Melbourne,Victoria,AU,3006,-37.8225942,144.9689278,4.7,16417,12728,2911,166,497,115
The Ian Potter Centre: NGV Australia,"Art, Museum & Theater",http://www.ngv.vic.gov.au/,+61 3 8620 2222,"Federation Square, Flinders St &, Russell St, Melbourne VIC 3000, Australia",Melbourne,Victoria,AU,3000,-37.8170507,144.9697357,4.6,1514,1095,324,16,65,14
Hellenic Museum,"Art, Museum & Theater",http://www.hellenic.org.au/,+61 3 8615 9016,"280 William St, Melbourne VIC 3000, Australia",Melbourne,Victoria,AU,3000,-37.8121451,144.9571255,4.6,307,216,66,4,17,4
Immigration Museum,"Art, Museum & Theater",https://museumsvictoria.com.au/immigrationmuseum/,+61 131102,"400 Flinders St, Melbourne VIC 3000, Australia",Melbourne,Victoria,AU,3000,-37.8192442,144.9604547,4.4,2184,1290,561,48,224,61
Melbourne Museum,"Art, Museum & Theater",https://museumsvictoria.com.au/melbournemuseum,+61 131102,"11 Nicholson St, Carlton VIC 3053, Australia",Carlton,Victoria,AU,3053,-37.803273,144.9717408,4.6,11716,8474,2530,120,498,94
ACMI,"Art, Museum & Theater",http://www.acmi.net.au/,+61 3 8663 2200,"Federation Square, Flinders St, Melbourne VIC 3000, Australia",Melbourne,Victoria,AU,3000,-37.8175974,144.9686881,4.7,3250,2390,688,24,119,29
Australian Sports Museum,"Art, Museum & Theater",http://www.australiansportsmuseum.org.au/,+61 3 9657 8879,"Gate 3,Melbourne Cricket Ground Yarra Park, Brunton Ave, East Melbourne VIC 3002, Australia",East Melbourne,Victoria,AU,3002,-37.8199669,144.9834493,4.6,460,317,107,7,23,6
Old Melbourne Gaol,"Art, Museum & Theater",http://www.oldmelbournegaol.com.au/,+61 3 9656 9889,"377 Russell St, Melbourne VIC 3000, Australia",Melbourne,Victoria,AU,3000,-37.807832,144.9653171,4.5,2400,1514,625,39,190,32
Old Treasury Building,"Art, Museum & Theater",http://www.oldtreasurybuilding.org.au/,+61 3 9651 2233,"20 Spring St, East Melbourne VIC 3002, Australia",East Melbourne,Victoria,AU,3002,-37.8135825,144.9738786,4.5,1151,714,337,5,84,11
Royal Exhibition Building,Convention center,https://museumsvictoria.com.au/reb/,+61 3 9270 5000,"9 Nicholson St, Carlton VIC 3053, Australia",Carlton,Victoria,AU,3053,-37.8046891,144.9716502,4.6,4591,3212,1058,54,233,34
Royal Botanic Gardens Victoria - Melbourne Gardens,Garden & Park,https://www.rbg.vic.gov.au/,+61 3 9252 2300,"Melbourne VIC 3004, Australia",Melbourne,Victoria,AU,3004,-37.8303689,144.9796056,4.8,12624,10503,1779,59,243,40
Birrarung Marr,Garden & Park,,+61 3 9658 9658,"Melbourne VIC 3004, Australia",Melbourne,Victoria,AU,3004,-37.8187351,144.9742624,4.5,2633,1561,801,26,210,35
Fitzroy Gardens,Garden & Park,https://www.melbourne.vic.gov.au/community/parks-open-spaces/major-parks-gardens/pages/fitzroy-gardens.aspx,+61 3 9658 9658,"Wellington Parade, East Melbourne VIC 3002, Australia",East Melbourne,Victoria,AU,3002,-37.8127215,144.9800679,4.7,5377,3982,1127,28,214,26
Flagstaff Gardens,Garden & Park,https://www.melbourne.vic.gov.au/community/parks-open-spaces/Pages/parks-open-spaces.aspx,+61 3 9658 9658,"309-311 William St, West Melbourne VIC 3003, Australia",West Melbourne,Victoria,AU,3003,-37.8105577,144.9545199,4.6,5837,3850,1607,31,325,24
Treasury Gardens,Garden & Park,https://www.melbourne.vic.gov.au/community/parks-open-spaces/major-parks-gardens/Pages/treasury-gardens.aspx,+61 3 9658 9658,"2-18 Spring St, East Melbourne VIC 3002, Australia",East Melbourne,Victoria,AU,3002,-37.8143335,144.9759842,4.6,1530,1076,354,9,86,5
Queen Victoria Market,Market,http://www.qvm.com.au/,+61 3 9320 5822,"Queen St, Melbourne VIC 3000, Australia",Melbourne,Victoria,AU,3000,-37.8075798,144.956785,4.5,40119,24548,11191,395,3332,653
South Melbourne Market,Market,https://www.southmelbournemarket.com.au/,+61 3 9209 6295,"322-326 Coventry St, South Melbourne VIC 3205, Australia",South Melbourne,Victoria,AU,3205,-37.8320111,144.9559391,4.6,13846,9407,3504,122,698,115
Fed Square,Tourist attraction,https://www.fedsquare.com/,+61 3 9655 1900,"Swanston St & Flinders St, Melbourne VIC 3000, Australia",Melbourne,Victoria,AU,3000,-37.8179789,144.9690576,4.5,2271,1447,601,50,134,39
City Library,Public library,https://www.melbourne.vic.gov.au/community/libraries/Pages/libraries.aspx,+61 3 9658 9500,"253 Flinders Ln, Melbourne VIC 3000, Australia",Melbourne,Victoria,AU,3000,-37.8168425,144.9658808,4.5,242,158,56,6,16,6
Crown Melbourne,Tourist attraction,https://www.crownmelbourne.com.au/?utm_source=google&utm_medium=organic&utm_content=crown_melbourne&utm_campaign=gmb,+61 3 9292 8888,"8 Whiteman St, Southbank VIC 3006, Australia",Southbank,Victoria,AU,3006,-37.8235301,144.9580953,4.4,41964,25132,10909,1453,3515,955
"St Paul's Cathedral, Melbourne",Tourist attraction,https://cathedral.org.au/,+61 3 9653 4333,"Flinders St, Melbourne VIC 3000, Australia",Melbourne,Victoria,AU,3000,-37.817029,144.967687,4.6,2304,1630,502,20,138,14
St Patrick's Cathedral,Tourist attraction,http://www.cam.org.au/cathedral,+61 3 9662 2233,"1 Cathedral Pl, East Melbourne VIC 3002, Australia",East Melbourne,Victoria,AU,3002,-37.8100833,144.9764167,4.7,2502,1894,475,30,93,10
Melbourne Town Hall,Tourist attraction,https://www.melbourne.vic.gov.au/Pages/home.aspx,+61 3 9658 9658,"90-130 Swanston St, Melbourne VIC 3000, Australia",Melbourne,Victoria,AU,3000,-37.8150856,144.9665653,4.5,303,209,60,10,22,2
Parliament House,Tourist attraction,https://www.parliament.vic.gov.au/,+61 3 9651 8911,"Spring St, East Melbourne VIC 3002, Australia",East Melbourne,Victoria,AU,3002,-37.8110469,144.973821,4.1,359,198,91,38,26,6
Nicholas Building,Tourist attraction,http://thenicholasbuilding.blogspot.com.au/,+61 3 9654 3222,"37 Swanston St, Melbourne VIC 3000, Australia",Melbourne,Victoria,AU,3000,-37.8167088,144.9667771,4.5,116,73,30,2,10,1
Chinatown Melbourne,Tourist attraction,http://chinatownmelbourne.com.au/,+61 474 043 600,"Little Bourke St, Melbourne VIC 3000, Australia",Melbourne,Victoria,AU,3000,-37.812006,144.9668036,4.2,4963,2482,1516,105,717,143
Melbourne Skydeck,Tourist attraction,http://www.melbourneskydeck.com.au/,+61 3 9693 8888,"7 Riverside Quay, Southbank VIC 3006, Australia",Southbank,Victoria,AU,3006,-37.8213341,144.9646982,4.5,12053,7934,2969,158,828,164
Arts Centre Melbourne,Tourist attraction,https://www.artscentremelbourne.com.au/,+61 1300 182 183,"100 St Kilda Rd, Melbourne VIC 3004, Australia",Melbourne,Victoria,AU,3004,-37.820183,144.9681048,4.7,6682,4849,1497,43,256,37
State Library Victoria,Tourist attraction,https://www.slv.vic.gov.au/,+61 3 8664 7000,"328 Swanston St, Melbourne VIC 3000, Australia",Melbourne,Victoria,AU,3000,-37.8098087,144.9651897,4.7,2138,1736,303,43,45,11
Spirit Of Melbourne Cruising Restaurant,Tourist attraction,http://www.melbcruises.com.au/,+61 3 8610 2600,"Southbank Promenade, Southbank Berth 1, Melbourne VIC 3006, Australia",Melbourne,Victoria,AU,3006,-37.8199496,144.9655336,4.4,128,87,25,10,3,3
Cooks' Cottage,Tourist attraction,https://whatson.melbourne.vic.gov.au/things-to-do/cooks-cottage,+61 3 9658 9658,"Fitzroy Gardens, Wellington Parade, East Melbourne VIC 3002, Australia",East Melbourne,Victoria,AU,3002,-37.8144963,144.9794409,4.3,1523,795,446,26,212,44
Melbourne River Cruises,Tourist attraction,https://www.melbcruises.com.au/,+61 3 8610 2600,"Berth 2, Southbank Promenade, Southbank VIC 3006, Australia",Southbank,Victoria,AU,3006,-37.8199185,144.965806,4.3,740,446,163,39,73,19
Shrine of Remembrance,Tourist attraction,http://www.shrine.org.au/,+61 3 9661 8100,"Birdwood Ave, Melbourne VIC 3001, Australia",Melbourne,Victoria,AU,3001,-37.8305164,144.9734319,4.8,6147,4971,992,12,147,25
Flinders Street Railway Station,Tourist attraction,https://www.ptv.vic.gov.au/,+61 3 9610 7476,"Flinders St, Melbourne VIC 3000, Australia",Melbourne,Victoria,AU,3000,-37.8182711,144.9670618,4.4,1906,1148,501,60,155,42
SEA LIFE Melbourne Aquarium,Zoo & Aquarium,https://www.visitsealife.com/melbourne/?utm_source=gmb&utm_medium=organic&utm_campaign=yext&utm_content=2,,"King St, Melbourne VIC 3000, Australia",Melbourne,Victoria,AU,3000,-37.820627,144.95822,4.3,12774,7144,3641,323,1297,369
Melbourne Zoo,Zoo & Aquarium,https://www.zoo.org.au/melbourne,+61 1300 966 784,"Elliott Ave, Parkville VIC 3052, Australia",Parkville,Victoria,AU,3052,-37.7841346,144.9515473,4.4,4038,2709,770,224,230,105
The Block Arcade,Shopping mall,http://www.theblock.com.au/,+61 3 9654 5244,"282 Collins St, Melbourne VIC 3000, Australia",Melbourne,Victoria,AU,3000,-37.815795,144.9646665,4.5,2598,1546,802,16,214,20
Melbourne Central,Shopping mall,http://www.melbournecentral.com.au/,+61 3 9922 1122,"Cnr LaTrobe and Swanston Streets, Melbourne VIC 3000, Australia",Melbourne,Victoria,AU,3000,-37.8102361,144.9627652,4.4,19795,11066,6327,303,1820,279
Royal Arcade,Shopping mall,http://www.royalarcade.com.au/,+61 438 891 212,"335 Bourke St, Melbourne VIC 3000, Australia",Melbourne,Victoria,AU,3000,-37.8145388,144.9640625,4.4,3800,2030,1263,22,443,42
Emporium Melbourne,Shopping mall,http://emporiummelbourne.com.au/,+61 3 8609 8221,"287 Lonsdale St, Melbourne VIC 3000, Australia",Melbourne,Victoria,AU,3000,-37.8124234,144.9638295,4.4,14215,7706,4811,166,1347,185
Bourke Street Mall,Shopping mall,https://www.visitvictoria.com/regions/melbourne/destinations/bourke-street-mall,,"Bourke St, Melbourne VIC 3000, Australia",Melbourne,Victoria,AU,3000,-37.8137685,144.9644379,4.3,5042,2641,1667,68,585,81
Melbourne's GPO,Shopping mall,http://www.melbournesgpo.com/,+61 3 9290 0200,"350 Bourke St, Melbourne VIC 3000, Australia",Melbourne,Victoria,AU,3000,-37.8135391,144.9632758,4.3,2316,1112,815,32,313,44
QV Melbourne,Shopping mall,http://www.qv.com.au/,+61 3 9207 9200,"Cnr Lonsdale Street and, Swanston St, Melbourne VIC 3000, Australia",Melbourne,Victoria,AU,3000,-37.810632,144.9656403,4.3,9660,4735,3475,129,1170,151
Midtown Melbourne,Shopping mall,,+61 3 9290 0200,"246 Bourke St, Melbourne VIC 3000, Australia",Melbourne,Victoria,AU,3000,-37.8130765,144.9658905,4.2,525,227,190,10,84,14
Collins234,Shopping mall,http://collins234.com.au/,+61 3 8539 3001,"234 Collins St, Melbourne VIC 3000, Australia",Melbourne,Victoria,AU,3000,-37.8154695,144.9659663,4.2,245,112,86,3,40,4
Collins Place,Shopping mall,https://www.collinsplace.com.au/,+61 3 9655 3600,"45 Collins St, Melbourne VIC 3000, Australia",Melbourne,Victoria,AU,3000,-37.8144674,144.9733256,4.2,3013,1278,1110,44,521,60
The Strand Melbourne,Shopping mall,http://www.thestrandmelbourne.com/,+61 3 9290 0200,"250 Elizabeth St, Melbourne VIC 3000, Australia",Melbourne,Victoria,AU,3000,-37.8127823,144.9627044,4.2,504,232,181,4,73,14
Southgate,Shopping mall,http://www.southgatemelbourne.com.au/,+61 3 9960 8100,"3 Southgate Ave, Southbank VIC 3006, Australia",Southbank,Victoria,AU,3006,-37.8203389,144.9660726,4.2,3678,1654,1293,57,577,97
The District Docklands,Shopping mall,https://www.thedistrictdocklands.com.au/,+61 3 9328 8600,"440 Docklands Dr, Docklands VIC 3008, Australia",Docklands,Victoria,AU,3008,-37.8125536,144.9369982,4.1,8383,3805,2659,211,1336,372
Spencer Outlet Centre,Shopping mall,http://www.spenceroutletcentre.com.au/,+61 3 8689 7577,"201 Spencer St, Docklands VIC 3008, Australia",Docklands,Victoria,AU,3008,-37.8163889,144.9525,4.1,6884,2858,2420,130,1262,214
Midcity Centre,Shopping mall,https://www.midcitycentre.com.au/,+61 3 9275 7777,"200 Bourke St, Melbourne VIC 3000, Australia",Melbourne,Victoria,AU,3000,-37.8128004,144.9674292,4.1,218,93,65,3,45,12
St. Collins Lane,Shopping mall,https://stcollinslane.com.au/?utm_source=google&utm_medium=directory-organic&utm_campaign=my-business-profile,,"260 Collins St, Melbourne VIC 3000, Australia",Melbourne,Victoria,AU,3000,-37.8156628,144.9649979,4.1,556,249,191,19,77,20
Centreway Arcade,Shopping mall,,,"Collins St, Melbourne VIC 3000, Australia",Melbourne,Victoria,AU,3000,-37.8160656,144.965325,4.1,118,49,42,2,24,1
